X,Y,OBJECTID_1,OBJECTID,StaType,StnType,ZipCode,State,City,Address2,Address1,Name,Code,StationNam
-9422620.1537,5371788.2363,1,1,Station Building (with waiting room),BUS,48801,MI,Alma,Transportation Center,1105 Willow Run Drive, ,AAM,"Alma, MI"
-8216400.9474,5273162.5962,2,2,Curbside Bus Stop only (no shelter),BUS,12211,NY,Albany, ,737 Albany Shaker Road,Albany Intl Airport,ABA,"Albany, NY"
-10053783.5084,5610281.9095,3,3,Curbside Bus Stop only (no shelter),BUS,54421,WI,Colby, ,1210 North Division St., ,ABB,"Abbotsford-Colby, WI"
-8478455.5495,4794767.2972,4,4,Station Building (with waiting room),TRAIN,21001,MD,Aberdeen, ,18 East Bel Air Avenue, ,ABE,"Aberdeen, MD"
-11871999.3867,4175039.2734,5,6,Station Building (with waiting room),TRAIN,87102,NM,Albuquerque, ,320 1st Street SW, ,ABQ,"Albuquerque, NM"
-13560499.2263,4581927.2388,6,7,Platform with Shelter,TRAIN,94509,CA,Antioch, ,100 I Street, ,ACA,"Antioch-Pittsburg, CA"
-10088263.0881,4521971.9435,7,8,Station Building (with waiting room),TRAIN,63621,MO,Arcadia, ,13700 Highway 21, ,ACD,"Arcadia, MO"
-10811963.1731,4051984.2427,8,10,Station Building (with waiting room),TRAIN,73401,OK,Ardmore, ,251 East Main Street, ,ADM,"Ardmore, OK"
-7770003.9757,5520688.1742,9,11,Curbside Bus Stop only (no shelter),BUS,04330,ME,Augusta, ,9 Industrial Drive, ,AGM,"Augusta, ME"
-13657744.3396,5188844.52,10,12,Curbside Bus Stop only (no shelter),BUS,97520,OR,Ashland, ,499 Stadium Street,Southern Oregon University,AHL,"Ashland, OR"
-8306520.1112,5183143.068,11,13,Curbside Bus Stop only (no shelter),BUS,12406,NY,Arkville, ,43365 State Highway 28, ,AKV,"Arkville, NY"
-9199398.9684,4647582.8889,12,14,Platform with Shelter,TRAIN,41101,KY,Ashland, ,99 15th Street, ,AKY,"Ashland, KY"
-9438846.5578,5691091.7661,13,15,Curbside Bus Stop only (no shelter),BUS,49706,MI,Alanson, ,7640 Burr Avenue, ,ALA,"Alanson, MI"
-8208827.0999,5257492.7455,14,16,Station Building (with waiting room),TRAIN,12144,NY,Rensselaer, ,525 East Street, ,ALB,"Albany-Rensselaer, NY"
-9027221.1912,5000737.8502,15,17,Platform only (no shelter),TRAIN,44601,OH,Alliance, ,820 East Main Street, ,ALC,"Alliance, OH"
-8977344.6756,4540549.3323,16,18,Platform with Shelter,TRAIN,24910,WV,Alderson, ,1 C&O Plaza on Railroad Avenue, ,ALD,"Alderson, WV"
-9434974.6047,5198081.6448,17,19,Station Building (with waiting room),TRAIN,49224,MI,Albion, ,300 North Eaton Street, ,ALI,"Albion, MI"
-9292557.4456,5631320.5973,18,20,Curbside Bus Stop only (no shelter),BUS,49707,MI,Alpena, ,1180 Michigan Highway 32 West, ,ALM,"Alpena, MI"
-10036265.1951,4710363.8408,19,21,Station Building (with waiting room),TRAIN,62002,IL,Alton, ,1 Golf Road, ,ALN,"Alton, IL"
-11539547.8486,3549561.5082,20,22,Station Building (with waiting room),TRAIN,79830,TX,Alpine, ,102 West Holland Avenue, ,ALP,"Alpine, TX"
-8727628.7304,4940989.6483,21,23,Station Building (with waiting room),TRAIN,16601,PA,Altoona, ,1231 11th Avenue, ,ALT,"Altoona, PA"
-8578539.5907,4693993.6752,22,24,Station Building (with waiting room),TRAIN,22301,VA,Alexandria, ,110 Callahan Drive, ,ALX,"Alexandria, VA"
-13703739.7163,5563532.8493,23,25,Station Building (with waiting room),TRAIN,97321,OR,Albany, ,110 10th Avenue SW, ,ALY,"Albany, OR"
-8262077.132,5304931.3773,24,26,Station Building (with waiting room),TRAIN,12010,NY,Amsterdam, ,466 West Main Street, ,AMS,"Amsterdam, NY"
-13122043.2502,4002488.538,25,27,Station Building (with waiting room),TRAIN,92806,CA,Anaheim, ,2626 East Katella Avenue, ,ANA,"Anaheim, CA"
-8324968.2061,5189433.7967,26,28,Curbside Bus Stop only (no shelter),BUS,13731,NY,Andes, ,85 Main Street, ,AND,"Andes, NY"
-9841295.1223,5506282.2736,27,29,Station Building (with waiting room),BUS,54911,WI,Appleton, ,100 East Washington Street, ,APP,"Appleton, WI"
-9322245.7752,5204173.4285,28,30,Station Building (with waiting room),TRAIN,48104,MI,Ann Arbor, ,325 Depot Street, ,ARB,"Ann Arbor, MI"
-13812947.532,4992985.0706,29,31,Curbside Bus Stop only (no shelter),BUS,95521,CA,Arcata, ,925 E Street, ,ARC,"Arcata, CA"
-8381289.0803,4867146.4618,30,32,Station Building (with waiting room),TRAIN,19003,PA,Ardmore, ,39 Station Avenue, ,ARD,"Ardmore, PA"
-10358644.93,4044109.6687,31,33,Station Building (with waiting room),TRAIN,71923,AR,Arkadelphia, ,798 South 5th Street, ,ARK,"Arkadelphia, AR"
-13478920.184,4707878.6623,32,34,Platform with Shelter,TRAIN,95603,CA,Auburn, ,277 Nevada Street, ,ARN,"Auburn, CA"
-13785060.4338,5810883.9416,33,35,Curbside Bus Stop only (no shelter),BUS,97103,OR,Astoria, ,900 Marine Drive, ,ART,"Astoria, OR"
-8625179.5705,4545521.2959,34,36,Platform with Shelter,TRAIN,23005,VA,Ashland, ,112 North Railroad Avenue, ,ASD,"Ashland, VA"
-8889497.5869,5359800.1263,35,37,Station Building (with waiting room),TRAIN,L7T 4A8,ON,Aldershot, ,1199 Waterdown Road, ,AST,"Aldershot, ON"
-13432341.0543,4230528.7,36,38,Curbside Bus Stop only (no shelter),BUS,93422,CA,Atascadero, ,6000 Capistrano Avenue, ,ATA,"Atascadero, CA"
-9394528.0347,4001904.9388,37,39,Station Building (with waiting room),TRAIN,30309,GA,Atlanta, ,"1688 Peachtree Street, NW", ,ATL,"Atlanta, GA"
-9554791.1885,3981783.9434,38,40,Station Building (with waiting room),TRAIN,36201,AL,Anniston, ,126 West 4th Street, ,ATN,"Anniston, AL"
-7822020.6947,5471279.1307,39,42,Station Building (with waiting room),BUS,04210,ME,Auburn, ,1707 S. Washington Street, ,AUR,"Auburn, ME"
-10882253.6316,3538232.9055,40,43,Station Building (with waiting room),TRAIN,78703,TX,Austin, ,250 North Lamar Boulevard, ,AUS,"Austin, TX"
-8654676.3896,5298463.8939,41,44,Curbside Bus Stop only (no shelter),BUS,14414,NY,Avon, ,68 Genesee Street, ,AVO,"Avon, NY"
-8400444.2806,4954340.9773,42,45,Station Building (with waiting room),BUS,18101,PA,Allentown, ,325 Hamilton Street, ,AWN,"Allentown, PA"
-8607070.8119,5211332.5817,43,46,Curbside Bus Stop only (no shelter),BUS,14810,NY,Bath, ,51 Liberty Street, ,BAH,"Bath, NY"
-13114899.9245,5587197.3973,44,47,Station Building (with waiting room),BUS,97814,OR,Baker City, ,515 Campbell Street, ,BAK,"Baker City, OR"
-8528819.6186,4765787.1622,45,48,Station Building (with waiting room),TRAIN,21201,MD,Baltimore, ,1500 North Charles Street,Penn Station,BAL,"Baltimore, MD"
-9585905.1787,5208211.1272,46,49,Station Building (with waiting room),TRAIN,49013,MI,Bangor, ,541 Railroad Street, ,BAM,"Bangor, MI"
-7659754.6763,5592698.6119,47,50,Station Building (with waiting room),BUS,04401,ME,Bangor, ,1039 Union Street, ,BAN,"Bangor, ME"
-13027213.1756,4150954.7548,48,51,Platform with Shelter,TRAIN,92311,CA,Barstow, ,685 North First Avenue,Harvey House Rail Depot,BAR,"Barstow, CA"
-13024207.4373,4149116.6026,49,52,Curbside Bus Stop only (no shelter),BUS,92311,CA,Barstow, ,1611 East Main St,McDonald's restaurant,BBS,"Barstow, CA"
-7912125.047,5213149.9743,50,53,Station Building (with waiting room),TRAIN,02116,MA,Boston, ,145 Dartmouth Street,Back Bay Station,BBY,"Boston, MA"
-13205655.3586,5410256.1584,51,54,Curbside Bus Stop only (no shelter),BUS,97720,OR,Buchanan, ,42456 U.S. Highway 20, ,BCH,"Buchanan, OR"
-8604862.2056,4692674.953,52,55,Platform with Shelter,TRAIN,22015,VA,Burke,Virginia Railway Express Station,10399 Premier Court, ,BCV,"Burke Centre, VA"
-9338249.9748,5404033.7001,53,56,Station Building (with waiting room),BUS,48708,MI,Bay City, ,1124 Washington Avenue, ,BCY,"Bay City, MI"
-9185223.369,3189653.301,54,57,Curbside Bus Stop only (no shelter),BUS,34222,FL,Ellenton, ,1526 51st Avenue East, ,BDT,"Bradenton-Ellenton, FL"
-13637892.2151,6227529.4419,55,58,Station Building (with waiting room),TRAIN,98225,WA,Bellingham, ,401 Harris Avenue, ,BEL,"Bellingham, WA"
-12278196.3653,3759210.9828,56,59,Platform with Shelter,TRAIN,85602,AZ,Benson, ,105 East 4th Street, ,BEN,"Benson, AZ"
-8100193.3721,5106549.9428,57,60,Platform with Shelter,TRAIN,06037,CT,Berlin, ,51 Depot Road, ,BER,"Berlin, CT"
-9906223.7708,5234675.336,58,61,Curbside Bus Stop only (no shelter),BUS,61080,IL,South Beloit, ,15766 Manchester Road, ,BET,"South Beloit, IL"
-13247934.7211,4214569.8659,59,62,Station Building (with waiting room),TRAIN,93301,CA,Bakersfield, ,601 Truxtun Avenue, ,BFD,"Bakersfield, CA"
-7683937.3942,5531090.8838,60,63,Curbside Bus Stop only (no shelter),BUS,04915,ME,Belfast, ,22 Belmont Avenue, ,BFT,"Belfast, ME"
-11873314.7508,5520906.8874,61,64,Curbside Bus Stop only (no shelter),BUS,82834,WY,Buffalo, ,187 US Hwy 16, ,BFW,"Buffalo, WY"
-8780185.8157,5293490.0945,62,65,Station Building (with waiting room),TRAIN,14203,NY,Buffalo, ,75 Exchange Street,Exchange Street Station,BFX,"Buffalo, NY"
-9515992.7479,5415031.5263,63,66,Curbside Bus Stop only (no shelter),BUS,49307,MI,Big Rapids, ,14219 Northland Drive, ,BGP,"Big Rapids, MI"
-9663314.1411,3963588.21,64,67,Station Building (with waiting room),TRAIN,35203,AL,Birmingham,1801 Morris Avenue,Intermodal Facility, ,BHM,"Birmingham, AL"
-13425527.4235,5436709.4856,65,68,Curbside Bus Stop only (no shelter),BUS,97712,OR,Brothers, ,34100 U.S. Highway 20, ,BHS,"Brothers, OR"
-9895163.5223,3554828.383,66,69,Station Building (with waiting room),BUS,39530,MS,Biloxi, ,820 Martin Luther King Jr. Boulevard, ,BIG,"Biloxi, MS"
-7924548.5434,5536758.09,67,70,Curbside Bus Stop only (no shelter),BUS,03570,NH,Berlin, ,318 Glen Avenue, ,BIN,"Berlin, NH"
-8779792.8412,5007729.5723,68,71,Curbside Bus Stop only (no shelter),BUS,15715,PA,Big Run, ,401 East Main Street, ,BIR,"Big Run, PA"
-13835713.0597,5169191.4715,69,72,Station Building (with waiting room),BUS,97415,OR,Brookings, ,Highway 101 & 5th Street, ,BKO,"Brookings, OR"
-13704993.3076,5719322.5716,70,73,Curbside Bus Stop only (no shelter),BUS,97106,OR,Banks, ,118 Sunset Avenue, ,BKS,"Banks, OR"
-13614453.8973,4560690.8897,71,74,Platform with Shelter,TRAIN,94710,CA,Berkeley, ,700 University Avenue, ,BKY,"Berkeley, CA"
-8064495.7705,5332779.1118,72,75,Station Building (with waiting room),TRAIN,05101,VT,Bellows Falls, ,54 Depot Street, ,BLF,"Bellows Falls, VT"
-8952132.1358,4471202.5146,73,76,Platform with Shelter,BUS,24061,VA,Blacksburg, ,291 Alumni Mall,Virginia Tech,BLK,"Blacksburg, VA"
-8818705.6902,4930776.2915,74,77,Curbside Bus Stop only (no shelter),BUS,15717,PA,Blairsville, ,1601 Old William Penn Highway, ,BLS,"Blairsville, PA"
-10478211.3096,3513382.2796,75,78,Platform with Shelter,TRAIN,77704,TX,Beaumont, ,2555 West Cedar Street, ,BMT,"Beaumont, TX"
-8842611.8615,4313595.3248,76,79,Station Building (with waiting room),TRAIN,27217,NC,Burlington, ,101 North Main Street, ,BNC,"Burlington, NC"
-13503196.7197,5474457.1408,77,80,Curbside Bus Stop only (no shelter),BUS,97701,OR,Bend, ,334 Hawthorne Avenue, ,BND,"Bend, OR"
-13521838.7662,5734798.8875,78,81,Platform with Shelter,TRAIN,98605,WA,Bingen, ,Highway 14 and Walnut Street, ,BNG,"Bingen-White Salmon, WA"
-8147834.3535,5293539.9558,79,82,Curbside Bus Stop only (no shelter),BUS,05201,VT,Bennington, ,215 Pleasant Street,Green Mountain Express Bus Term,BNI,"Bennington, VT"
-9905688.3018,4940189.3859,80,83,Station Building (with waiting room),TRAIN,61761,IL,Normal, ,11 Uptown Circle, ,BNL,"Bloomington-Normal, IL"
-8151043.1391,5298035.621,81,84,Station Building (with waiting room),TRAIN,05201,VT,Bennington, ,51 Hannaford Square,Hampton Inn,BNN,"Bennington, VT"
-13254193.3355,5401246.0715,82,85,Curbside Bus Stop only (no shelter),BUS,97720,OR,Burns, ,230 Hines Boulevard, ,BNS,"Burns, OR"
-12934105.882,5399390.1737,83,86,Curbside Bus Stop only (no shelter),BUS,83705,ID,Boise, ,3353 South Federal Way, ,BOI,"Boise, ID"
-7910487.9822,5215999.8334,84,87,Station Building (with waiting room),TRAIN,02114,MA,Boston, ,135 Causeway Street,North Station,BON,"Boston, MA"
-7909840.325,5213902.2007,85,88,Station Building (with waiting room),TRAIN,02110,MA,Boston, ,2 South Station,South Station,BOS,"Boston, MA"
-8076952.4236,5289298.3523,86,89,Station Building (with waiting room),TRAIN,05301,VT,Brattleboro, ,10 Vernon Road, ,BRA,"Brattleboro, VT"
-10067854.5035,3708692.1642,87,90,Station Building (with waiting room),TRAIN,39601,MS,Brookhaven, ,440 North Railroad Avenue, ,BRH,"Brookhaven, MS"
-7934570.8442,5111471.1714,88,91,Platform only (no shelter),BUS,02809,RI,Bristol, ,147 Thames Street, ,BRI,"Bristol, RI"
-7788528.4328,5451740.8869,89,92,Station Building (with waiting room),TRAIN,04011,ME,Brunswick, ,16 Station Avenue, ,BRK,"Brunswick, ME"
-10141423.5353,4983738.604,90,93,Station Building (with waiting room),TRAIN,52601,IA,Burlington, ,300 South Main Street, ,BRL,"Burlington, IA"
-12580567.9116,6196170.0773,91,94,Platform with Shelter,TRAIN,59417,MT,Browning, ,Heart Butte Road and Depot Road, ,BRO,"Browning, MT"
-8147199.709,5038634.3077,92,95,Station Building (with waiting room),TRAIN,06604,CT,Bridgeport, ,525 Water Street, ,BRP,"Bridgeport, CT"
-10710055.1384,3552776.4382,93,96,Station Building (with waiting room),BUS,77802,TX,Bryan, ,3370 Texas Avenue, ,BRY,"Bryan, TX"
-8580086.174,5112162.4765,94,97,Curbside Bus Stop only (no shelter),BUS,16912,PA,Blossburg, ,U.S. Highway 15 exit ramp, ,BSS,"Blossburg, PA"
-9483065.8646,5208803.3837,95,98,Station Building (with waiting room),TRAIN,49017,MI,Battle Creek, ,119 McCamly Street South, ,BTL,"Battle Creek, MI"
-10149708.1865,3561492.5522,96,99,Station Building (with waiting room),BUS,70802,LA,Baton Rouge, ,1253 Florida Boulevard, ,BTR,"Baton Rouge, LA"
-8763803.5891,5297830.8675,97,100,Station Building (with waiting room),TRAIN,14043,NY,Depew, ,55 Dick Road,Depew Station,BUF,"Buffalo, NY"
-13379111.9528,4111097.115,98,101,Curbside Bus Stop only (no shelter),BUS,93427,CA,Buellton, ,237 East Highway 246, ,BUL,"Buellton, CA"
-13175082.4359,4054757.0898,99,102,Platform with Shelter,TRAIN,91505,CA,Burbank, ,3750 Empire Avenue,Hollywood Burbank Airport,BUR,"Burbank, CA"
-11811742.8406,4695197.9064,100,103,Curbside Bus Stop only (no shelter),BUS,81211,CO,Buena Vista, ,27318 County Road 314, ,BUV,"Buena Vista, CO"
-9887057.455,5381646.645,101,104,Curbside Bus Stop only (no shelter),BUS,53916,WI,Beaver Dam, ,817 Park Avenue, ,BVD,"Beaver Dam, WI"
-13668050.2566,5702207.3788,102,105,Curbside Bus Stop only (no shelter),BUS,97225,OR,Beaverton, ,10470 Southwest Barnes Road, ,BVT,"Beaverton, OR"
-8537570.6683,4749264.4833,103,106,Station Building (with waiting room),TRAIN,21240,MD,Baltimore, ,7 Amtrak Way, ,BWI,"BWI Marshall Airport, MD"
-13334007.414,6124106.0088,104,107,Curbside Bus Stop only (no shelter),BUS,98812,WA,Brewster, ,405 Highway 97, ,BWW,"Brewster, WA"
-9412263.7441,5083450.0296,105,108,Station Building (with waiting room),TRAIN,43506,OH,Bryan, ,Paige and Lynn Street, ,BYN,"Bryan, OH"
-8975155.4439,4062173.2199,106,109,Station Building (with waiting room),TRAIN,29020,SC,Camden, ,1060 West Dekalb Street, ,CAM,"Camden, SC"
-11836020.683,5290145.0634,107,110,Station Building (with waiting room),BUS,82601,WY,Casper, ,601 North Center Street, ,CAS,"Casper, WY"
-7917773.9675,5462085.7506,108,111,Curbside Bus Stop only (no shelter),BUS,03818,NH,Conway, ,13 West Main Street, ,CAY,"Conway, NH"
-13799370.7718,5762659.3818,109,112,Curbside Bus Stop only (no shelter),BUS,97110,OR,Cannon Beach, ,1170 South Hemlock Street, ,CBO,"Cannon Beach, OR"
-10840552.573,3809308.6383,110,113,Platform with Shelter,TRAIN,76031,TX,Cleburne, ,206 North Border Street, ,CBR,"Cleburne, TX"
-9908839.0107,5363962.0848,111,114,Station Building (with waiting room),TRAIN,53925,WI,Columbus, ,359 North Ludington Street, ,CBS,"Columbus, WI"
-13827406.7571,5368313.9006,112,115,Curbside Bus Stop only (no shelter),BUS,97420,OR,Coos Bay, ,126 East Market Avenue, ,CBY,"Coos Bay, OR"
-13001974.5845,4018265.8453,113,116,Curbside Bus Stop only (no shelter),BUS,92230,CA,Cabazon, ,49500 Seminole Drive, ,CBZ,"Cabazon, CA"
-8465668.4921,4659090.4171,114,117,Curbside Bus Stop only (no shelter),BUS,21613,MD,Cambridge, ,100 Heron Boulevard, ,CDE,"Cambridge, MD"
-9931550.2493,4540543.3674,115,118,Station Building (with waiting room),TRAIN,62901,IL,Carbondale, ,401 South Illinois Avenue, ,CDL,"Carbondale, IL"
-7689798.3659,5496305.875,116,119,Curbside Bus Stop only (no shelter),BUS,04856,ME,Rockport, ,20 Commercial Street, ,CDN,"Camden-Rockport, ME"
-9922587.9217,4654219.6624,117,120,Station Building (with waiting room),TRAIN,62801,IL,Centralia, ,110 South Oak St., ,CEN,"Centralia, IL"
-8731381.3157,5015454.8715,118,121,Station Building (with waiting room),BUS,16830,PA,Clearfield, ,314 East Cherry Street, ,CFD,"Clearfield, PA"
-13065030.9463,5921806.2704,119,122,Curbside Bus Stop only (no shelter),BUS,99111,WA,Colfax, ,610 South Main St., ,CFX,"Colfax, WA"
-13324908.3979,4475675.7067,120,123,Curbside Bus Stop only (no shelter),BUS,93614,CA,Coarsegold, ,35305 Highway 41, ,CGD,"Coarsegold, CA"
-9403857.8317,5723917.3244,121,124,Curbside Bus Stop only (no shelter),BUS,49721,MI,Cheboygan, ,403 North Huron Street, ,CHB,"Cheboygan, MI"
-11671703.9213,5027276.6649,122,125,Station Building (with waiting room),BUS,82007,WY,Cheyenne, ,3306 W College Drive, ,CHD,"Cheyenne, WY"
-9755978.8085,5142825.357,123,126,Station Building (with waiting room),TRAIN,60606,IL,Chicago, ,225 South Canal Street,Union Station,CHI,"Chicago, IL"
-9490871.1798,5671796.0585,124,127,Station Building (with waiting room),BUS,49720,MI,Charlevoix, ,103 Bridge Park Drive, ,CHL,"Charlevoix, MI"
-9822984.5714,4882791.6694,125,128,Station Building (with waiting room),TRAIN,61820,IL,Champaign, ,45 East University Avenue, ,CHM,"Champaign-Urbana, IL"
-10177696.2749,5603137.3545,126,129,Curbside Bus Stop only (no shelter),BUS,54729,WI,Chippewa Falls, ,2750 120th Street, ,CHP,"Chippewa Falls, WI"
-8905342.2877,3878787.5752,127,130,Station Building (with waiting room),TRAIN,29405,SC,North Charleston,North Charleston Transit Center,4565 Gaynor Avenue, ,CHS,"Charleston, SC"
-9087955.9898,4628473.2734,128,131,Station Building (with waiting room),TRAIN,25314,WV,Charleston, ,350 MacCorkle Avenue - Southeast, ,CHW,"Charleston, WV"
-13563820.6904,4825808.895,129,132,Platform only (no shelter),TRAIN,95928,CA,Chico, ,450 Orange Street, ,CIC,"Chico, CA"
-9410623.0949,4737431.0041,130,133,Station Building (with waiting room),TRAIN,45203,OH,Cincinnati, ,1301 Western Avenue,Union Terminal,CIN,"Cincinnati, OH"
-8057042.5958,5368205.8861,131,134,Platform with Shelter,TRAIN,03743,NH,Claremont, ,Plains Road and Maple Avenue, ,CLA,"Claremont, NH"
-9021386.4407,4028037.1656,132,135,Station Building (with waiting room),TRAIN,29201,SC,Columbia, ,850 Pulaski Street, ,CLB,"Columbia, SC"
-9505543.8593,5507384.62,133,136,Curbside Bus Stop only (no shelter),BUS,49601,MI,Cadillac, ,951 Casa Road, ,CLC,"Cadillac, MI"
-9094376.7038,5087235.0294,134,137,Station Building (with waiting room),TRAIN,44114,OH,Cleveland, ,200 Cleveland Memorial Shoreway, ,CLE,"Cleveland, OH"
-8886341.7441,4553257.9354,135,138,Station Building (with waiting room),TRAIN,24422,VA,Clifton Forge, ,307 East Ridgeway Street, ,CLF,"Clifton Forge, VA"
-13597121.4189,5298420.7024,136,139,Curbside Bus Stop only (no shelter),BUS,97604,OR,Crater Lake, ,Rim Drive, ,CLK,"Crater Lake, OR"
-13104181.9261,4041494.6267,137,140,Platform with Shelter,BUS,91711,CA,Claremont, ,200 West First Street, ,CLM,"Claremont, CA"
-8682188.1966,4646372.1206,138,141,Station Building (with waiting room),TRAIN,22701,VA,Culpeper, ,111 South Commerce Street, ,CLP,"Culpeper, VA"
-9436271.6062,5440865.7957,139,142,Curbside Bus Stop only (no shelter),BUS,48617,MI,Clare, ,10197 South Clare Avenue, ,CLR,"Clare, MI"
-8997154.6366,4196736.3699,140,143,Station Building (with waiting room),TRAIN,28206,NC,Charlotte, ,1914 North Tryon Street, ,CLT,"Charlotte, NC"
-13693617.6643,4692794.3946,141,144,Curbside Bus Stop only (no shelter),BUS,95425,CA,Cloverdale, ,501 Asti Road, ,CLV,"Cloverdale, CA"
-13250818.3303,4057834.1865,142,145,Platform only (no shelter),TRAIN,93010,CA,Camarillo, ,30 Lewis Road, ,CML,"Camarillo, CA"
-13556666.5797,5345027.8351,143,146,Platform with Shelter,TRAIN,97731,OR,Chemult, ,Palmer/Kranz Street and Depot Street, ,CMO,"Chemult, OR"
-7963203.9066,5344411.8764,144,147,Station Building (with waiting room),BUS,03301,NH,Concord, ,30 Stickney Avenue, ,CNH,"Concord, NH"
-13289975.0954,4281971.194,145,148,Platform only (no shelter),TRAIN,93219,CA,Allensworth, ,4011 Grant Drive, ,CNL,"Col Allensworth State Park, CA"
-8481839.2411,5250736.4951,146,149,Curbside Bus Stop only (no shelter),BUS,13045,NY,Cortland, ,32 Graham Avenue,State University of New York,CNS,"Cortland, NY"
-8145396.1275,5405807.156,147,150,Station Building (with waiting room),TRAIN,05735,VT,Castleton, ,266 Main Street, ,CNV,"Castleton, VT"
-8577312.4291,5182305.1351,148,151,Station Building (with waiting room),BUS,14870,NY,Corning, ,85 Denison Parkway East, ,CNY,"Corning, NY"
-13309031.3281,4314186.1901,149,152,Station Building (with waiting room),TRAIN,93212,CA,Corcoran, ,1099 Otis Avenue, ,COC,"Corcoran, CA"
-9477005.0468,4814629.1422,150,153,Platform with Shelter,TRAIN,47331,IN,Connersville, ,1012 Eastern Avenue, ,COI,"Connersville, IN"
-9239113.0001,4859948.5523,151,154,Station Building (with waiting room),BUS,43215,OH,Columbus, ,111 East Town Street, ,COL,"Columbus, OH"
-11668946.8407,4695190.4896,152,155,Curbside Bus Stop only (no shelter),BUS,80905,CO,Colorado Springs, ,S Tejon St and I-25, ,COS,"Colorado Springs, CO"
-8440347.4282,4863863.8859,153,156,Platform with Shelter,TRAIN,19320,PA,Coatesville, ,Third Avenue and Fleetwood Street, ,COT,"Coatesville, PA"
-8860231.766,4868891.1916,154,157,Platform with Shelter,TRAIN,15425,PA,Connellsville, ,North Water Street & West Peach Street, ,COV,"Connellsville, PA"
-13464436.1829,4735887.8234,155,158,Station Building (with waiting room),TRAIN,95713,CA,Colfax,at Church Street,99 Railroad Street, ,COX,"Colfax, CA"
-13305238.0985,4082205.7851,156,159,Platform with Shelter,TRAIN,93013,CA,Carpinteria, ,475 Linden Avenue, ,CPN,"Carpinteria, CA"
-8341285.7602,5265992.6447,157,160,Curbside Bus Stop only (no shelter),BUS,13326,NY,Cooperstown, ,72 Elm Street, ,CPT,"Cooperstown, NY"
-13825155.9575,5123958.7519,158,161,Curbside Bus Stop only (no shelter),BUS,95531,CA,Crescent City, ,1001 Front Street, ,CRC,"Crescent City, CA"
-8479971.6334,5251335.0453,159,162,Curbside Bus Stop only (no shelter),BUS,13045,NY,Cortland, ,60 Central Avenue,Cortland County Office Building,CRD,"Cortland, NY"
-9673573.8444,4872441.9171,160,163,Platform with Shelter,TRAIN,47933,IN,Crawfordsville, ,400 North Green Street, ,CRF,"Crawfordsville, IN"
-9708995.7975,4373032.7264,161,165,Station Building (with waiting room),BUS,37043,TN,Clarksville, ,750 S Gateway Plaza Blvd, ,CRK,"Clarksville, TN"
-13570826.6527,4375047.9068,162,166,Curbside Bus Stop only (no shelter),BUS,93923,CA,Carmel, ,3645 Rio Road, ,CRM,"Carmel, CA"
-10504287.9981,5020742.0601,163,167,Station Building (with waiting room),TRAIN,50801,IA,Creston, ,116 West Adams Street, ,CRN,"Creston, IA"
-8224550.6387,5040394.0299,164,168,Station Building (with waiting room),TRAIN,10520,NY,Croton-on-Hudson, ,4 Veteran's Plaza and 1 Croton Point Avenue, ,CRT,"Croton-Harmon, NY"
-10006429.1176,4761758.5596,165,169,Station Building (with waiting room),TRAIN,62626,IL,Carlinville, ,128 Alton Road, ,CRV,"Carlinville, IL"
-9220872.2556,4121984.6387,166,170,Station Building (with waiting room),TRAIN,29631,SC,Clemson, ,1105 Tiger Boulevard, ,CSN,"Clemson, SC"
-13715370.8577,5797359.3926,167,171,Curbside Bus Stop only (no shelter),BUS,97016,OR,Clatskanie, ,401 West Columbia River Highway, ,CTK,"Clatskanie, OR"
-13687073.8991,5896080.1944,168,172,Station Building (with waiting room),TRAIN,98531,WA,Centralia, ,210 Railroad Avenue, ,CTL,"Centralia, WA"
-8367978.4175,5557862.3074,169,173,Curbside Bus Stop only (no shelter),BUS,13617,NY,Canton, ,21 Miner Street,Downtown,CTO,"Canton, NY"
-8369551.2512,5559286.2389,170,174,Curbside Bus Stop only (no shelter),BUS,13617,NY,Canton, ,34 Cornell Drive,State University of New York,CTS,"Canton, NY"
-8215505.0548,5411387.9529,171,175,Curbside Bus Stop only (no shelter),BUS,12817,NY,Chestertown, ,6307 State Route 9, ,CTT,"Chestertown, NY"
-8764232.5875,4815277.3139,172,176,Curbside Bus Stop only (no shelter),BUS,21502,MD,Cumberland, ,12401 Willowbrook Road SE,Allegany College of Maryland,CUA,"Cumberland, MD"
-8767300.7763,4815302.7598,173,177,Station Building (with waiting room),TRAIN,21502,MD,Cumberland, ,201 East Harrison Street,Amtrak Station,CUM,"Cumberland, MD"
-12504696.2067,6213721.7628,174,178,Station Building (with waiting room),TRAIN,59427,MT,Cut Bank, ,101 BNSF Industrial Site, ,CUT,"Cut Bank, MT"
-12455120.9412,4107024.1553,175,179,Curbside Bus Stop only (no shelter),BUS,86322,AZ,Camp Verde, ,1897 Pueblo Ridge, ,CVD,"Camp Verde, AZ"
-13764322.6374,5185428.4884,176,180,Curbside Bus Stop only (no shelter),BUS,97523,OR,Cave Junction, ,406 Redwood Coast Highway, ,CVJ,"Cave Junction, OR"
-13125502.1971,6196474.6138,177,181,Curbside Bus Stop only (no shelter),BUS,99114,WA,Colville, ,956 South Main Street, ,CVL,"Colville, WA"
-8737654.5941,4583875.4691,178,182,Station Building (with waiting room),TRAIN,22903,VA,Charlottesville, ,810 West Main Street, ,CVS,"Charlottesville, VA"
-8343639.4812,4876362.8004,179,183,Platform with Shelter,TRAIN,19020,PA,Cornwells Heights,Station Avenue and Railroad Avenue,700 Station Avenue, ,CWH,"Cornwells Heights, PA"
-13104046.1334,6153429.9565,180,184,Curbside Bus Stop only (no shelter),BUS,99109,WA,Chewelah, ,10 West Colville Avenue, ,CWL,"Chewelah, WA"
-13202428.074,4062852.8105,181,185,Platform with Shelter,TRAIN,91311,CA,Chatsworth, ,10040 Old Depot Plaza Road, ,CWT,"Chatsworth, CA"
-8769999.8036,4271530.8891,182,186,Station Building (with waiting room),TRAIN,27513,NC,Cary, ,211 North Academy Street, ,CYN,"Cary, NC"
-10776186.2942,3865959.2126,183,187,Station Building (with waiting room),BUS,75202,TX,Dallas, ,205 South Lamar Street,Greyhound Station,DAG,"Dallas, TX"
-10776532.9432,3865622.5189,184,188,Station Building (with waiting room),TRAIN,75202,TX,Dallas, ,400 South Houston Street,Eddie Bernice Johnson Union Sta,DAL,"Dallas, TX"
-7740156.5363,5470458.6166,185,189,Curbside Bus Stop only (no shelter),BUS,04543,ME,Damariscotta, ,167 Main Street, ,DAM,"Damariscotta, ME"
-8836983.2154,4381292.7727,186,190,Station Building (with waiting room),TRAIN,24541,VA,Danville, ,677 Craghead Street, ,DAN,"Danville, VA"
-9381801.2519,4839466.5809,187,191,Station Building (with waiting room),BUS,45426,OH,Trotwood, ,5136 Salem Avenue, ,DAT,"Dayton-Trotwood, OH"
-13551781.0234,4656500.7634,188,192,Station Building (with waiting room),TRAIN,95616,CA,Davis, ,840 Second Street, ,DAV,"Davis, CA"
-8763561.5649,5028837.8985,189,193,Station Building (with waiting room),BUS,15801,PA,Du Bois, ,4900 Rockton Road, ,DBI,"Du Bois, PA"
-13569591.0203,4537531.4205,190,194,Station Building (with waiting room),BUS,94588,CA,Pleasanton, ,5801 Owens Drive, ,DBP,"Dublin-Pleasanton, CA"
-13679757.124,6104825.5249,191,195,Curbside Bus Stop only (no shelter),BUS,98368,WA,Discovery Bay, ,282624 U.S. Highway 101, ,DBY,"Discovery Bay, WA"
-9148732.4984,3295029.1588,192,196,Curbside Bus Stop only (no shelter),BUS,33525,FL,Dade City, ,14206 Hwy 98 Bypass, ,DDE,"Dade City, FL"
-11133838.1388,4544494.7157,193,197,Platform only (no shelter),TRAIN,67801,KS,Dodge City, ,Central Avenue & Wyatt Earp Street, ,DDG,"Dodge City, KS"
-11995160.0468,3799038.4485,194,198,Platform only (no shelter),TRAIN,88030,NM,Deming, ,400 East Railroad Avenue, ,DEM,"Deming, NM"
-11688539.7553,4830108.5578,195,199,Station Building (with waiting room),TRAIN,80202,CO,Denver, ,1701 Wynkoop Street,Union Station,DEN,"Denver, CO"
-9265712.934,5207104.4332,196,200,Station Building (with waiting room),TRAIN,48124,MI,Dearborn, ,21201 Michigan Avenue, ,DER,"Dearborn, MI"
-9247577.4255,5216280.3021,197,201,Station Building (with waiting room),TRAIN,48202,MI,Detroit, ,11 West Baltimore Avenue, ,DET,"Detroit, MI"
-8919156.903,3038405.1891,198,202,Station Building (with waiting room),TRAIN,33442,FL,Deerfield Beach, ,1300 West Hillsboro Boulevard, ,DFB,"Deerfield Beach, FL"
-11733510.4347,5275880.5603,199,203,Curbside Bus Stop only (no shelter),BUS,82633,WY,Douglas, ,1108 West Yellowstone Hwy, ,DGS,"Douglas, WY"
-8339775.3736,5202409.7556,200,204,Curbside Bus Stop only (no shelter),BUS,13753,NY,Delhi, ,2 Kingston Street, ,DHI,"Delhi, NY"
-7896560.9124,5333204.4377,201,205,Station Building (with waiting room),TRAIN,03824,NH,Durham, ,3 Depot Road, ,DHM,"Durham, NH"
-8835684.4377,4085021.5433,202,206,Station Building (with waiting room),TRAIN,29536,SC,Dillon, ,100 North Railroad Avenue, ,DIL,"Dillon, SC"
-8379505.6651,5543879.3606,203,207,Curbside Bus Stop only (no shelter),BUS,13630,NY,De Kalb Junction, ,4329 U.S. Highway 11, ,DKJ,"De Kalb Junction, NY"
-8915706.7775,3055423.5302,204,208,Platform with Shelter,TRAIN,33444,FL,Delray Beach, ,345 South Congress Avenue, ,DLB,"Delray Beach, FL"
-9056116.6614,3377918.7037,205,209,Station Building (with waiting room),TRAIN,32720,FL,DeLand, ,2491 Old New York Avenue, ,DLD,"DeLand, FL"
-10669528.6672,5912694.029,206,210,Station Building (with waiting room),TRAIN,56501,MN,Detroit Lakes, ,116 Pioneer Street, ,DLK,"Detroit Lakes, MN"
-8858847.0654,4924099.8165,207,211,Curbside Bus Stop only (no shelter),BUS,15626,PA,Delmont, ,6583 U.S. Highway 22, ,DLT,"Delmont, PA"
-8783809.3258,4300257.3086,208,212,Station Building (with waiting room),TRAIN,27701,NC,Durham, ,601 West Main Street, ,DNC,"Durham, NC"
-9032868.4893,3938680.76,209,213,Station Building (with waiting room),TRAIN,29042,SC,Denmark, ,200 West Baruch Street, ,DNK,"Denmark, SC"
-8648997.087,5245090.2392,210,214,Curbside Bus Stop only (no shelter),BUS,14437,NY,Dansville, ,2 Kingston Street, ,DNV,"Dansville, NY"
-9585615.1878,5158126.1169,211,215,Station Building (with waiting room),TRAIN,49047,MI,Dowagiac, ,200 Depot Drive, ,DOA,"Dowagiac, MI"
-7890143.1194,5342154.6534,212,216,Station Building (with waiting room),TRAIN,03820,NH,Dover, ,33 Chestnut Street, ,DOV,"Dover, NH"
-8428085.1373,4866262.136,213,217,Platform with Shelter,TRAIN,19335,PA,Downingtown, ,159 Viaduct Avenue, ,DOW,"Downingtown, PA"
-9805959.4135,5535561.3313,214,218,Curbside Bus Stop only (no shelter),BUS,54415,WI,De Pere, ,100 Lawrence Drive,De Pere Park and Ride,DPE,"Green Bay, WI"
-13077690.3396,6097784.8112,215,219,Curbside Bus Stop only (no shelter),BUS,99006,WA,Deer Park, ,822 South Main Street, ,DPK,"Deer Park, WA"
-9934180.2868,4581168.4922,216,220,Station Building (with waiting room),TRAIN,62832,IL,Du Quoin, ,20 North Chestnut Street, ,DQN,"Du Quoin, IL"
-9348869.6273,5298207.4438,217,221,Station Building (with waiting room),TRAIN,48429,MI,Durand, ,200 South Railroad Street, ,DRD,"Durand, MI"
-11232433.8833,3421828.1312,218,222,Platform only (no shelter),TRAIN,78840,TX,Del Rio, ,100 North Main Street, ,DRT,"Del Rio, TX"
-13175477.9779,5431182.7702,219,223,Curbside Bus Stop only (no shelter),BUS,97911,OR,Drewsey, ,178 U.S. Highway 20, ,DRW,"Drewsey, OR"
-8493604.1556,5234734.3069,220,224,Curbside Bus Stop only (no shelter),BUS,13053,NY,Dryden, ,27 West Main Street, ,DRY,"Dryden, NY"
-13597910.6001,5580146.6795,221,225,Curbside Bus Stop only (no shelter),BUS,97342,OR,Detroit, ,220 D Street, ,DTO,"Detroit, OR"
-9902106.144,4843202.4042,222,226,Station Building (with waiting room),BUS,62522,IL,Decatur, ,353 East William Street, ,DTR,"Decatur, IL"
-8831464.4838,5233533.8957,223,227,Curbside Bus Stop only (no shelter),BUS,14048,NY,Dunkirk, ,411 Central Avenue, ,DUK,"Dunkirk, NY"
-10252660.5417,5906868.9128,224,228,Station Building (with waiting room),BUS,55802,MN,Duluth, ,228 West Michigan Street,Transportation Center,DUL,"Duluth, MN"
-13611101.0034,5043533.6742,225,229,Station Building (with waiting room),TRAIN,96025,CA,Dunsmuir, ,5750 Sacramento Avenue, ,DUN,"Dunsmuir, CA"
-10250978.2817,5912392.9641,226,230,Curbside Bus Stop only (no shelter),BUS,55812,MN,Duluth, ,1120 Kirby Drive,University of Minnesota,DUU,"Duluth, MN"
-9744966.8403,4883695.6721,227,231,Curbside Bus Stop only (no shelter),BUS,61834,IL,Danville, ,379 Lynch Road, ,DVI,"Danville, IL"
-11005198.6843,6125253.8197,228,232,Station Building (with waiting room),TRAIN,58301,ND,Devils Lake, ,Railroad Avenue and Third Street, ,DVL,"Devils Lake, ND"
-10083074.1911,5089459.4107,229,233,Station Building (with waiting room),BUS,52801,IA,Davenport, ,304 W. River Drive, ,DVP,"Davenport, IA"
-8407641.3008,4747240.9065,230,234,Curbside Bus Stop only (no shelter),BUS,19904,DE,Dover, ,654 North Dupont Highway, ,DVR,"Dover, DE"
-9844061.9313,5025605.2892,231,235,Station Building (with waiting room),TRAIN,60420,IL,Dwight, ,401 South Columbia Street, ,DWT,"Dwight, IL"
-9017872.2834,3404815.8976,232,236,Curbside Bus Stop only (no shelter),BUS,32118,FL,Daytona Beach, ,100 North Atlantic Avenue, ,DYA,"Daytona Beach, FL"
-9742468.288,5088665.9607,233,237,Platform with Shelter,TRAIN,46311,IN,Dyer, ,913 Sheffield Avenue, ,DYE,"Dyer, IN"
-8763755.4785,4936693.1163,234,238,Curbside Bus Stop only (no shelter),BUS,15931,PA,Ebensburg, ,202 West High Street, ,EBN,"Ebensburg, PA"
-13623741.9216,6075483.7266,235,239,Station Building (with waiting room),TRAIN,98020,WA,Edmonds, ,211 Railroad Avenue, ,EDM,"Edmonds, WA"
-9857019.8378,4738454.2172,236,240,Station Building (with waiting room),TRAIN,62401,IL,Effingham, ,401 West National Avenue, ,EFG,"Effingham, IL"
-13822468.1317,4982995.7301,237,242,Curbside Bus Stop only (no shelter),BUS,95501,CA,Eureka, ,6th and C Streets, ,EKA,"Eureka, CA"
-13523183.0402,4639603.8869,238,243,Curbside Bus Stop only (no shelter),BUS,95758,CA,Elk Grove, ,9180 Harbour Point Drive, ,EKG,"Elk Grove, CA"
-9570342.9251,5113277.5397,239,244,Station Building (with waiting room),TRAIN,46515,IN,Elkhart, ,131 Tyler Avenue, ,EKH,"Elkhart, IN"
-11854406.7582,3731420.7837,240,245,Station Building (with waiting room),BUS,79901,TX,El Paso, ,200 West San Antonio Avenue,Greyhound Station,ELB,"El Paso, TX"
-12885291.4495,4988253.6235,241,246,Platform with Shelter,TRAIN,89801,NV,Elko,1301 Sharps Access Road (Train 6),1300 Water Street (Train 5), ,ELK,"Elko, NV"
-11855041.9474,3731501.1684,242,247,Station Building (with waiting room),TRAIN,79901,TX,El Paso, ,700 West San Francisco Avenue,Union Depot,ELP,"El Paso, TX"
-13760771.7344,5762235.419,243,248,Curbside Bus Stop only (no shelter),BUS,97138,OR,Elsie, ,42362 US Highway 26, ,ELS,"Elsie, OR"
-8528435.1268,4887332.2194,244,249,Station Building (with waiting room),TRAIN,17022,PA,Elizabethtown, ,50 South Wilson Avenue, ,ELT,"Elizabethtown, PA"
-9138961.6195,5067076.8071,245,250,Platform only (no shelter),TRAIN,44035,OH,Elyria, ,410 East River Road, ,ELY,"Elyria, OH"
-8550010.2017,5174470.1681,246,251,Station Building (with waiting room),BUS,14901,NY,Elmira, ,100 East Church Street, ,EMA,"Elmira, NY"
-9694800.4298,5745142.5789,247,252,Curbside Bus Stop only (no shelter),BUS,49829,MI,Escanaba, ,2901 27th Avenue North, ,EMI,"Escanaba, MI"
-13613441.7799,4556915.2846,248,253,Station Building (with waiting room),TRAIN,94608,CA,Emeryville, ,5885 Horton Street, ,EMY,"Emeryville, CA"
-13308165.1256,5994620.1763,249,254,Platform with Shelter,TRAIN,98823,WA,Ephrata, ,90 Alder Street NW, ,EPH,"Ephrata, WA"
-13332262.8377,4534101.9235,250,255,Curbside Bus Stop only (no shelter),BUS,95318,CA,El Portal, ,11136 Highway 140, ,EPL,"El Portal, CA"
-8914737.2743,5179100.2054,251,256,Station Building (with waiting room),TRAIN,16501,PA,Erie, ,125 West 14th Street, ,ERI,"Erie, PA"
-13178395.9699,4016269.4276,252,257,Curbside Bus Stop only (no shelter),BUS,90245,CA,El Segundo, ,700 South Douglas Street, ,ESG,"El Segundo, CA"
-12647113.7084,6152819.5097,253,258,Platform only (no shelter),TRAIN,59916,MT,Essex, ,290 Izaak Walton Inn Road, ,ESM,"Essex, MT"
-8467506.6017,4694692.2486,254,259,Curbside Bus Stop only (no shelter),BUS,21601,MD,Easton, ,29137 Newman Road, ,ESN,"Easton, MD"
-8138598.964,5541972.8258,255,260,Station Building (with waiting room),TRAIN,05452,VT,Essex Junction, ,29 Railroad Avenue, ,ESX,"Essex Junction-Burlington, VT"
-13694664.3811,5472465.1058,256,261,Station Building (with waiting room),BUS,97401,OR,Springfield, ,355 South A Street,Springfield LTD Station,EUB,"Eugene-Springfield, OR"
-10186439.8655,5589551.6354,257,262,Curbside Bus Stop only (no shelter),BUS,54702,WI,Eau Claire, ,642 University Drive,University of Wisconsin,EUC,"Eau Claire, WI"
-13702580.534,5473964.9959,258,263,Station Building (with waiting room),TRAIN,97401,OR,Eugene, ,433 Willamette Street,Amtrak Station,EUG,"Eugene, OR"
-13700049.9074,5472066.7862,259,264,Curbside Bus Stop only (no shelter),BUS,97403,OR,Eugene, ,1515 Agate Street,University of Oregon,EUO,"Eugene, OR"
-8437955.7603,5478493.8011,260,265,Curbside Bus Stop only (no shelter),BUS,13637,NY,Evans Mills, ,8650 Leray Street, ,EVM,"Evans Mills, NY"
-9748196.5339,4575724.3255,261,266,Station Building (with waiting room),BUS,47708,IN,Evansville, ,119 Northwest 6th Street, ,EVN,"Evansville, IN"
-13603004.9942,6102764.3528,262,267,Station Building (with waiting room),TRAIN,98201,WA,Everett, ,3201 Smith Avenue, ,EVR,"Everett, WA"
-12351744.6018,5051386.7657,263,268,Curbside Bus Stop only (no shelter),BUS,82930,WY,Evanston, ,106 North 3rd Street, ,EVY,"Evanston, WY"
-8257934.9161,4967696.5629,264,269,Station Building (with waiting room),TRAIN,07114,NJ,Newark, ,3 Brewster Road,Liberty International Airport,EWR,"Newark, NJ"
-7899086.4175,5309084.6816,265,270,Platform with Shelter,TRAIN,03833,NH,Exeter, ,60 Lincoln Street, ,EXR,"Exeter, NH"
-8418170.7978,4868747.163,266,271,Station Building (with waiting room),TRAIN,19341,PA,Exton, ,445 Walkertown Road, ,EXT,"Exton, PA"
-10774099.333,5922670.1988,267,272,Station Building (with waiting room),TRAIN,58102,ND,Fargo, ,420 4th Street North, ,FAR,"Fargo, ND"
-8781414.7259,4171357.9269,268,273,Station Building (with waiting room),TRAIN,28301,NC,Fayetteville, ,472 Hay Street, ,FAY,"Fayetteville, NC"
-8622496.6622,4621668.8404,269,274,Platform with Shelter,TRAIN,22401,VA,Fredericksburg, ,200 Lafayette Boulevard, ,FBG,"Fredericksburg, VA"
-11688161.5019,4942418.065,270,275,Curbside Bus Stop only (no shelter),BUS,80528,CO,Fort Collins,Harmony Road Park and Ride,4308 East Harmony Road, ,FCC,"Fort Collins, CO"
-9849183.8852,5427725.4335,271,276,Station Building (with waiting room),BUS,54937,WI,Fond du Lac, ,625 West Rolling Meadows Drive, ,FDL,"Fond du Lac, WI"
-8832058.2618,5228731.2893,272,277,Curbside Bus Stop only (no shelter),BUS,14063,NY,Fredonia, ,280 Central Avenue,State University of New York,FDN,"Fredonia, NY"
-8190949.5226,5353099.9598,273,278,Platform only (no shelter),TRAIN,12828,NY,Fort Edward, ,70 East Street, ,FED,"Fort Edward-Glens Falls, NY"
-13577408.8857,4619854.848,274,279,Station Building (with waiting room),TRAIN,94533,CA,Fairfield, ,4921 Vanden Road, ,FFV,"Fairfield-Vacaville, CA"
-12427575.7127,4190044.3929,275,280,Station Building (with waiting room),BUS,86001,AZ,Flagstaff, ,880 East Butler Ave.,Greyhound Station,FGG,"Flagstaff, AZ"
-10883352.5828,3651152.5951,276,281,Curbside Bus Stop only (no shelter),BUS,76544,TX,Fort Hood,Copeland Soldier's Service Center,"Building 18010, 48th Street", ,FHD,"Fort Hood, TX"
-13237928.0894,4082101.7755,277,282,Curbside Bus Stop only (no shelter),BUS,93015,CA,Fillmore, ,718 West Ventura Street, ,FIL,"Fillmore, CA"
-12428696.7003,4190736.6689,278,283,Station Building (with waiting room),TRAIN,86001,AZ,Flagstaff, ,1 East Route 66,Amtrak Station,FLG,"Flagstaff, AZ"
-8296053.404,5184163.3546,279,284,Curbside Bus Stop only (no shelter),BUS,12430,NY,Fleischmanns, ,1293 Main Street, ,FLM,"Fleischmanns, NY"
-9312068.284,5314321.2421,280,285,Station Building (with waiting room),TRAIN,48503,MI,Flint, ,1407 South Dort Highway, ,FLN,"Flint, MI"
-8878515.18,4055576.2988,281,286,Station Building (with waiting room),TRAIN,29506,SC,Florence, ,805 East Day Street, ,FLO,"Florence, SC"
-10167587.1832,4956833.3838,282,287,Station Building (with waiting room),TRAIN,52627,IA,Fort Madison, ,1601 20th Street, ,FMD,"Fort Madison, IA"
-11555277.9437,4901926.4407,283,288,Station Building (with waiting room),TRAIN,80701,CO,Fort Morgan, ,South Ensign Street and Main Street, ,FMG,"Fort Morgan, CO"
-13581813.7892,4517327.0162,284,289,Station Building (with waiting room),TRAIN,94536,CA,Fremont, ,37260 Fremont Boulevard,Amtrak/ACE Station,FMT,"Fremont, CA"
-13334175.7408,4402714.1966,285,290,Station Building (with waiting room),TRAIN,93721,CA,Fresno, ,2650 Tulare Street, ,FNO,"Fresno, CA"
-8010464.6003,5082261.6272,286,291,Curbside Bus Stop only (no shelter),BUS,06339,CT,Ledyard, ,39 Norwich Westerley Road, ,FOX,"Foxwoods Casino, CT"
-7950441.7844,5202413.2345,287,292,Platform with Shelter,TRAIN,01702,MA,Framingham, ,417 Waverly Street, ,FRA,"Framingham, MA"
-8616750.022,4780840.2845,288,293,Station Building (with waiting room),BUS,21704,MD,Frederick, ,100 South East Street,Transit Center/MARC Station,FRC,"Frederick, MD"
-7803758.8363,5443037.2401,289,294,Station Building (with waiting room),TRAIN,04032,ME,Freeport, ,23 Depot Road, ,FRE,"Freeport, ME"
-11798932.9751,4754027.3805,290,295,Curbside Bus Stop only (no shelter),BUS,80421,CO,Fairplay, ,640 US Highway 285, ,FRP,"Fairplay, CO"
-8614158.3922,4781475.1383,291,296,Curbside Bus Stop only (no shelter),BUS,21705,MD,Frederick, ,1341 Hughes Ford Road,Frederick Municipal Airport,FRR,"Frederick, MD"
-13572478.9803,4514526.8686,292,297,Curbside Bus Stop only (no shelter),BUS,94538,CA,Fremont, ,42801 Mission Blvd,VTA Transit Bus Stop,FRT,"Fremont, CA"
-8786800.3949,4815052.9272,293,298,Curbside Bus Stop only (no shelter),BUS,21532,MD,Frostburg, ,101 Braddock Road,Frostburg State University,FSB,"Frostburg, MD"
-13317710.815,4505202.067,294,299,Curbside Bus Stop only (no shelter),BUS,93623,CA,Fish Camp, ,1122 Highway 41, ,FSH,"Fish Camp, CA"
-13819891.972,4951126.7078,295,300,Curbside Bus Stop only (no shelter),BUS,95540,CA,Fortuna, ,719 South Fortuna Blvd, ,FTA,"Fortuna, CA"
-8169702.0802,5442844.7183,296,301,Platform with Shelter,TRAIN,12883,NY,Ticonderoga, ,NYS Hwy 74 and Sandy Redoubt, ,FTC,"Ticonderoga, NY"
-8924483.8756,3013859.4145,297,302,Station Building (with waiting room),TRAIN,33312,FL,Fort Lauderdale, ,200 Southwest 21st Terrace, ,FTL,"Fort Lauderdale, FL"
-9106088.5436,3080473.7538,298,303,Curbside Bus Stop only (no shelter),BUS,33906,FL,Fort Myers,"Fort Myers Travel Plaza, I-75 exit 139",6050 Plaza Drive, ,FTM,"Fort Myers, FL"
-9895053.466,4373201.5799,299,304,Station Building (with waiting room),TRAIN,42041,KY,Fulton, ,21 Newton Road, ,FTN,"Fulton, KY"
-10834356.5313,3862507.4628,300,305,Station Building (with waiting room),TRAIN,76102,TX,Fort Worth, ,1001 Jones Street, ,FTW,"Fort Worth, TX"
-13127112.8525,4011221.9556,301,306,Station Building (with waiting room),TRAIN,92832,CA,Fullerton, ,120 East Santa Fe Avenue, ,FUL,"Fullerton, CA"
-13577306.1264,4495959.7802,302,307,Platform only (no shelter),TRAIN,95054,CA,Santa Clara, ,5099 Stars and Stripes Drive,Great America,GAC,"Santa Clara, CA"
-9034953.6264,4200523.8223,303,308,Station Building (with waiting room),TRAIN,28054,NC,Gastonia, ,350 Hancock Street, ,GAS,"Gastonia, NC"
-10059286.9838,5004186.214,304,309,Station Building (with waiting room),TRAIN,61401,IL,Galesburg, ,225 South Seminary Street, ,GBB,"Galesburg, IL"
-8683292.0217,4216418.0977,305,310,Station Building (with waiting room),BUS,27350,NC,Goldsboro, ,103 North Carolina Street, ,GBO,"Goldsboro, NC"
-13780823.4929,4880153.4455,306,311,Curbside Bus Stop only (no shelter),BUS,95542,CA,Garberville, ,924 Redwood Drive, ,GBV,"Garberville, CA"
-9796423.116,5545810.405,307,312,Platform with Shelter,BUS,54302,WI,Green Bay, ,901 University Avenue,Transportation Center,GBY,"Green Bay, WI"
-12483886.363,4308005.417,308,313,Curbside Bus Stop only (no shelter),BUS,86023,AZ,Grand Canyon Village, ,202 Village Loop Drive,Maswik Lodge,GCB,"Grand Canyon Village, AZ"
-11229160.4879,4574393.9119,309,314,Station Building (with waiting room),TRAIN,67846,KS,Garden City, ,100 North 7th Street, ,GCK,"Garden City, KS"
-12483017.7369,4308449.759,310,315,Station Building (with waiting room),TRAIN,86023,AZ,Grand Canyon Village, ,2 North Village Loop,Grand Canyon Railway Depot,GCN,"Grand Canyon Village, AZ"
-13164518.3251,4045425.4933,311,316,Platform with Shelter,TRAIN,91204,CA,Glendale, ,400 West Cerritos Avenue, ,GDL,"Glendale, CA"
-13084147.9762,6044966.2877,312,317,Curbside Bus Stop only (no shelter),BUS,99224,WA,Spokane, ,9000 West Airport Drive,Spokane Airport,GEG,"Spokane, WA"
-8662560.4827,5280927.2026,313,318,Curbside Bus Stop only (no shelter),BUS,14456,NY,Geneseo, ,106 Main Street, ,GEN,"Geneseo, NY"
-8081880.3145,5249086.9943,314,319,Station Building (with waiting room),TRAIN,01301,MA,Greenfield, ,12 Olive Street, ,GFD,"Greenfield, MA"
-10810329.7387,6093145.7317,315,320,Station Building (with waiting room),TRAIN,58201,ND,Grand Forks, ,5555 DeMers Avenue, ,GFK,"Grand Forks, ND"
-8198109.8175,5359108.9697,316,321,Curbside Bus Stop only (no shelter),BUS,12801,NY,Glens Falls, ,2 Hudson Avenue, ,GFS,"Glens Falls, NY"
-11870687.468,6139334.2507,317,322,Station Building (with waiting room),TRAIN,59230,MT,Glasgow, ,424 1st  Avenue South, ,GGW,"Glasgow, MT"
-13793783.8717,5784387.3942,318,323,Curbside Bus Stop only (no shelter),BUS,97301,OR,Gearhart, ,3453 U.S. Highway 101 North,Dollar General Store,GHN,"Gearhart - Northbound, OR"
-13793823.724,5784442.0647,319,324,Curbside Bus Stop only (no shelter),BUS,97301,OR,Gearhart, ,3518 U.S. Highway 101 North,Gearhart Bowl & Fultano's Pizza,GHT,"Gearhart - Southbound, OR"
-12085950.4172,4730897.81,320,325,Station Building (with waiting room),TRAIN,81501,CO,Grand Junction, ,339 South 1st Street, ,GJT,"Grand Junction, CO"
-10813675.9311,3978581.1933,321,326,Station Building (with waiting room),TRAIN,76240,TX,Gainesville, ,605 East California Street, ,GLE,"Gainesville, TX"
-8548854.0359,5153462.5995,322,327,Curbside Bus Stop only (no shelter),BUS,16925,PA,Gillette, ,32933 State Highway 14, ,GLL,"Gillette, PA"
-9795899.3133,4975911.7566,323,328,Platform with Shelter,TRAIN,60938,IL,Gilman, ,800 US Highway 24 West, ,GLM,"Gilman, IL"
-9774471.0987,5172227.5897,324,329,Station Building (with waiting room),TRAIN,60025,IL,Glenview, ,1116 Depot Street, ,GLN,"Glenview, IL"
-12104943.6018,4236029.3827,325,330,Station Building (with waiting room),TRAIN,87301,NM,Gallup, ,201 East Highway 66, ,GLP,"Gallup, NM"
-10552737.7205,3414730.0909,326,331,Curbside Bus Stop only (no shelter),BUS,77550,TX,Galveston, ,123 Rosenberg Street, ,GLS,"Galveston, TX"
-13532755.4979,4439659.6026,327,332,Curbside Bus Stop only (no shelter),BUS,95020,CA,Gilroy, ,7250 Monterey Street, ,GLY,"Gilroy, CA"
-8856350.3044,5341846.2991,328,333,Platform with Shelter,TRAIN,L3M 3H6,ON,Grimsby, ,99 Ontario Street, ,GMS,"Grimsby, ON"
-8855119.9756,4910362.6602,329,334,Platform with Shelter,TRAIN,15601,PA,Greensburg, ,Harrison Avenue and Seton Hill Drive,Amtrak Station,GNB,"Greensburg, PA"
-9164197.0117,3461670.1646,330,335,Station Building (with waiting room),BUS,32609,FL,Gainesville, ,101 NE 23rd Ave, ,GNF,"Gainesville, FL"
-8855137.4528,4910039.6309,331,336,Curbside Bus Stop only (no shelter),BUS,15601,PA,Greensburg, ,41 Bell Way,Westmoreland Transit Center,GNG,"Greensburg, PA"
-9330766.1072,4067661.0007,332,337,Station Building (with waiting room),TRAIN,30501,GA,Gainesville, ,116 Industrial Boulevard, ,GNS,"Gainesville, GA"
-13814675.1577,5463116.587,333,338,Platform only (no shelter),BUS,97439,OR,Florence, ,1950 21st St,Grocery Outlet Florence,GOF,"Florence, OR"
-13519098.6991,6136987.6863,334,339,Curbside Bus Stop only (no shelter),BUS,97028,OR,Government Camp, ,Milepost 54 Mount Hood Highway, ,GOV,"Government Camp, OR"
-12603541.14,6180762.4325,335,340,Station Building (with waiting room),TRAIN,59434,MT,East Glacier Park, ,400 Highway 49 North, ,GPK,"East Glacier Park, MT"
-11792687.4049,4878184.7338,336,341,Station Building (with waiting room),TRAIN,80446,CO,Granby, ,438 Railroad Avenue, ,GRA,"Granby, CO"
-13760650.1546,5633220.474,337,342,Curbside Bus Stop only (no shelter),BUS,97347,OR,Grand Ronde, ,9605 Grand Ronde Rd,Community Center,GRC,"Grand Ronde, OR"
-11654900.7875,4929171.2861,338,343,Station Building (with waiting room),BUS,80631,CO,Greeley, ,101 11th Avenue, ,GRE,"Greeley, CO"
-13627524.0555,5700870.4407,339,344,Curbside Bus Stop only (no shelter),BUS,97080,OR,Gresham, ,1200 NE 8th Street, ,GRH,"Gresham, OR"
-12263538.3263,4720532.1451,340,345,Platform with Shelter,TRAIN,84525,UT,Green River, ,250 South Broadway, ,GRI,"Green River, UT"
-13756977.2785,5630750.5309,341,346,Curbside Bus Stop only (no shelter),BUS,97347,OR,Grand Ronde, ,27100 Salmon River Hwy,Spirit Mountain Casino,GRM,"Grand Ronde, OR"
-8613577.1688,4247117.901,342,347,Station Building (with waiting room),BUS,27834,NC,Greenville, ,600 South Pitt Street, ,GRN,"Greenville, NC"
-8881857.4483,4310230.5643,343,348,Station Building (with waiting room),TRAIN,27401,NC,Greensboro, ,236 East Washington Street, ,GRO,"Greensboro, NC"
-9537013.7621,5305245.9882,344,349,Station Building (with waiting room),TRAIN,49503,MI,Grand Rapids, ,440 Century Avenue SW, ,GRR,"Grand Rapids, MI"
-9174227.7065,4144636.2604,345,350,Station Building (with waiting room),TRAIN,29601,SC,Greenville, ,1120 West Washington Street, ,GRV,"Greenville, SC"
-9722527.9566,5101885.1199,346,351,Station Building (with waiting room),BUS,46402,IN,Gary, ,100 West 4th Avenue, ,GRY,"Gary, IN"
-11947167.1596,4800461.5345,347,352,Station Building (with waiting room),TRAIN,81601,CO,Glenwood Springs, ,413 7th Street, ,GSC,"Glenwood Springs, CO"
-13800218.9425,5137881.3178,348,353,Curbside Bus Stop only (no shelter),BUS,95543,CA,Gasquet,Gasquet Market,10350 Highway 199, ,GSQ,"Gasquet, CA"
-13340873.366,4087731.5232,349,354,Platform with Shelter,TRAIN,93117,CA,Goleta, ,25 South La Patera Lane, ,GTA,"Goleta, CA"
-13728468.1877,5227547.928,350,355,Curbside Bus Stop only (no shelter),BUS,97526,OR,Grants Pass, ,500 N.W. 6 Street, ,GTP,"Grants Pass, OR"
-8805408.3444,4821337.3354,351,356,Curbside Bus Stop only (no shelter),BUS,21536,MD,Grantsville, ,3000 Chestnut Ridge Road, ,GTV,"Grantsville, MD"
-13422172.0119,4158844.866,352,357,Station Building (with waiting room),TRAIN,93434,CA,Guadalupe, ,330 Guadalupe Street, ,GUA,"Guadalupe, CA"
-11902510.0988,4656587.8775,353,358,Curbside Bus Stop only (no shelter),BUS,81230,CO,Gunnison, ,411 East Tomichi Street, ,GUN,"Gunnison, CO"
-13428389.8759,4180372.785,354,359,Platform with Shelter,TRAIN,93433,CA,Grover Beach, ,180 West Grand Avenue, ,GVB,"Grover Beach, CA"
-12927709.1781,5768689.6986,355,360,Curbside Bus Stop only (no shelter),BUS,83530,ID,Grangeville, ,901 West Main Street, ,GVI,"Grangeville, ID"
-8401059.4618,5517528.0415,356,361,Curbside Bus Stop only (no shelter),BUS,13642,NY,Gouverneur, ,49 East Main Street, ,GVR,"Gouverneur, NY"
-10038397.5887,3964151.9057,357,362,Station Building (with waiting room),TRAIN,38930,MS,Greenwood, ,Carrollton Avenue and East Gibson Street, ,GWD,"Greenwood, MS"
-9429659.0134,5566222.036,358,363,Curbside Bus Stop only (no shelter),BUS,49738,MI,Grayling, ,2615 South I-75 Business Loop, ,GYG,"Grayling, MI"
-9427861.3191,5625783.4089,359,364,Curbside Bus Stop only (no shelter),BUS,49734,MI,Gaylord, ,1041 West Main Street, ,GYL,"Gaylord, MI"
-8652029.0737,4814439.9481,360,365,Curbside Bus Stop only (no shelter),BUS,21740,MD,Hagerstown, ,123 West Franklin Street, ,HAG,"Hagerstown, MD"
-8872076.6851,4148083.557,361,366,Station Building (with waiting room),TRAIN,28345,NC,Hamlet, ,2 Main Street, ,HAM,"Hamlet, NC"
-8558048.5706,4904097.2396,362,367,Station Building (with waiting room),TRAIN,17101,PA,Harrisburg, ,4th and Chestnut Streets, ,HAR,"Harrisburg, PA"
-10952451.1416,4951215.53,363,368,Station Building (with waiting room),TRAIN,68901,NE,Hastings, ,501 West First Street, ,HAS,"Hastings, NE"
-12209339.7038,6199599.9745,364,369,Station Building (with waiting room),TRAIN,59501,MT,Havre, ,235 Main Street, ,HAV,"Havre, MT"
-13592030.8063,4532349.9449,365,370,Platform with Shelter,TRAIN,94541,CA,Hayward, ,22555 Meekland Avenue, ,HAY,"Hayward, CA"
-10062653.3231,3745121.2183,366,371,Platform with Shelter,TRAIN,39083,MS,Hazlehurst, ,North Ragsdale Avenue and East Conway Street, ,HAZ,"Hazlehurst, MS"
-9939324.2038,3675279.9843,367,372,Station Building (with waiting room),TRAIN,39401,MS,Hattiesburg, ,308 Newman Street, ,HBG,"Hattiesburg, MS"
-13677766.7656,4665511.0789,368,373,Curbside Bus Stop only (no shelter),BUS,95448,CA,Healdsburg, ,149 Healdsburg Avenue, ,HEA,"Healdsburg, CA"
-10178226.5266,4679829.6977,369,374,Station Building (with waiting room),TRAIN,65041,MO,Hermann, ,301 Wharf Street, ,HEM,"Hermann, MO"
-12340200.2999,4820133.7923,370,375,Station Building (with waiting room),TRAIN,84526,UT,Helper, ,1 Depot Street, ,HER,"Helper, UT"
-13025030.8572,3994949.4872,371,376,Curbside Bus Stop only (no shelter),BUS,92545,CA,Hemet, ,3246 West Florida Avenue,Former Coco's Restaurant,HET,"Hemet - West, CA"
-8090846.9855,5126404.9241,372,377,Station Building (with waiting room),TRAIN,06103,CT,Hartford, ,One Union Place, ,HFD,"Hartford, CT"
-8652984.3042,4768254.8012,373,378,Platform with Shelter,TRAIN,25425,WV,Harpers Ferry, ,Potomac Street & Shenandoah Street, ,HFY,"Harpers Ferry, WV"
-8684231.9263,4936479.2874,374,379,Station Building (with waiting room),TRAIN,16652,PA,Huntingdon, ,Fourth and Allegheny Streets, ,HGD,"Huntingdon, PA"
-9857300.4623,5961476.1658,375,380,Curbside Bus Stop only (no shelter),BUS,49931,MI,Houghton, ,Townsend Drive and Hubbell Street,Michigan Tech University,HGH,"Houghton, MI"
-9440016.9575,5517498.2451,376,381,Curbside Bus Stop only (no shelter),BUS,48629,MI,Houghton Lake, ,9391 West Lake City Road, ,HGL,"Houghton Lake, MI"
-8292319.1905,5182708.2607,377,382,Curbside Bus Stop only (no shelter),BUS,12441,NY,Highmount, ,State Highway 28 & Highlands Road, ,HGM,"Highmount, NY"
-8308890.9061,5616301.5344,378,383,Curbside Bus Stop only (no shelter),BUS,13655,NY,Hogansburg, ,935 State Highway 37, ,HGS,"Hogansburg, NY"
-7913299.1368,5277530.0792,379,384,Platform with Shelter,TRAIN,01832,MA,Haverhill, ,Washington Street at Railroad Square, ,HHL,"Haverhill, MA"
-9004882.4539,4533621.6449,380,385,Station Building (with waiting room),TRAIN,25951,WV,Hinton, ,100 Second Avenue, ,HIN,"Hinton, WV"
-13811651.7888,5129998.8287,381,386,Curbside Bus Stop only (no shelter),BUS,95531,CA,Crescent City,Hiouchi Cafe,2100 Highway 199, ,HIO,"Hiouchi, CA"
-8348193.1394,5314531.5597,382,387,Curbside Bus Stop only (no shelter),BUS,13350,NY,Herkimer, ,799 Mohawk Street, ,HKI,"Herkimer, NY"
-9860714.0756,5962826.8641,383,388,Curbside Bus Stop only (no shelter),BUS,49930,MI,Hancock, ,125 Quincy Street, ,HKM,"Hancock, MI"
-13677469.1122,5706868.3103,384,389,Curbside Bus Stop only (no shelter),BUS,97124,OR,Hillsboro, ,NW 185th Ave, ,HLB,"Hillsboro, OR"
-11061956.9301,4929494.5585,385,390,Station Building (with waiting room),TRAIN,68949,NE,Holdrege, ,100 West Avenue, ,HLD,"Holdrege, NE"
-8082052.1892,5191611.542,386,391,Platform with Shelter,TRAIN,01041,MA,Holyoke, ,74 Main Street, ,HLK,"Holyoke, MA"
-10070203.2284,3568911.8345,387,392,Station Building (with waiting room),TRAIN,70401,LA,Hammond, ,404 N.W. Railroad Avenue, ,HMD,"Hammond, LA"
-9741180.8796,5114828.8133,388,393,Station Building (with waiting room),TRAIN,46320,IN,Hammond, ,1135 North Calumet Avenue, ,HMI,"Hammond-Whiting, IN"
-13020962.5744,3995429.9889,389,394,Curbside Bus Stop only (no shelter),BUS,92543,CA,Hemet, ,305 East Devonshire Avenue,Simpson Senior Center,HMT,"Hemet - East, CA"
-9759234.0106,5095660.8215,390,395,Station Building (with waiting room),TRAIN,60430,IL,Homewood, ,18015 Park Avenue, ,HMW,"Homewood, IL"
-13319580.6352,4345583.1544,391,396,Station Building (with waiting room),TRAIN,93230,CA,Hanford, ,200 Santa Fe Avenue #A, ,HNF,"Hanford, CA"
-8700054.7664,4821815.1895,392,397,Curbside Bus Stop only (no shelter),BUS,21750,MD,Hancock, ,434 East Main Street, ,HNK,"Hancock, MD"
-9639306.6467,4128086.6808,393,398,Station Building (with waiting room),BUS,35801,AL,Huntsville, ,"500 Church Street, NW", ,HNV,"Huntsville, AL"
-10616720.2862,3471237.9341,394,399,Station Building (with waiting room),BUS,77002,TX,Houston, ,2121 Main Street,Greyhound Terminal,HOG,"Houston, TX"
-8924248.3231,3000523.3907,395,400,Station Building (with waiting room),TRAIN,33021,FL,Hollywood, ,3001 Hollywood Boulevard, ,HOL,"Hollywood, FL"
-9584225.0385,5280229.6192,396,401,Station Building (with waiting room),TRAIN,49423,MI,Holland, ,171 Lincoln Avenue, ,HOM,"Holland, MI"
-13526613.2598,5733941.3458,397,402,Station Building (with waiting room),BUS,97031,OR,Hood River, ,110 Railroad Street, ,HOO,"Hood River, OR"
-10418642.0296,3984432.1088,398,403,Station Building (with waiting room),TRAIN,71801,AR,Hope, ,100 East Division Street, ,HOP,"Hope, AR"
-10616265.2121,3473666.9737,399,404,Station Building (with waiting room),TRAIN,77002,TX,Houston, ,902 Washington Avenue,Amtrak Station,HOS,"Houston, TX"
-13384687.521,5415109.7591,400,405,Curbside Bus Stop only (no shelter),BUS,97712,OR,Hampton, ,41700 U.S. Highway 20, ,HPO,"Hampton, OR"
-8906238.3158,4294724.8252,401,406,Station Building (with waiting room),TRAIN,27260,NC,High Point, ,100 West High Avenue, ,HPT,"High Point, NC"
-8646033.2029,5215627.8109,402,407,Curbside Bus Stop only (no shelter),BUS,14843,NY,Hornell, ,7499 Seneca Road, ,HRN,"Hornell, NY"
-13091763.2584,5443078.7461,403,408,Curbside Bus Stop only (no shelter),BUS,97906,OR,Harper, ,3459 U.S. Highway 20, ,HRP,"Harper, OR"
-8215125.7786,5199088.5707,404,410,Station Building (with waiting room),TRAIN,12534,NY,Hudson, ,69 South Front Street, ,HUD,"Hudson, NY"
-9177149.7573,4638335.9815,405,411,Station Building (with waiting room),TRAIN,25701,WV,Huntington, ,1050 8th Avenue, ,HUN,"Huntington, WV"
-10901688.076,4587299.9772,406,412,Station Building (with waiting room),TRAIN,67501,KS,Hutchinson, ,North Walnut Street & East 3rd Avenue, ,HUT,"Hutchinson, KS"
-8563376.178,4149105.1916,407,413,Curbside Bus Stop only (no shelter),BUS,28532,NC,Havelock, ,201 Tourist Center Drive, ,HVL,"Havelock, NC"
-9514436.3865,5372797.0434,408,414,Curbside Bus Stop only (no shelter),BUS,49329,MI,Howard City, ,117 West Williams Street, ,HWC,"Howard City, MI"
-8344868.3561,5258777.3073,409,415,Curbside Bus Stop only (no shelter),BUS,13326,NY,Hartwick Seminary, ,5 Commons Drive, ,HWK,"Hartwick Seminary, NY"
-12939014.3826,3990579.7122,410,416,Curbside Bus Stop only (no shelter),BUS,92201,CA,Indio, ,82120 Highway 111, ,IDO,"Indio, CA"
-10511868.1672,4734130.3478,411,417,Station Building (with waiting room),TRAIN,64050,MO,Independence, ,600 South Grand Avenue, ,IDP,"Independence, MO"
-8812051.9009,4955447.4574,412,418,Curbside Bus Stop only (no shelter),BUS,15705,PA,Indiana, ,711 Pratt Drive,Indiana University of Penn,INA,"Indiana, PA"
-9591334.9853,4831415.5808,413,419,Station Building (with waiting room),TRAIN,46225,IN,Indianapolis, ,350 South Illinois Street, ,IND,"Indianapolis, IN"
-13106056.3202,3982807.9909,414,420,Station Building (with waiting room),TRAIN,92618,CA,Irvine, ,15215 Barranca Parkway, ,IRV,"Irvine, CA"
-8517160.9255,5227064.9625,415,421,Station Building (with waiting room),BUS,14850,NY,Ithaca, ,710 West State Street, ,ITH,"Ithaca, NY"
-10040009.7105,3802862.2227,416,422,Station Building (with waiting room),TRAIN,39201,MS,Jackson, ,300 West Capitol Street, ,JAN,"Jackson, MS"
-9097462.5189,3550632.2856,417,423,Station Building (with waiting room),TRAIN,32209,FL,Jacksonville, ,3570 Clifford Lane, ,JAX,"Jacksonville, FL"
-10260307.7518,4661527.5879,418,424,Platform with Shelter,TRAIN,65101,MO,Jefferson City, ,101 Jefferson Street, ,JEF,"Jefferson City, MO"
-8821513.5166,5175181.6649,419,425,Curbside Bus Stop only (no shelter),BUS,14701,NY,Jamestown, ,217 West 2nd Street, ,JMN,"Jamestown, NY"
-8618312.9193,4129817.3712,420,426,Curbside Bus Stop only (no shelter),BUS,28540,NC,Jacksonville, ,830 New Bridge Street, ,JNC,"Jacksonville, NC"
-13253031.0675,4553010.3202,421,427,Curbside Bus Stop only (no shelter),BUS,93529,CA,June Lake, ,Junction U.S. Highway 395 & State Highway 158, ,JNL,"June Lake, CA"
-9804880.1355,5090038.8577,422,428,Station Building (with waiting room),TRAIN,60432,IL,Joliet, ,90 East Jefferson Street, ,JOL,"Joliet, IL"
-9115082.1788,3711649.4687,423,429,Station Building (with waiting room),TRAIN,31545,GA,Jesup, ,176 Northwest Broad Street, ,JSP,"Jesup, GA"
-8785556.7384,4913969.2544,424,430,Station Building (with waiting room),TRAIN,15901,PA,Johnstown, ,47 Walnut Street, ,JST,"Johnstown, PA"
-13144615.5335,5426104.4993,425,431,Curbside Bus Stop only (no shelter),BUS,97911,OR,Juntura, ,5838 U.S. Highway 20, ,JTR,"Juntura, OR"
-9906120.2464,5269450.0808,426,432,Station Building (with waiting room),BUS,53545,WI,Janesville, ,3120 North Pontiac Drive, ,JVL,"Janesville, WI"
-9395328.824,5198219.5478,427,433,Station Building (with waiting room),TRAIN,49201,MI,Jackson, ,501 East Michigan Avenue, ,JXN,"Jackson, MI"
-9527169.8806,5205311.5431,428,434,Station Building (with waiting room),TRAIN,49007,MI,Kalamazoo, ,459 North Burdick Street, ,KAL,"Kalamazoo, MI"
-8975126.2855,4231515.9965,429,435,Station Building (with waiting room),TRAIN,28081,NC,Kannapolis, ,201 South Main Street, ,KAN,"Kannapolis, NC"
-10529169.2245,4733794.6109,430,436,Station Building (with waiting room),TRAIN,64108,MO,Kansas City, ,30 West Pershing Road,Union Station,KCY,"Kansas City, MO"
-10010689.1137,5048660.9367,431,437,Station Building (with waiting room),TRAIN,61443,IL,Kewanee, ,210 West Third Street, ,KEE,"Kewanee, IL"
-13682615.9839,5803177.3885,432,438,Station Building (with waiting room),TRAIN,98626,WA,Kelso, ,501 South First Avenue, ,KEL,"Kelso-Longview, WA"
-8214539.1401,5505238.1744,433,439,Curbside Bus Stop only (no shelter),BUS,12942,NY,Keene, ,State Routes 73 and 9N, ,KEN,"Keene, NY"
-13555593.2183,5194820.487,434,440,Station Building (with waiting room),TRAIN,97601,OR,Klamath Falls, ,1600 Oak Avenue, ,KFS,"Klamath Falls, OR"
-13484837.5611,4328528.1129,435,441,Curbside Bus Stop only (no shelter),BUS,93930,CA,King City, ,1350 Broadway Circle, ,KGC,"King City, CA"
-13636226.0702,6072995.7206,436,442,Curbside Bus Stop only (no shelter),BUS,98346,WA,Kingston, ,11264 State Route 104,Washington State Ferry dock,KGE,"Kingston - Eastbound, WA"
-9521735.622,5556392.723,437,443,Curbside Bus Stop only (no shelter),BUS,49649,MI,Kingsley, ,119 East Main Street (Hwy 113), ,KGS,"Kingsley, MI"
-13636693.1671,6073982.7482,438,444,Curbside Bus Stop only (no shelter),BUS,98346,WA,Kingston, ,10960 State Route 104,Henery Hardware,KGW,"Kingston - Westbound, WA"
-10879100.7337,3648493.752,439,445,Station Building (with waiting room),BUS,76541,TX,Killeen, ,200 East Avenue C, ,KIL,"Killeen, TX"
-7966089.2973,5083990.9851,440,446,Station Building (with waiting room),TRAIN,02892,RI,West Kingston, ,1 Railroad Avenue, ,KIN,"Kingston, RI"
-9061878.2232,3286071.092,441,447,Station Building (with waiting room),TRAIN,34741,FL,Kissimmee, ,111 East Dakin Avenue, ,KIS,"Kissimmee, FL"
-9781135.5655,5029949.4246,442,448,Station Building (with waiting room),TRAIN,60901,IL,Kankakee, ,199 South East Avenue, ,KKI,"Kankakee, IL"
-8103425.1035,5407901.9856,443,449,Curbside Bus Stop only (no shelter),BUS,05751,VT,Killington, ,228 East Mountain Road, ,KLT,"Killington, VT"
-8636664.8361,4197050.2873,444,450,Station Building (with waiting room),BUS,28504,NC,Kinston, ,101 East New Bern Road, ,KNC,"Kinston, NC"
-12696302.6851,4189497.7486,445,451,Station Building (with waiting room),TRAIN,86401,AZ,Kingman, ,402 Andy Devine, ,KNG,"Kingman, AZ"
-13757085.8409,5807328.6319,446,452,Curbside Bus Stop only (no shelter),BUS,97103,OR,Knappa, ,43164 Hillcrest Loop Road, ,KNP,"Knappa, OR"
-8487090.2676,4716874.9548,447,453,Curbside Bus Stop only (no shelter),BUS,21638,MD,Grasonville, ,3206 Main Street, ,KNT,"Kent Island-Grasonville, MD"
-13142592.0818,6209007.1173,448,454,Curbside Bus Stop only (no shelter),BUS,99141,WA,Kettle Falls, ,425 West Third Avenue, ,KTF,"Kettle Falls, WA"
-8886526.8432,3983759.2706,449,455,Station Building (with waiting room),TRAIN,29556,SC,Kingstree, ,101 East Main St., ,KTR,"Kingstree, SC"
-8213845.9528,5494665.2134,450,456,Curbside Bus Stop only (no shelter),BUS,12943,NY,Keene Valley, ,1770 Route 73, ,KVL,"Keene Valley, NY"
-10064035.2938,4661840.4539,451,457,Station Building (with waiting room),TRAIN,63122,MO,Kirkwood, ,110 West Argonne Drive, ,KWD,"Kirkwood, MO"
-8837107.3633,4912175.6463,452,458,Platform only (no shelter),TRAIN,15650,PA,Latrobe, ,329 McKinley Avenue,Amtrak Station,LAB,"Latrobe, PA"
-13144341.164,5673066.0246,453,459,Station Building (with waiting room),BUS,97850,OR,La Grande, ,2204 East Penn Avenue, ,LAE,"La Grande, OR"
-9673208.0521,4927070.1995,454,460,Station Building (with waiting room),TRAIN,47901,IN,Lafayette, ,200 North Second Street,Amtrak Station,LAF,"Lafayette, IN"
-9781816.292,5133403.364,455,461,Station Building (with waiting room),TRAIN,60525,IL,La Grange, ,25 West Burlington Avenue, ,LAG,"La Grange, IL"
-11526419.222,4577766.8083,456,462,Station Building (with waiting room),TRAIN,81050,CO,La Junta, ,1 West First Street, ,LAJ,"La Junta, CO"
-9122841.246,3254725.1592,457,463,Station Building (with waiting room),TRAIN,33801,FL,Lakeland, ,600 East  Main Street,To/from points north,LAK,"Lakeland, FL"
-9846711.8547,5902654.3905,458,464,Curbside Bus Stop only (no shelter),BUS,49946,MI,L'Anse, ,4 North Main Street, ,LAN,"L'Anse, MI"
-10296317.183,4870190.4148,459,465,Station Building (with waiting room),TRAIN,63549,MO,La Plata, ,535 North Owensby Street, ,LAP,"La Plata, MO"
-12818272.9227,4312458.3078,460,466,Curbside Bus Stop only (no shelter),BUS,89111,NV,Las Vegas, ,5757 Wayne Newton Boulevard,McCarran International Airport,LAS,"Las Vegas, NV"
-9921676.722,3722971.139,461,467,Station Building (with waiting room),TRAIN,39440,MS,Laurel, ,230 North Maple Street, ,LAU,"Laurel, MS"
-13162059.2766,4036348.3739,462,468,Station Building (with waiting room),TRAIN,90012,CA,Los Angeles, ,800 North Alameda Street,Union Station,LAX,"Los Angeles, CA"
-13156871.2283,3997710.2603,463,469,Curbside Bus Stop only (no shelter),BUS,90802,CA,Long Beach, ,107 East First Street, ,LBC,"Long Beach, CA"
-8584600.4025,5095428.9568,464,470,Curbside Bus Stop only (no shelter),BUS,16930,PA,Liberty, ,U.S. Highway 15 exit ramp, ,LBR,"Liberty, PA"
-13165369.1411,4059989.7781,465,471,Curbside Bus Stop only (no shelter),BUS,91214,CA,La Crescenta, ,6201 Honolulu Avenue, ,LCA,"La Crescenta, CA"
-10376873.8119,3534196.2828,466,472,Station Building (with waiting room),TRAIN,70601,LA,Lake Charles, ,100 Ryan Street, ,LCH,"Lake Charles, LA"
-9947850.0106,4887502.6687,467,473,Station Building (with waiting room),TRAIN,62656,IL,Lincoln, ,103 North Chicago Street, ,LCN,"Lincoln, IL"
-13804772.9755,5620975.4268,468,474,Curbside Bus Stop only (no shelter),BUS,97367,OR,Lincoln City, ,1725 NW 44th St., ,LCO,"Lincoln City, OR"
-11889879.8393,3814532.3255,469,475,Curbside Bus Stop only (no shelter),BUS,88005,NM,Las Cruces, ,800 East Thorpe Road, ,LCR,"Las Cruces, NM"
-13150888.815,4122686.4034,470,476,Platform with Shelter,BUS,93534,CA,Lancaster, ,44812 Sierra Highway, ,LCS,"Lancaster, CA"
-7682006.89,5509199.6256,471,477,Curbside Bus Stop only (no shelter),BUS,04849,ME,Lincolnville, ,2512 Atlantic Highway, ,LCV,"Lincolnville, ME"
-12101211.8109,3809351.6607,472,478,Platform with Shelter,TRAIN,88045,NM,Lordsburg, ,Center Street and East Motel Drive, ,LDB,"Lordsburg, NM"
-10506108.6047,4709164.2803,473,480,Platform with Shelter,TRAIN,64063,MO,Lee's Summit, ,217 SW Main Street, ,LEE,"Lee's Summit, MO"
-13773335.4715,4848262.8868,474,481,Curbside Bus Stop only (no shelter),BUS,95585,CA,Leggett, ,69501 Highway 101 North, ,LEG,"Leggett, CA"
-13433425.7414,6038663.0712,475,482,Curbside Bus Stop only (no shelter),BUS,98826,WA,Leavenworth, ,585 Highway 2,76 gas station,LEV,"Leavenworth, WA"
-8636171.6144,4951806.8642,476,483,Station Building (with waiting room),TRAIN,17044,PA,Lewistown, ,150 Helen Street,Amtrak Station,LEW,"Lewistown, PA"
-8933563.696,4276000.3145,477,484,Platform only (no shelter),TRAIN,27292,NC,Lexington, ,29 South Railroad Street, ,LEX,"Lexington Barbeque Festival, NC"
-10243010.085,3532704.5391,478,485,Station Building (with waiting room),TRAIN,70501,LA,Lafayette, ,100 Lee Avenue, ,LFT,"Lafayette, LA"
-8205805.56,5376861.8355,479,486,Curbside Bus Stop only (no shelter),BUS,12845,NY,Lake George, ,35 Montcalm Street, ,LGG,"Lake George, NY"
-12862845.14,6172796.7348,480,487,Station Building (with waiting room),TRAIN,59923,MT,Libby, ,100 Mineral Avenue, ,LIB,"Libby, MT"
-13555055.3641,4535010.6954,481,488,Curbside Bus Stop only (no shelter),BUS,94550,CA,Livermore, ,2500 Railroad Avenue,Livermore Transit Center,LIV,"Livermore, CA"
-9122841.246,3254725.1592,482,489,Station Building (with waiting room),TRAIN,33801,FL,Lakeland, ,600 East Main Street,To/from points south,LKL,"Lakeland, FL"
-13093594.6726,6116927.6454,483,490,Curbside Bus Stop only (no shelter),BUS,99148,WA,Loon Lake, ,State Highway 292 & Colville Road, ,LLK,"Loon Lake, WA"
-11423448.4472,4592095.1811,484,491,Platform only (no shelter),TRAIN,81052,CO,Lamar, ,109 E Beech Street, ,LMR,"Lamar, CO"
-11786505.2234,4229437.8664,485,492,Station Building (with waiting room),TRAIN,87540,NM,Lamy, ,152 Old Lamy Trail, ,LMY,"Lamy, NM"
-8494536.1041,4873820.011,486,493,Station Building (with waiting room),TRAIN,17602,PA,Lancaster, ,53 McGovern Avenue, ,LNC,"Lancaster, PA"
-10766061.748,4985221.546,487,494,Station Building (with waiting room),TRAIN,68508,NE,Lincoln, ,277 Pinnacle Arena Drive, ,LNK,"Lincoln, NE"
-7978792.3199,5471363.6724,488,495,Curbside Bus Stop only (no shelter),BUS,03251,NH,Lincoln, ,36 Main Street, ,LNN,"Lincoln, NH"
-9406048.0086,5269258.5976,489,496,Station Building (with waiting room),TRAIN,48823,MI,East Lansing, ,1240 South Harrison Road, ,LNS,"East Lansing, MI"
-12754605.2772,4185845.8708,490,497,Curbside Bus Stop only (no shelter),BUS,89029,NV,Laughlin, ,2010 S. Casino Dr, ,LNV,"Laughlin, NV"
-9044784.2034,5309015.3843,491,498,Station Building (with waiting room),BUS,N6A 1A6,ON,London, ,101 York Street, ,LOB,"London, ON"
-13499926.1647,4598260.4892,492,499,Station Building (with waiting room),TRAIN,95240,CA,Lodi, ,24 South Sacramento Street, ,LOD,"Lodi, CA"
-11823111.0909,4276952.8211,493,500,Curbside Bus Stop only (no shelter),BUS,87506,NM,Los Alamos, ,124 State Highway 4,White Rock Area,LOH,"Los Alamos, NM"
-13409467.6699,4114841.6121,494,501,Curbside Bus Stop only (no shelter),BUS,93436,CA,Lompoc, ,111 South I Street, ,LOM,"Lompoc, CA"
-8596196.2026,4679952.4729,495,502,Station Building (with waiting room),TRAIN,22079,VA,Lorton, ,8006 Lorton Road,Auto Train Station,LOR,"Lorton, VA"
-11833254.0803,4284370.0566,496,503,Curbside Bus Stop only (no shelter),BUS,87544,NM,Los Alamos, ,109 Central Park Square,Central Area,LOS,"Los Alamos, NM"
-8235915.3839,5509595.028,497,504,Curbside Bus Stop only (no shelter),BUS,12946,NY,Lake Placid, ,2634 Main Street,Olympic Center Visitors Bureau,LPA,"Lake Placid, NY"
-9273599.1509,5319513.5984,498,505,Station Building (with waiting room),TRAIN,48446,MI,Lapeer, ,73 Howard Street, ,LPE,"Lapeer, MI"
-13525314.785,5415158.6837,499,506,Curbside Bus Stop only (no shelter),BUS,97739,OR,La Pine,Shell Station,16515 Reed Road, ,LPN,"La Pine, OR"
-13425688.7038,4120845.6987,500,507,Platform with Shelter,TRAIN,93437,CA,Surf, ,Ocean Ave and Park Rd, ,LPS,"Lompoc-Surf, CA"
-12945340.893,3990059.9355,501,508,Curbside Bus Stop only (no shelter),BUS,92253,CA,La Quinta, ,78822 Highway 111, ,LQT,"La Quinta, CA"
-10601015.9551,4717543.182,502,509,Station Building (with waiting room),TRAIN,66044,KS,Lawrence, ,413 East 7th Street, ,LRC,"Lawrence, KS"
-10273318.6334,4130000.0586,503,510,Station Building (with waiting room),TRAIN,72201,AR,Little Rock, ,1400 West Markham Street,Union Station,LRK,"Little Rock, AR"
-11756291.0612,5061128.2356,504,511,Curbside Bus Stop only (no shelter),BUS,82072,WY,Laramie, ,1952 North Banner Road, ,LRY,"Laramie, WY"
-8559059.9137,5006897.6731,505,512,Curbside Bus Stop only (no shelter),BUS,17837,PA,Lewisburg, ,500 Market Street, ,LSB,"Lewisburg, PA"
-10157603.5313,5439659.9623,506,513,Station Building (with waiting room),TRAIN,54601,WI,La Crosse, ,601 St. Andrew Street, ,LSE,"La Crosse, WI"
-11712234.0681,4244822.2841,507,514,Station Building (with waiting room),TRAIN,87701,NM,Las Vegas, ,500 Railroad Avenue at Lincoln, ,LSV,"Las Vegas, NM"
-8839369.821,4905671.6731,508,515,Curbside Bus Stop only (no shelter),BUS,15650,PA,Latrobe, ,148 Aviation Lane,Arnold Palmer Regional Airport,LTB,"Latrobe, PA"
-7989298.6589,5511487.5187,509,516,Curbside Bus Stop only (no shelter),BUS,03561,NH,Littleton, ,336 Cottage Street, ,LTL,"Littleton, NH"
-13499010.1121,4550980.5826,510,517,Platform with Shelter,TRAIN,95330,CA,Manteca, ,17800 Shideler Parkway, ,LTM,"Lathrop-Manteca, CA"
-13135765.8354,4099022.4566,511,518,Curbside Bus Stop only (no shelter),BUS,93543,CA,Littlerock, ,7225 Pearblossom Hwy, ,LTR,"Littlerock, CA"
-13745956.9925,4820509.3139,512,519,Curbside Bus Stop only (no shelter),BUS,95454,CA,Laytonville, ,44900 Highway 101, ,LTV,"Laytonville, CA"
-9547143.5702,4615041.3443,513,520,Station Building (with waiting room),BUS,40203,KY,Louisville, ,720 West Muhammad Ali Blvd., ,LVL,"Louisville, KY"
-13260232.9963,4573128.4008,514,521,Curbside Bus Stop only (no shelter),BUS,95541,CA,Lee Vining, ,30 Main Street, ,LVN,"Lee Vining, CA"
-8566510.4156,4956474.1682,515,522,Curbside Bus Stop only (no shelter),BUS,17045,PA,Liverpool, ,U.S. Highway 11/15 & State Highway 104,Park & Ride Lot,LVP,"Liverpool, PA"
-8570947.1662,4948584.0739,516,523,Curbside Bus Stop only (no shelter),BUS,17045,PA,Liverpool, ,1412 Susquehanna Trail,Lowes restaurant,LVR,"Liverpool, PA"
-12818411.0711,4323274.9272,517,524,Curbside Bus Stop only (no shelter),BUS,89101,NV,Las Vegas, ,624 South 1st Street, ,LVS,"Las Vegas, NV"
-12819957.8546,4310046.7324,518,525,Curbside Bus Stop only (no shelter),BUS,89119,NV,Las Vegas, ,6675 Gilespie Street,South Strip Transfer Terminal,LVT,"Las Vegas, NV"
-10545109.3454,3828336.9065,519,526,Station Building (with waiting room),TRAIN,75602,TX,Longview, ,905 Pacific Avenue, ,LVW,"Longview, TX"
-13430026.3781,6041638.152,520,527,Platform with Shelter,TRAIN,98826,WA,Leavenworth, ,11645 North Road,Icicle Station,LWA,"Leavenworth, WA"
-8635570.0437,4953098.976,521,528,Curbside Bus Stop only (no shelter),BUS,17044,PA,Lewistown, ,6 West Market Street,Laskaris restaurant,LWB,"Lewistown, PA"
-13025041.2934,5849032.1555,522,529,Curbside Bus Stop only (no shelter),BUS,83501,ID,Lewiston, ,1920 Highway 128, ,LWN,"Lewiston, ID"
-8811709.9037,4495912.6169,523,530,Station Building (with waiting room),TRAIN,24501,VA,Lynchburg, ,825 Kemper Street, ,LYH,"Lynchburg, VA"
-10093443.5929,4933193.5427,524,531,Station Building (with waiting room),TRAIN,61455,IL,Macomb, ,120 East Calhoun Street, ,MAC,"Macomb, IL"
-13484524.7763,5561723.8607,525,532,Curbside Bus Stop only (no shelter),BUS,97741,OR,Madras, ,1210 Southwest Highway 97, ,MAD,"Madras, OR"
-9902449.5451,4541304.5131,526,533,Station Building (with waiting room),BUS,62959,IL,Marion, ,2315 W Main St, ,MAI,"Marion, IL"
-9431630.1627,5745378.3588,527,534,Curbside Bus Stop only (no shelter),BUS,49701,MI,Mackinaw City, ,102 South Huron Ave., ,MAK,"Mackinaw City, MI"
-12008284.4068,6167037.4667,528,535,Station Building (with waiting room),TRAIN,59538,MT,Malta, ,51 South 1st Street East, ,MAL,"Malta, MT"
-9837976.9672,4791057.3541,529,536,Station Building (with waiting room),TRAIN,61938,IL,Mattoon, ,1718 Broadway Avenue, ,MAT,"Mattoon, IL"
-9325353.783,4671967.5999,530,537,Station Building (with waiting room),TRAIN,41056,KY,Maysville, ,West Front Street & Rosemary Clooney Street, ,MAY,"Maysville, KY"
-12923873.7533,5606815.7133,531,538,Curbside Bus Stop only (no shelter),BUS,83638,ID,McCall, ,507 North 3rd Street, ,MCA,"McCall, ID"
-10068997.0853,3664539.4399,532,539,Station Building (with waiting room),TRAIN,39648,MS,McComb, ,114 North Railroad Avenue, ,MCB,"McComb, MS"
-13411418.0169,4482011.7742,533,540,Station Building (with waiting room),TRAIN,95340,CA,Merced, ,324 West 24th Street, ,MCD,"Merced, CA"
-10843048.685,3690462.3982,534,541,Station Building (with waiting room),TRAIN,76657,TX,McGregor, ,1 Amtrak Boulevard, ,MCG,"McGregor, TX"
-8133144.8535,5338417.9813,535,542,Curbside Bus Stop only (no shelter),BUS,05255,VT,Manchester Center, ,4519 Main Street,Hampton Inn,MCH,"Manchester Center, VT"
-9674263.8199,5119294.321,536,543,Platform only (no shelter),TRAIN,46360,IN,Michigan City, ,100 Washington Street, ,MCI,"Michigan City, IN"
-11201612.9406,4894704.6022,537,544,Station Building (with waiting room),TRAIN,69001,NE,McCook, ,101 Norris Avenue, ,MCK,"McCook, NE"
-8134362.1325,5336693.2867,538,545,Curbside Bus Stop only (no shelter),BUS,05254,VT,Manchester, ,3567 Main Street,Equinox Resort,MCQ,"Manchester, VT"
-8132816.3496,5339061.8473,539,546,Curbside Bus Stop only (no shelter),BUS,05255,VT,Manchester Center, ,75 Bonnet Street,Tour Bus Parking Area,MCV,"Manchester Center, VT"
-8343697.3839,5216123.2087,540,547,Curbside Bus Stop only (no shelter),BUS,13806,NY,Meridale, ,50 County Highway 10, ,MDL,"Meridale, NY"
-8104134.528,5092230.5969,541,548,Platform with Shelter,TRAIN,06450,CT,Meriden, ,60 State Street, ,MDN,"Meriden, CT"
-13349457.2474,4515227.8735,542,549,Curbside Bus Stop only (no shelter),BUS,95345,CA,Midpines, ,6979 Highway 140, ,MDP,"Midpines, CA"
-13366687.0519,4442240.1212,543,550,Platform with Shelter,TRAIN,93638,CA,Madera, ,18770 Road 26, ,MDR,"Madera, CA"
-9920562.1597,5093747.4361,544,551,Station Building (with waiting room),TRAIN,61342,IL,Mendota, ,783 Main Street, ,MDT,"Mendota, IL"
-9739176.976,4492554.3742,545,552,Curbside Bus Stop only (no shelter),BUS,42431,KY,Madisonville, ,4765 Hanson Road, ,MDV,"Madisonville, KY"
-13577222.7248,6083300.3002,546,553,Curbside Bus Stop only (no shelter),BUS,98272,WA,Monroe, ,19746 US Highway 2,Grocery Outlet,MEE,"Monroe - Eastbound, WA"
-9873657.3803,3811209.3633,547,554,Station Building (with waiting room),TRAIN,39301,MS,Meridian, ,1901 Front Street,Union Station,MEI,"Meridian, MS"
-10025334.8106,4181897.1414,548,555,Station Building (with waiting room),TRAIN,38103,TN,Memphis,Main and Carolina Entrance,545 South Main Street,Central Station,MEM,"Memphis, TN"
-8274331.5022,4948838.4848,549,556,Station Building (with waiting room),TRAIN,08830,NJ,Iselin, ,100 Middlesex-Essex Turnpike, ,MET,"Metropark, NJ"
-13577216.1569,6083341.2797,550,557,Curbside Bus Stop only (no shelter),BUS,98272,WA,Monroe, ,19721 US Highway 2,Shell gas station,MEW,"Monroe - Westbound, WA"
-13678318.7482,5216252.1372,551,558,Curbside Bus Stop only (no shelter),BUS,97504,OR,Medford, ,1000 Terminal Loop Parkway,Rogue Valley Int'l Airport,MFA,"Medford, OR"
-13677998.5925,5209667.9143,552,559,Station Building (with waiting room),BUS,97501,OR,Medford, ,220 S. Front Street,Greyhound Station,MFR,"Medford, OR"
-9608520.2166,3813225.8261,553,560,Station Building (with waiting room),BUS,36104,AL,Montgomery, ,495 Molton Street, ,MGM,"Montgomery, AL"
-8309650.6389,5183406.7252,554,561,Curbside Bus Stop only (no shelter),BUS,12455,NY,Margaretville, ,885 Main Street, ,MGV,"Margaretville, NY"
-13542017.9503,4457255.1934,555,562,Platform with Shelter,BUS,95037,CA,Morgan Hill, ,17300 Depot Street, ,MHC,"Morgan Hill, CA"
-8539950.653,4126083.3093,556,563,Curbside Bus Stop only (no shelter),BUS,28557,NC,Morehead City, ,1001 Arendell Street, ,MHD,"Morehead City, NC"
-10504886.5976,3835930.522,557,564,Station Building (with waiting room),TRAIN,75670,TX,Marshall, ,800 North Washington Street, ,MHL,"Marshall, TX"
-7955564.4912,5309978.3766,558,565,Station Building (with waiting room),BUS,03101,NH,Manchester, ,119 Canal Street, ,MHT,"Manchester, NH"
-7854256.8097,5080123.9559,559,566,Station Building (with waiting room),BUS,02557,MA,Oak Bluffs, ,1 Seaview Avenue, ,MHV,"Martha's Vineyard, MA"
-8934253.1648,2980460.0443,560,567,Station Building (with waiting room),TRAIN,33147,FL,Miami, ,8303 NW 37th Avenue, ,MIA,"Miami, FL"
-8541649.7568,4893966.6421,561,568,Platform with Shelter,TRAIN,17057,PA,Middletown, ,Union Street and Mill Street, ,MID,"Middletown, PA"
-8613347.2153,4950412.0332,562,569,Curbside Bus Stop only (no shelter),BUS,17059,PA,Mifflintown, ,9 Stop Plaza Drive, ,MIF,"Mifflintown, PA"
-10629798.7879,3850532.8175,563,570,Station Building (with waiting room),TRAIN,75773,TX,Mineola, ,115 East Front Street, ,MIN,"Mineola, TX"
-8516324.5641,4881819.715,564,571,Platform with Shelter,TRAIN,17552,PA,Mount Joy, ,25 South Market Street, ,MJY,"Mount Joy, PA"
-9787695.5342,5302933.5611,565,572,Station Building (with waiting room),TRAIN,53221,WI,Milwaukee, ,5601 South 6th Street,General Mitchell Int'l Airport,MKA,"Milwaukee Airport-Trains, WI"
-9785326.4322,5303936.016,566,573,Curbside Bus Stop only (no shelter),BUS,53207,WI,Milwaukee, ,5300 South Howell Avenue,General Mitchell Int'l Airport,MKB,"Milwaukee Airport-Buses, WI"
-9786887.9121,5317228.5384,567,574,Station Building (with waiting room),TRAIN,53203,WI,Milwaukee, ,433 West St. Paul Avenue,Intermodal Station,MKE,"Milwaukee-Downtown, WI"
-10049071.7999,4063529.3802,568,575,Platform with Shelter,TRAIN,38646,MS,Marks, ,285 Cherry St, ,MKS,"Marks, MS"
-10076763.9326,5087379.2967,569,576,Station Building (with waiting room),BUS,61265,IL,Moline, ,1200 River Drive, ,MLI,"Moline, IL"
-13274334.3417,5958736.0328,570,577,Curbside Bus Stop only (no shelter),BUS,98837,WA,Moses Lake, ,1810 East Kittleson Road, ,MLK,"Moses Lake, WA"
-8272064.0676,5597586.0158,571,578,Curbside Bus Stop only (no shelter),BUS,12953,NY,Malone, ,206 West Main Street, ,MLO,"Malone, NY"
-13251351.1428,4530295.8786,572,579,Curbside Bus Stop only (no shelter),BUS,93546,CA,Mammoth Lakes, ,1 Minaret Road, ,MMK,"Mammoth Lakes, CA"
-8668810.2943,5270134.1602,573,580,Curbside Bus Stop only (no shelter),BUS,14510,NY,Mt. Morris, ,Lake & Main Streets, ,MMR,"Mt. Morris, NY"
-8571586.9291,5128717.7215,574,581,Curbside Bus Stop only (no shelter),BUS,16932,PA,Mainesburg, ,19629 Roosevelt Highway, ,MNB,"Mainesburg, PA"
-8580235.8999,5131881.9998,575,582,Curbside Bus Stop only (no shelter),BUS,16933,PA,Mansfield, ,54 South Main Street, ,MNF,"Mansfield, PA"
-9052950.0057,4604991.3538,576,583,Platform with Shelter,TRAIN,25136,WV,Montgomery, ,Third Avenue and Washington Street, ,MNG,"Montgomery, WV"
-10233162.8969,5601655.7725,577,584,Curbside Bus Stop only (no shelter),BUS,54751,WI,Menomonie, ,302 10th Avenue East,University of Wisconsin Stout,MNM,"Menomonie, WI"
-8879037.6446,4929807.8536,578,585,Station Building (with waiting room),BUS,15146,PA,Monroeville, ,4210 William Penn Highway, ,MNR,"Monroeville, PA"
-8342882.9914,5609453.4545,579,586,Curbside Bus Stop only (no shelter),BUS,13662,NY,Massena, ,15054 State Highway 37, ,MNY,"Massena, NY"
-13024981.7446,5897454.2063,580,587,Curbside Bus Stop only (no shelter),BUS,83843,ID,Moscow, ,1006 Railroad Street, ,MOC,"Moscow, ID"
-13459965.3496,4532765.3816,581,588,Station Building (with waiting room),TRAIN,95355,CA,Modesto, ,1700 Held Drive, ,MOD,"Modesto, CA"
-9807389.1941,3590029.224,582,589,Station Building (with waiting room),BUS,36606,AL,Mobile, ,2545 Government Boulevard, ,MOG,"Mobile, AL"
-11836798.5223,4652022.8435,583,590,Curbside Bus Stop only (no shelter),BUS,81201,CO,Salida, ,23715 U.S. Highway 50, ,MOH,"Monarch Mountain, CO"
-13154979.6992,4171017.291,584,591,Curbside Bus Stop only (no shelter),BUS,93501,CA,Mojave, ,15900 Sierra Highway, ,MOJ,"Mojave, CA"
-11276504.9533,6146222.1882,585,592,Station Building (with waiting room),TRAIN,58701,ND,Minot, ,400 1st Avenue S.W., ,MOT,"Minot, ND"
-13056507.2294,4017094.2206,586,593,Curbside Bus Stop only (no shelter),BUS,92518,CA,Riverside, ,14160 Meridian Parkway, ,MOV,"Moreno Valley, CA"
-13233446.3649,4067103.3812,587,594,Platform only (no shelter),TRAIN,93021,CA,Moorpark, ,300 High Street, ,MPK,"Moorpark, CA"
-13787755.4301,5469595.0123,588,595,Platform only (no shelter),BUS,97453,OR,Mapleton, ,10756 OR-126, ,MPL,"Mapoleton, OR"
-8082506.9445,5505107.0025,589,596,Station Building (with waiting room),TRAIN,05602,VT,Montpelier, ,297 Junction Road, ,MPR,"Montpelier-Berlin, VT"
-9436846.4572,5400955.5648,590,597,Station Building (with waiting room),BUS,48858,MI,Mt. Pleasant, ,300 East Broomfield Street,Central Michigan University,MPT,"Mt. Pleasant, MI"
-9735168.3518,5870197.5597,591,598,Station Building (with waiting room),BUS,49855,MI,Marquette, ,1325 Commerce Drive, ,MQT,"Marquette, MI"
-8678580.6717,4787586.5368,592,599,Station Building (with waiting room),TRAIN,25401,WV,Martinsburg, ,229 East Martin Street, ,MRB,"Martinsburg, WV"
-12473031.4585,3902777.7809,593,600,Station Building (with waiting room),TRAIN,85139,AZ,Maricopa, ,19427 North John Wayne Parkway, ,MRC,"Maricopa, AZ"
-13354578.278,4507032.3869,594,601,Curbside Bus Stop only (no shelter),BUS,95338,CA,Mariposa, ,Highway 140 and 7th Street,Midtown YARTS bus stop,MRM,"Mariposa, CA"
-13355470.7266,4507806.9477,595,602,Curbside Bus Stop only (no shelter),BUS,95338,CA,Mariposa, ,4974 Joe Howard Street,Mariposa Park and Ride,MRP,"Mariposa, CA"
-13536146.4296,4742280.066,596,603,Station Building (with waiting room),BUS,95901,CA,Marysville, ,858 I Street, ,MRV,"Marysville, CA"
-13569216.3054,4383167.0617,597,604,Curbside Bus Stop only (no shelter),BUS,93940,CA,Monterey, ,500 Tyler Street,Transit Plaza,MRY,"Monterey, CA"
-10376176.5352,5603063.3374,598,605,Curbside Bus Stop only (no shelter),BUS,55111,MN,St. Paul,"Terminal 1-Lindbergh, Level 1-Ground Transportation",4300 Glumack Drive,Minneapolis-St Paul Intl Airport,MSL,"St. Paul-Minneapolis, MN"
-9951697.3578,5322816.8636,599,606,Curbside Bus Stop only (no shelter),BUS,53706,WI,Madison, ,250 North Lake Street,Univ of Wisc - Gordon Center,MSN,"Madison, WI"
-10362215.1756,5613286.8004,600,607,Station Building (with waiting room),TRAIN,55101,MN,St. Paul, ,240 Kellogg Boulevard East,Union Depot,MSP,"St. Paul-Minneapolis, MN"
-8624208.0917,4685937.316,601,608,Station Building (with waiting room),TRAIN,20110,VA,Manassas, ,9431 West Street, ,MSS,"Manassas, VA"
-9762581.8637,5477582.2042,602,609,Curbside Bus Stop only (no shelter),BUS,54220,WI,Manitowoc, ,1701 South 41st Street, ,MTC,"Manitowoc, WI"
-9506507.1088,5529200.4577,603,610,Curbside Bus Stop only (no shelter),BUS,49663,MI,Manton, ,102 South Michigan Avenue, ,MTO,"Manton, MI"
-10191386.0763,5008092.6042,604,611,Station Building (with waiting room),TRAIN,52641,IA,Mount Pleasant, ,418 North Adams Street, ,MTP,"Mount Pleasant, IA"
-8189303.9041,5700611.0271,605,612,Station Building (with waiting room),TRAIN,H3B 4G1,QC,Montreal, ,895 rue de la Gauchetiere ouest,Gare Centrale / Central Station,MTR,"Montreal, QC"
-13596428.7106,4582099.7649,606,613,Station Building (with waiting room),TRAIN,94553,CA,Martinez, ,601 Marina Vista Avenue, ,MTZ,"Martinez, CA"
-9902584.6921,4623867.3274,607,614,Curbside Bus Stop only (no shelter),BUS,62864,IL,Mt. Vernon, ,102 Potomac Boulevard, ,MVI,"Mt. Vernon, IL"
-10332009.9555,4077984.6512,608,615,Platform with Shelter,TRAIN,72104,AR,Malvern, ,200 East First Street, ,MVN,"Malvern, AR"
-13618242.4208,6176758.7999,609,616,Station Building (with waiting room),TRAIN,98273,WA,Mount Vernon, ,105 East Kincaid Street, ,MVW,"Mount Vernon, WA"
-9758093.6962,5633280.5378,610,617,Curbside Bus Stop only (no shelter),BUS,54143,WI,Marinette, ,2900 Roosevelt AVe, ,MWI,"Marinette, WI"
-8349489.01,5313633.6209,611,618,Curbside Bus Stop only (no shelter),BUS,13407,NY,Mohawk, ,1 Main Street, ,MWK,"Mohawk, NY"
-13570029.9399,4385950.126,612,619,Curbside Bus Stop only (no shelter),BUS,93940,CA,Monterey, ,886 Cannery Row,Monterey Bay Aquarium,MYA,"Monterey, CA"
-13567321.6472,4382369.8153,613,620,Curbside Bus Stop only (no shelter),BUS,93940,CA,Monterey, ,1 Old Golf Course Road,Hyatt Regency Hotel,MYH,"Monterey, CA"
-13569281.9839,4383580.5442,614,621,Curbside Bus Stop only (no shelter),BUS,93940,CA,Monterey, ,350 Calle Principal,Marriott Hotel,MYM,"Monterey, CA"
-8010894.9608,5064244.22,615,622,Station Building (with waiting room),TRAIN,06355,CT,Mystic, ,2 Roosevelt Avenue, ,MYS,"Mystic, CT"
-13569014.9283,4382857.5842,616,623,Curbside Bus Stop only (no shelter),BUS,93940,CA,Monterey, ,351 Fremont Street,Chevron gas station,MYT,"Monterey, CA"
-12972023.6456,5401944.4474,617,624,Curbside Bus Stop only (no shelter),BUS,83687,ID,Nampa, ,3319 Garrity Boulevard, ,NAM,"Nampa, ID"
-7803001.6249,5054616.8599,618,625,Station Building (with waiting room),BUS,02554,MA,Nantucket, ,1 Steamboat Wharf, ,NAN,"Nantucket, MA"
-13612151.2589,4621555.5561,619,626,Curbside Bus Stop only (no shelter),BUS,94559,CA,Napa, ,625 Burnell Street, ,NAP,"Napa, CA"
-8287320.4867,4938361.2279,620,627,Station Building (with waiting room),TRAIN,08901,NJ,New Brunswick, ,French and Albany Streets, ,NBK,"New Brunswick, NJ"
-9936630.4138,4316142.2606,621,628,Station Building (with waiting room),TRAIN,38059,TN,Newbern, ,108 Jefferson St, ,NBN,"Newbern-Dyersburg, TN"
-8575714.0561,4178080.8811,622,629,Curbside Bus Stop only (no shelter),BUS,28560,NC,New Bern, ,203 South Front Street, ,NBR,"New Bern, NC"
-7894079.4867,5284474.6644,623,630,Station Building (with waiting room),BUS,01950,MA,Newburyport, ,90 Storey Avenue, ,NBT,"Newburyport, MA"
-9656496.8908,5130569.1779,624,631,Platform with Shelter,TRAIN,49117,MI,New Buffalo, ,226 North Whittaker Street, ,NBU,"New Buffalo, MI"
-10539272.1902,3724031.6517,625,632,Curbside Bus Stop only (no shelter),BUS,75965,TX,Nacogdoches,Exxon Gas Station,9855 US Highway 259 North, ,NCG,"Nacogdoches, TX"
-8557295.8187,4714240.8976,626,633,Station Building (with waiting room),TRAIN,20784,MD,New Carrollton, ,4300 Garden City Drive, ,NCR,"New Carrollton, MD"
-7918095.4587,5473879.1294,627,634,Station Building (with waiting room),BUS,03860,NH,North Conway, ,2760 White Mountain Highway, ,NCW,"North Conway, NH"
-12757903.7825,4142243.234,628,635,Station Building (with waiting room),TRAIN,92363,CA,Needles, ,950 Front Street, ,NDL,"Needles, CA"
-10836384.0384,4586065.0129,629,636,Station Building (with waiting room),TRAIN,67114,KS,Newton, ,414 North Main Street, ,NEW,"Newton, KS"
-8569645.1722,4931208.9938,630,637,Curbside Bus Stop only (no shelter),BUS,17069,PA,New Buffalo, ,3298 Susquehanna Trail, ,NFF,"New Buffalo, PA"
-8491027.4032,4417317.3771,631,638,Station Building (with waiting room),TRAIN,23510,VA,Norfolk, ,280 Park Avenue, ,NFK,"Norfolk, VA"
-8800393.4287,5328717.2527,632,639,Station Building (with waiting room),TRAIN,14305,NY,Niagara Falls, ,825 Depot Avenue West, ,NFL,"Niagara Falls, NY"
-8801285.6547,5328538.5439,633,640,Station Building (with waiting room),TRAIN,L2E 2R6,ON,Niagara Falls, ,4267 Bridge Street, ,NFS,"Niagara Falls, ON"
-13194404.2763,4079868.1971,634,641,Platform with Shelter,BUS,91321,CA,Santa Clarita, ,24300 Railroad Avenue, ,NHL,"Santa Clarita-Newhall, CA"
-8084731.6511,5208864.44,635,642,Platform with Shelter,TRAIN,01060,MA,Northampton, ,170 Pleasant Street, ,NHT,"Northampton, MA"
-8118159.8962,5056355.3296,636,643,Station Building (with waiting room),TRAIN,06519,CT,New Haven, ,50 Union Avenue,Union Station,NHV,"New Haven, CT"
-10221780.3381,3504632.2492,637,644,Platform only (no shelter),TRAIN,70560,LA,New Iberia, ,402 West Washington Street, ,NIB,"New Iberia, LA"
-8025381.1935,5064738.4896,638,645,Station Building (with waiting room),TRAIN,06320,CT,New London, ,27 Water Street,Union Station,NLC,"New London, CT"
-9601570.7249,5136656.7624,639,646,Station Building (with waiting room),TRAIN,49120,MI,Niles, ,598 Dey Street, ,NLS,"Niles, MI"
-10027470.1106,3496622.1491,640,647,Station Building (with waiting room),TRAIN,70113,LA,New Orleans, ,1001 Loyola Avenue,Union Passenger Terminal,NOL,"New Orleans, LA"
-10847307.4626,4193814.3988,641,648,Station Building (with waiting room),TRAIN,73069,OK,Norman, ,200 South Jones Avenue, ,NOR,"Norman, OK"
-13692412.9782,5716113.3113,642,649,Curbside Bus Stop only (no shelter),BUS,97133,OR,North Plains, ,31450 NW Commercial Street, ,NPL,"North Plains, OR"
-8510594.5939,4442276.7038,643,650,Station Building (with waiting room),TRAIN,23601,VA,Newport News, ,9304 Warwick Boulevard, ,NPN,"Newport News, VA"
-9812312.4976,5128009.8826,644,651,Station Building (with waiting room),TRAIN,60540,IL,Naperville, ,105 E. Fourth Ave., ,NPV,"Naperville, IL"
-8432842.7089,4818058.5671,645,652,Platform with Shelter,TRAIN,19713,DE,Newark, ,10 Mopar Drive, ,NRK,"Newark, DE"
-8213634.0875,4999290.69,646,653,Station Building (with waiting room),TRAIN,10801,NY,New Rochelle, ,1 Railroad Plaza, ,NRO,"New Rochelle, NY"
-8761544.6404,4272341.8178,647,654,Platform only (no shelter),TRAIN,27607,NC,North Carolina State Fair, ,1025 Blue Ridge Road, ,NSF,"North Carolina State Fair, NC"
-7959774.0378,5280172.3764,648,655,Curbside Bus Stop only (no shelter),BUS,03064,NH,Nashua, ,8 North Southwood Drive, ,NSH,"Nashua, NH"
-9659532.3007,4321566.8615,649,656,Station Building (with waiting room),BUS,37203,TN,Nashville, ,709 5th Avenue South, ,NVL,"Nashville, TN"
-7894742.6097,5106485.9054,650,657,Station Building (with waiting room),BUS,02740,MA,New Bedford, ,49 State Pier, ,NWF,"New Bedford, MA"
-8255982.3719,4973290.4735,651,658,Station Building (with waiting room),TRAIN,07102,NJ,Newark, ,1 Raymond Plaza West,Penn Station,NWK,"Newark, NJ"
-7938985.1076,5084688.9677,652,659,Station Building (with waiting room),BUS,02840,RI,Newport, ,39 America's Cup Avenue, ,NWP,"Newport, RI"
-8485826.3765,5322927.1419,653,660,Platform with Shelter,TRAIN,13209,NY,Syracuse, ,581 State Fair Boulevard, ,NYF,"New York State Fair, NY"
-8237025.6585,4975585.6262,654,661,Station Building (with waiting room),TRAIN,10001,NY,New York, ,351 West 31st Street,Moynihan Train Hall at Penn Sta.,NYP,"New York, NY"
-13603036.9671,4544521.6797,655,662,Platform with Shelter,TRAIN,94621,CA,Oakland, ,700 73rd Avenue,Coliseum/Airport Station,OAC,"Oakland, CA"
-13318964.605,4485950.9809,656,663,Curbside Bus Stop only (no shelter),BUS,93644,CA,Oakhurst, ,40530 Highway 41, ,OAH,"Oakhurst, CA"
-13770632.7818,5171003.3374,657,664,Curbside Bus Stop only (no shelter),BUS,97534,OR,O'Brien, ,33096 Redwood Parkway, ,OBR,"O'Brien, CA"
-9143258.1414,3400136.7676,658,665,Curbside Bus Stop only (no shelter),BUS,34470,FL,Ocala, ,531 Northeast First Avenue, ,OCA,"Ocala, FL"
-8360417.9942,4626840.9925,659,666,Station Building (with waiting room),BUS,21842,MD,Ocean City, ,12848 Ocean Gateway, ,OCM,"Ocean City, MD"
-9783553.3593,5602553.7479,660,667,Curbside Bus Stop only (no shelter),BUS,54153,WI,Oconto, ,517 Smith Avenue, ,OCO,"Oconto, WI"
-8367234.423,4632709.9398,661,668,Curbside Bus Stop only (no shelter),BUS,21811,MD,Berlin, ,11011 Manklin Creek Road, ,OCP,"Ocean Pines-Berlin, MD"
-12465449.5806,5045309.8095,662,669,Station Building (with waiting room),BUS,84401,UT,Ogden, ,2393 Wall Avenue, ,OGD,"Ogden, UT"
-13311939.8867,6167303.82,663,670,Curbside Bus Stop only (no shelter),BUS,98840,WA,Okanogan, ,424 Second Avenue South, ,OGW,"Okanogan, WA"
-10855070.4427,4227321.5377,664,671,Station Building (with waiting room),TRAIN,73102,OK,Oklahoma City, ,100 South E.K. Gaylord Boulevard, ,OKC,"Oklahoma City, OK"
-8998045.156,3154975.229,665,672,Platform with Shelter,TRAIN,34972,FL,Okeechobee, ,801 North Parrott Avenue, ,OKE,"Okeechobee, FL"
-13611221.1778,4550347.4767,666,673,Station Building (with waiting room),TRAIN,94607,CA,Oakland, ,245 Second Street,Jack London Square Station,OKJ,"Oakland, CA"
-8870203.688,5381547.6542,667,674,Station Building (with waiting room),TRAIN,L6J 2W6,ON,Oakville, ,200 Cross Avenue, ,OKL,"Oakville, ON"
-13632992.0316,5426066.8367,668,675,Platform only (no shelter),BUS,97463,OR,Oakridge, ,48067 Hwy 58, ,OKR,"Oakridge, OR"
-13046653.7732,3862865.121,669,676,Platform only (no shelter),TRAIN,92110,CA,San Diego, ,4005 Taylor Street,Old Town Transportation Center,OLT,"San Diego, CA"
-13669373.7704,5940650.6235,670,677,Station Building (with waiting room),TRAIN,98513,WA,Lacey, ,6600 Yelm Highway SE, ,OLW,"Olympia-Lacey, WA"
-10678729.3632,5049262.4414,671,678,Station Building (with waiting room),TRAIN,68108,NE,Omaha, ,1003 South 9th Street, ,OMA,"Omaha, NE"
-13303807.4413,6176413.8403,672,679,Curbside Bus Stop only (no shelter),BUS,98841,WA,Omak, ,800 East Riverside Drive, ,OMW,"Omak, WA"
-13096691.4587,4037086.7353,673,680,Platform only (no shelter),TRAIN,91764,CA,Ontario, ,198 East Emporia Street, ,ONA,"Ontario, CA"
-8355795.3681,5229068.0603,674,681,Curbside Bus Stop only (no shelter),BUS,13820,NY,Oneonta, ,47 Market Street, ,ONO,"Oneonta, NY"
-13018963.4185,5469168.8984,675,682,Station Building (with waiting room),BUS,97914,OR,Ontario, ,842 Southeast 1st Avenue, ,ONT,"Ontario, OR"
-7834245.5792,5390589.4395,676,683,Platform only (no shelter),TRAIN,04064,ME,Old Orchard Beach, ,11 First Street, ,ORB,"Old Orchard Beach, ME"
-13647317.5516,5679349.9098,677,684,Platform with Shelter,TRAIN,97045,OR,Oregon City, ,1757 Washington Street, ,ORC,"Oregon City, OR"
-9059349.2672,3315444.9783,678,685,Station Building (with waiting room),TRAIN,32806,FL,Orlando, ,1400 Sligh Boulevard, ,ORL,"Orlando, FL"
-7644311.096,5606309.6517,679,686,Curbside Bus Stop only (no shelter),BUS,04469,ME,Orono, ,8 Gym Drive,University of Maine,ORO,"Orono, ME"
-13533345.9702,4796442.171,680,687,Curbside Bus Stop only (no shelter),BUS,95965,CA,Oroville, ,Hwy 70 and Grand Avenue, ,ORV,"Oroville, CA"
-8056950.6318,5056751.8463,681,688,Station Building (with waiting room),TRAIN,06475,CT,Old Saybrook, ,455 Boston Post Road, ,OSB,"Old Saybrook, CT"
-10437861.0792,5017818.893,682,689,Station Building (with waiting room),TRAIN,50213,IA,Osceola, ,Main & East Clay Streets, ,OSC,"Osceola, IA"
-13066619.7101,3920885.7166,683,690,Station Building (with waiting room),TRAIN,92054,CA,Oceanside, ,235 South Tremont Street, ,OSD,"Oceanside, CA"
-9857219.0431,5468964.2715,684,691,Curbside Bus Stop only (no shelter),BUS,54901,WI,Oshkosh, ,208 Osceola Street,University of Wisconsin,OSU,"Oshkosh, WI"
-13790354.7619,5623130.4514,685,692,Curbside Bus Stop only (no shelter),BUS,97368,OR,Otis, ,5280 Salmon River Hwy, ,OTE,"Otis, OR - Eastbound"
-10287583.621,5015118.3648,686,693,Station Building (with waiting room),TRAIN,52501,IA,Ottumwa, ,210 West Main Street, ,OTM,"Ottumwa, IA"
-13790403.6312,5623122.1062,687,694,Curbside Bus Stop only (no shelter),BUS,97368,OR,Otis, ,5283 Salmon River Hwy, ,OTW,"Otis, OR - Westbound"
-9369771.5388,5311461.079,688,695,Station Building (with waiting room),BUS,48867,MI,Owosso, ,109 Comstock Street, ,OWO,"Owosso, MI"
-13266610.561,4055587.3518,689,696,Station Building (with waiting room),TRAIN,93030,CA,Oxnard, ,201 East Fourth Street, ,OXN,"Oxnard, CA"
-9860215.4693,4447044.0824,690,697,Station Building (with waiting room),BUS,42001,KY,Paducah, ,2719 Irvin Cobb Avenue, ,PAD,"Paducah, KY"
-9088176.0187,3458606.1221,691,698,Platform with Shelter,TRAIN,32177,FL,Palatka, ,220 North 11th Street, ,PAK,"Palatka, FL"
-8402813.9354,4872158.2943,692,699,Station Building (with waiting room),TRAIN,19301,PA,Paoli, ,13 Lancaster Avenue, ,PAO,"Paoli, PA"
-8451612.2961,4860013.3677,693,700,Platform with Shelter,TRAIN,19365,PA,Parkesburg, ,501 Maple Street, ,PAR,"Parkesburg, PA"
-13151430.1566,4048030.9138,694,701,Curbside Bus Stop only (no shelter),BUS,91101,CA,Pasadena, ,168 South Los Robles Avenue, ,PAS,"Pasadena, CA"
-10062541.3696,4404873.0531,695,702,Station Building (with waiting room),TRAIN,63901,MO,Poplar Bluff, ,400 South Main Street, ,PBF,"Poplar Bluff, MO"
-9133832.3755,3125576.7112,696,703,Curbside Bus Stop only (no shelter),BUS,33980,FL,Port Charlotte, ,900 Kings Highway, ,PCH,"Port Charlotte, FL"
-9959400.9829,5069325.4841,697,704,Station Building (with waiting room),TRAIN,61356,IL,Princeton, ,107 Bicentennial Drive, ,PCT,"Princeton, IL"
-13446218.0723,4683501.5451,698,705,Curbside Bus Stop only (no shelter),BUS,95667,CA,Placerville, ,2894 Mosquito Road, ,PCV,"Placerville, CA"
-13646939.5156,5714607.7427,699,706,Curbside Bus Stop only (no shelter),BUS,97218,OR,Portland, ,7000 Northwest Airport Way,Portland International Airport,PDA,"Portland, OR"
-12957425.1826,3992032.1044,700,707,Curbside Bus Stop only (no shelter),BUS,92260,CA,Palm Desert, ,44449 Towne Center Way, ,PDC,"Palm Desert, CA"
-13656477.147,5705430.083,701,708,Curbside Bus Stop only (no shelter),BUS,87209,OR,Portland, ,7411 NW Station Way,Greyhound bus stop,PDG,"Portland, OR"
-13544396.0649,4409808.7664,702,709,Curbside Bus Stop only (no shelter),BUS,93907,CA,Prunedale, ,Highway 156 and Hwy 101, ,PDL,"Prunedale, CA"
-13656321.1884,5705146.7551,703,710,Station Building (with waiting room),TRAIN,97209,OR,Portland, ,800 NW Sixth Avenue,Union Station,PDX,"Portland, OR"
-13220658.2659,5728148.8132,704,711,Station Building (with waiting room),BUS,97801,OR,Pendleton, ,2101 SE Court Avenue, ,PEN,"Pendleton, OR"
-8904826.4825,4930730.9418,705,712,Station Building (with waiting room),BUS,15222,PA,Pittsburgh, ,55 11th Street,Grant Street Transportation Ctr,PGB,"Pittsburgh, PA"
-8904703.2517,4930783.6005,706,713,Station Building (with waiting room),TRAIN,15222,PA,Pittsburgh, ,1100 Liberty Avenue,Union Station,PGH,"Pittsburgh, PA"
-12469236.5794,3953372.4074,707,714,Station Building (with waiting room),BUS,85034,AZ,Phoenix, ,3400 East Sky Harbor Boulevard,Sky Harbor Airport,PHA,"Phoenix, AZ"
-12471749.7287,3953373.0742,708,715,Station Building (with waiting room),BUS,85034,AZ,Phoenix, ,2115 East Buckeye Road,Greyhound Station,PHG,"Phoenix, AZ"
-8369115.3992,4859495.6383,709,716,Station Building (with waiting room),TRAIN,19104,PA,Philadelphia, ,2955 Market Street,William H Gray III 30th St. Sta.,PHL,"Philadelphia, PA"
-8366229.2181,4865475.5422,710,717,Station Building (with waiting room),TRAIN,19132,PA,Philadelphia, ,2900 North Broad Street, ,PHN,"North Philadelphia, PA"
-9973519.4077,4966631.441,711,718,Station Building (with waiting room),BUS,61602,IL,Peoria, ,407 Southwest Adams Street,City Link Transit Center,PIA,"Peoria, IL"
-9983161.4931,3571163.5852,712,719,Station Building (with waiting room),TRAIN,39466,MS,Picayune,at Tate Street,200 Highway 11 South, ,PIC,"Picayune, MS"
-8154575.861,5228863.7897,713,720,Station Building (with waiting room),TRAIN,01201,MA,Pittsfield, ,1 Columbus Avenue, ,PIT,"Pittsfield, MA"
-9975876.8213,4968101.2668,714,721,Curbside Bus Stop only (no shelter),BUS,61625,IL,Peoria, ,1501 West Bradley Avenue,Bradley University,PIU,"Peoria, IL"
-8307103.1898,4911948.6488,715,722,Station Building (with waiting room),TRAIN,08550,NJ,Princeton Junction, ,2 Wallace Circle, ,PJC,"Princeton Junction, NJ"
-11732684.1738,4788856.343,716,723,Curbside Bus Stop only (no shelter),BUS,80470,CO,Pine, ,76 Mount Evans Boulevard, ,PJT,"Pine Junction, CO"
-8176003.1062,5573904.6201,717,724,Station Building (with waiting room),TRAIN,12901,NY,Plattsburgh, ,Bridge and Dock Streets, ,PLB,"Plattsburgh, NY"
-8472833.9447,5396679.4267,718,725,Curbside Bus Stop only (no shelter),BUS,13142,NY,Pulaski, ,3739 State Route 13, ,PLK,"Pulaski, NY"
-9856036.022,5110540.76,719,726,Station Building (with waiting room),TRAIN,60545,IL,Plano, ,101 West Main Street, ,PLO,"Plano, IL"
-8707748.5134,4997751.3325,720,727,Curbside Bus Stop only (no shelter),BUS,16866,PA,Philipsburg, ,4th & Alder Streets, ,PLP,"Philipsburg, PA"
-13567914.7706,4531246.7759,721,728,Platform with Shelter,TRAIN,94566,CA,Pleasanton, ,4950 Pleasanton Avenue, ,PLS,"Pleasanton, CA"
-13149141.6543,4108470.5044,722,729,Curbside Bus Stop only (no shelter),BUS,93550,CA,Palmdale, ,39000 Clock Tower Plaza Drive, ,PMD,"Palmdale, CA"
-7980237.3567,5428046.1302,723,730,Curbside Bus Stop only (no shelter),BUS,03264,NH,Plymouth, ,83 Main Street, ,PMO,"Plymouth, NH"
-9272059.7088,5256243.0893,724,732,Station Building (with waiting room),TRAIN,48342,MI,Pontiac, ,51000 Woodward Avenue, ,PNT,"Pontiac, MI"
-9959491.4003,5395618.2971,725,733,Platform with Shelter,TRAIN,53901,WI,Portage, ,400 West Oneida Street, ,POG,"Portage, WI"
-8177391.144,5471991.4549,726,734,Station Building (with waiting room),TRAIN,12974,NY,Port Henry, ,20 Park Place, ,POH,"Port Henry, NY"
-9867048.4087,4994465.5803,727,735,Station Building (with waiting room),TRAIN,61764,IL,Pontiac, ,711 West Water Street, ,PON,"Pontiac, IL"
-7824787.0938,5412069.3842,728,736,Station Building (with waiting room),TRAIN,04102,ME,Portland, ,100 Thompson's Point Road, ,POR,"Portland, ME"
-13107940.5178,4036757.7937,729,737,Platform only (no shelter),TRAIN,91768,CA,Pomona, ,100 West Commercial Street, ,POS,"Pomona, CA"
-8230683.903,5117199.6218,730,738,Station Building (with waiting room),TRAIN,12601,NY,Poughkeepsie, ,41 Main Street, ,POU,"Poughkeepsie, NY"
-13434912.5365,4248827.2379,731,739,Platform only (no shelter),TRAIN,93446,CA,Paso Robles, ,800 Pine Street, ,PRB,"Paso Robles, CA"
-9023635.565,4559188.1613,732,740,Station Building (with waiting room),TRAIN,25907,WV,Prince, ,5034 Stanaford Road, ,PRC,"Prince, WV"
-8557999.2593,4967246.3898,733,741,Curbside Bus Stop only (no shelter),BUS,17864,PA,Port Trevorton, ,5254 South Susquehanna Trail, ,PRE,"Port Trevorton, PA"
-13049922.7905,3999926.8451,734,742,Curbside Bus Stop only (no shelter),BUS,92570,CA,Perris, ,121 South C Street, ,PRI,"Perris, CA"
-8171244.4176,5546907.4777,735,743,Platform only (no shelter),TRAIN,12975,NY,Port Kent,near Burlington-Port Kent ferry dock,NY 373 and Lake Street, ,PRK,"Port Kent, NY"
-12430381.0246,4898833.1434,736,744,Platform with Shelter,TRAIN,84601,UT,Provo, ,300 West 600 South, ,PRO,"Provo, UT"
-13256786.9148,5818413.1961,737,745,Station Building (with waiting room),TRAIN,99301,WA,Pasco, ,535 North 1st Avenue, ,PSC,"Pasco, WA"
-8265866.9059,5533349.8049,738,746,Curbside Bus Stop only (no shelter),BUS,12970,NY,Paul Smiths, ,7833 Route 30,Paul Smith's College,PSI,"Paul Smiths, NY"
-9453007.6253,5683003.1554,739,747,Curbside Bus Stop only (no shelter),BUS,49770,MI,Bay View, ,1178 US Highway 31 North, ,PSK,"Petoskey, MI"
-12974055.651,4015046.5249,740,748,Platform with Shelter,TRAIN,92262,CA,Palm Springs, ,North Indian Canyon Drive and Palm Springs Station Road,Amtrak Station,PSN,"Palm Springs, CA"
-12969717.0838,4005195.8041,741,749,Curbside Bus Stop only (no shelter),BUS,92262,CA,Palm Springs, ,3400 East Tahquitz Canyon Way,Palm Springs Airport,PSP,"Palm Springs, CA"
-12973780.3573,4005280.7592,742,750,Curbside Bus Stop only (no shelter),BUS,92262,CA,Palm Springs, ,190 North Indian Canyon Drive,Spa Resort Casino,PSS,"Palm Springs, CA"
-9438085.8015,5708629.81,743,751,Curbside Bus Stop only (no shelter),BUS,49769,MI,Pellston, ,45 South US Hwy 31, ,PST,"Pellston, MI"
-13740335.9795,6126806.0633,744,752,Curbside Bus Stop only (no shelter),BUS,98363,WA,Port Angeles, ,123 East Front Street, ,PTA,"Port Angeles, WA"
-8619334.179,4472841.243,745,753,Station Building (with waiting room),TRAIN,23803,VA,Petersburg, ,3516 South Street, ,PTB,"Petersburg, VA"
-13651755.5105,4612890.1176,746,754,Curbside Bus Stop only (no shelter),BUS,94952,CA,Petaluma, ,19 Copeland Street, ,PTC,"Petaluma, CA"
-8347772.8108,5569814.1268,747,755,Curbside Bus Stop only (no shelter),BUS,13676,NY,Potsdam, ,Constitution & Depot Streets,Downtown,PTD,"Potsdam, NY"
-13347466.0527,6115447.6814,748,756,Curbside Bus Stop only (no shelter),BUS,98846,WA,Pateros, ,245 Lakeshore Drive, ,PTE,"Pateros, WA"
-9177602.8686,5305950.4193,749,757,Station Building (with waiting room),TRAIN,48060,MI,Port Huron, ,2223 16th Street, ,PTH,"Port Huron, MI"
-13672087.5455,6115093.5898,750,758,Curbside Bus Stop only (no shelter),BUS,98368,WA,Port Townsend, ,63 4 Corners Road, ,PTO,"Port Townsend, WA"
-7881875.0832,5321061.2057,751,759,Station Building (with waiting room),BUS,03801,NH,Portsmouth, ,185 Grafton Drive, ,PTS,"Portsmouth, NH"
-8218158.8016,5423337.2698,752,760,Curbside Bus Stop only (no shelter),BUS,12860,NY,Pottersville, ,6 Olmstedville Road, ,PTV,"Pottersville, NY"
-11645163.0857,4617460.8001,753,761,Station Building (with waiting room),BUS,81003,CO,Pueblo, ,123 Court Street, ,PUB,"Pueblo, CO"
-13043729.3979,5899638.1922,754,762,Station Building (with waiting room),BUS,99163,WA,Pullman, ,1205 North Grand Avenue, ,PUL,"Pullman, WA"
-8791076.522,5004182.7607,755,763,Station Building (with waiting room),BUS,15767,PA,Punxsutawney, ,222 North Findley Street, ,PUN,"Punxsutawney, PA"
-10837778.844,4165517.3332,756,764,Station Building (with waiting room),TRAIN,73080,OK,Purcell, ,East Main Street and North Santa Fe Avenue, ,PUR,"Purcell, OK"
-7949712.082,5135473.2736,757,765,Station Building (with waiting room),TRAIN,02903,RI,Providence, ,100 Gaspee Street,Amtrak/MBTA Station,PVD,"Providence, RI"
-7947986.0727,5133499.5139,758,766,Station Building (with waiting room),BUS,02903,RI,Providence, ,25 India Street,Seastreak Ferry Terminal,PVF,"Providence, RI"
-10822310.3268,4128839.9388,759,767,Station Building (with waiting room),TRAIN,73075,OK,Pauls Valley, ,South Santa Fe Street and East Paul Avenue, ,PVL,"Pauls Valley, OK"
-10685813.9757,3512933.1973,760,768,Curbside Bus Stop only (no shelter),BUS,77446,TX,Prairie View, ,44814 US Highway 290 Business, ,PVW,"Prairie View, TX"
-12481052.1455,3980498.2134,761,769,Curbside Bus Stop only (no shelter),BUS,85053,AZ,Phoenix, ,2717 W. Bell Road,Denny's Restaurant,PXN,"Phoenix - North, AZ"
-8604220.6693,4653415.9374,762,770,Platform with Shelter,TRAIN,22134,VA,Quantico, ,550 Railroad Avenue, ,QAN,"Quantico, VA"
-10171098.4163,4859705.814,763,771,Station Building (with waiting room),TRAIN,62301,IL,Quincy, ,North 30th Street and Wisman Lane, ,QCY,"Quincy, IL"
-8395650.0814,4929247.8655,764,772,Curbside Bus Stop only (no shelter),BUS,18951,PA,Quakertown, ,1903 John Fries Highway, ,QKR,"Quakertown, PA"
-13342277.6515,5980273.7759,765,773,Curbside Bus Stop only (no shelter),BUS,98848,WA,Quincy, ,115 F Street Southwest, ,QUC,"Quincy, WA"
-11625973.3671,4425327.2975,766,774,Station Building (with waiting room),TRAIN,87740,NM,Raton, ,201 South First Street, ,RAT,"Raton, NM"
-13704531.4263,6306691.2815,767,775,Curbside Bus Stop only (no shelter),BUS,V6X 2M9,BC,Richmond, ,10251 St. Edwards Drive, ,RBC,"Richmond, BC"
-13607093.373,4891913.5462,768,776,Curbside Bus Stop only (no shelter),BUS,96080,CA,Red Bluff, ,735 Rio Street, ,RBF,"Red Bluff, CA"
-9903680.6736,5201338.2134,769,777,Station Building (with waiting room),BUS,61108,IL,Rockford, ,7559 Walton St, ,RCK,"Rockford, IL"
-13624769.1362,4951115.4431,770,778,Platform with Shelter,TRAIN,96001,CA,Redding, ,1620 Yuba Street,Amtrak Station,RDD,"Redding, CA"
-13480126.978,5488887.4631,771,779,Curbside Bus Stop only (no shelter),BUS,97756,OR,Redmond, ,2522 S.E. Jesse Butler Circle, ,RDM,"Redmond, OR"
-13624702.1218,4951104.5963,772,780,Curbside Bus Stop only (no shelter),BUS,96001,CA,Redding, ,1530 Yuba Street,RABA Passenger Terminal,RDR,"Redding, CA"
-13489333.9942,5506777.8939,773,781,Curbside Bus Stop only (no shelter),BUS,97756,OR,Redmond, ,777 Southwest Kalama Avenue,Transit Hub,RDT,"Redmond, OR"
-10301179.9001,5553488.5765,774,782,Station Building (with waiting room),TRAIN,55066,MN,Red Wing, ,420 Levee Street, ,RDW,"Red Wing, MN"
-9520244.2658,5447948.3633,775,783,Curbside Bus Stop only (no shelter),BUS,49677,MI,Reed City, ,US 10 & 220th Ave., ,REE,"Reed City, MI"
-9702064.3043,5003980.3577,776,784,Platform with Shelter,TRAIN,47978,IN,Rensselaer, ,776 North Cullen Street, ,REN,"Rensselaer, IN"
-8347499.7287,5289717.7361,777,785,Curbside Bus Stop only (no shelter),BUS,13439,NY,Richfield Springs, ,126 West Main Street, ,RFS,"Richfield Springs, NY"
-8755031.5577,4270009.7897,778,786,Station Building (with waiting room),TRAIN,27603,NC,Raleigh, ,510 West Martin Street,Union Station,RGH,"Raleigh, NC"
-8232218.7782,5149205.9985,779,787,Station Building (with waiting room),TRAIN,12574,NY,Rhinecliff, ,455 Rhinecliff Road, ,RHI,"Rhinecliff, NY"
-13620400.9202,4570495.5411,780,788,Platform with Shelter,TRAIN,94801,CA,Richmond, ,1700 Nevin Avenue, ,RIC,"Richmond, CA"
-13303105.7914,5394817.6366,781,789,Curbside Bus Stop only (no shelter),BUS,97758,OR,Riley, ,105 U.S. Highway 20, ,RIL,"Riley, OR"
-13065568.638,4025536.2265,782,790,Platform with Shelter,TRAIN,92507,CA,Riverside, ,4066 Vine Street, ,RIV,"Riverside, CA"
-9529158.1678,5329729.899,783,791,Curbside Bus Stop only (no shelter),BUS,49341,MI,Rockford, ,"2770 Ten Mile Road, Northeast", ,RKF,"Rockford, MI"
-10080023.9247,5087299.7697,784,792,Curbside Bus Stop only (no shelter),BUS,61201,IL,Rock Island, ,3500 5th Avenue,Augustana College,RKI,"Rock Island, IL"
-8587853.1407,4733790.5721,785,793,Platform with Shelter,TRAIN,20850,MD,Rockville, ,307 South Stonestreet Avenue, ,RKV,"Rockville, MD"
-13496075.8545,4691779.7664,786,794,Station Building (with waiting room),TRAIN,95677,CA,Rocklin, ,Rocklin Rd. and Railroad Ave., ,RLN,"Rocklin, CA"
-10294243.6842,5469864.5071,787,795,Station Building (with waiting room),BUS,55902,MN,Rochester, ,821 Civic Center Drive NW, ,RMN,"Rochester, MN"
-8660417.8663,4292094.7372,788,796,Station Building (with waiting room),TRAIN,27804,NC,Rocky Mount, ,101 Coastline Street, ,RMT,"Rocky Mount, NC"
-8899080.2563,4477254.9966,789,797,Platform with Shelter,TRAIN,24011,VA,Roanoke, ,55 Norfolk Avenue SW, ,RNK,"Roanoke, VA"
-13337425.9731,4797663.6889,790,798,Station Building (with waiting room),TRAIN,89501,NV,Reno, ,280 North Center Street, ,RNO,"Reno, NV"
-13685336.9653,5794740.7509,791,799,Curbside Bus Stop only (no shelter),BUS,97048,OR,Rainier, ,207 West B Street, ,RNR,"Rainier, OR"
-13568196.3687,5202548.7433,792,800,Curbside Bus Stop only (no shelter),BUS,97601,OR,Klamath Falls, ,5500 Running Y Road, ,RNY,"Running Y Ranch, OR"
-8639270.4373,5336769.1087,793,801,Station Building (with waiting room),BUS,14604,NY,Rochester, ,186 Cumberland Street,Bus Terminal,ROB,"Rochester, NY"
-8639289.6955,5336879.1447,794,802,Station Building (with waiting room),TRAIN,14605,NY,Rochester, ,320 Central Avenue,Louise M. Slaughter Station,ROC,"Rochester, NY"
-7693091.8649,5482058.4365,795,803,Station Building (with waiting room),BUS,04841,ME,Rockland, ,517A Main Street, ,ROD,"Rockland, ME"
-8399051.3592,5342377.1195,796,804,Station Building (with waiting room),TRAIN,13440,NY,Rome, ,6599 Martin Street, ,ROM,"Rome, NY"
-9255883.3104,5234429.619,797,805,Platform with Shelter,TRAIN,48069,MI,Royal Oak, ,202 South Sherman Drive, ,ROY,"Royal Oak, MI"
-13659988.2576,4628609.1781,798,806,Curbside Bus Stop only (no shelter),BUS,94928,CA,Rohnert Park, ,6335 Commerce Blvd, ,RPC,"Rohnert Park, CA"
-8089082.0298,5453442.3152,799,807,Platform only (no shelter),TRAIN,05060,VT,Randolph, ,South Main and Salisbury Streets, ,RPH,"Randolph, VT"
-13817000.6162,5418468.1408,800,808,Curbside Bus Stop only (no shelter),BUS,97467,OR,Reedsport, ,2012 Winchester Avenue, ,RPT,"Reedsport, OR"
-13717688.3911,5609689.5025,801,809,Curbside Bus Stop only (no shelter),BUS,97371,OR,Rickreall, ,520 South Pacific Hwy, ,RRL,"Rickreall, OR"
-8167632.8821,5620715.3373,802,810,Platform only (no shelter),TRAIN,12979,NY,Rouses Point, ,68 Pratt Street, ,RSP,"Rouses Point, NY"
-13501529.0627,4685927.2343,803,811,Platform with Shelter,TRAIN,95678,CA,Roseville, ,201 Pacific Street, ,RSV,"Roseville, CA"
-12162347.7,5097856.7963,804,812,Station Building (with waiting room),BUS,82901,WY,Rock Springs, ,1695 Sunset Drive, ,RSY,"Rock Springs, WY"
-7920147.3991,5192526.1868,805,813,Station Building (with waiting room),TRAIN,02090,MA,Westwood, ,50 University Avenue, ,RTE,"Route 128, MA"
-9813829.6558,4911226.6423,806,814,Platform with Shelter,TRAIN,61866,IL,Rantoul, ,East Grove Ave and North Kentucky Ave., ,RTL,"Rantoul, IL"
-13176370.9464,5961586.8163,807,815,Curbside Bus Stop only (no shelter),BUS,99169,WA,Ritzville, ,1503 South Smittys Blvd., ,RTZ,"Ritzville, WA"
-8124267.7924,5404634.7036,808,816,Station Building (with waiting room),TRAIN,05701,VT,Rutland, ,25 Evelyn Street, ,RUD,"Rutland, VT"
-11131678.1487,6168607.4001,809,817,Station Building (with waiting room),TRAIN,58368,ND,Rugby, ,201 West Dewey Street, ,RUG,"Rugby, ND"
-8619414.1083,4513833.5857,810,818,Station Building (with waiting room),TRAIN,23219,VA,Richmond, ,1500 East Main Street,Main Street Station,RVM,"Richmond, VA"
-8626920.4957,4525559.5987,811,819,Station Building (with waiting room),TRAIN,23228,VA,Richmond, ,7519 Staples Mill Road,Staples Mill Road Station,RVR,"Richmond, VA"
-11936173.6099,5127541.4136,812,820,Curbside Bus Stop only (no shelter),BUS,82301,WY,Rawlins, ,1400 South Higley Boulevard, ,RWY,"Rawlins, WY"
-8135917.7244,5592031.042,813,821,Station Building (with waiting room),TRAIN,05478,VT,St Albans, ,40 Federal Street, ,SAB,"St. Albans, VT"
-13525397.9666,4662258.4065,814,822,Station Building (with waiting room),TRAIN,95814,CA,Sacramento, ,401 I Street,Sacramento Valley Station,SAC,"Sacramento, CA"
-11791179.6441,4273101.2977,815,823,Curbside Bus Stop only (no shelter),BUS,87506,NM,Santa Fe, ,198 State Road 592,Four Seasons Area,SAE,"Santa Fe, NM"
-11793922.5559,4257264.0337,816,824,Station Building (with waiting room),BUS,87501,NM,Santa Fe,Santa Fe Station,410 South Guadalupe Street,Central Area,SAF,"Santa Fe, NM"
-8251719.3062,5515765.6493,817,825,Curbside Bus Stop only (no shelter),BUS,12983,NY,Saranac Lake, ,111 River Street, ,SAK,"Saranac Lake, NY"
-8957470.4534,4254966.2193,818,826,Station Building (with waiting room),TRAIN,28144,NC,Salisbury, ,215 Depot Street, ,SAL,"Salisbury, NC"
-13696260.3882,5612254.9681,819,827,Curbside Bus Stop only (no shelter),BUS,97301,OR,Salem, ,555 Court St NE,Transit Mall,SAM,"Salem, OR"
-13043258.8618,3857691.0908,820,828,Station Building (with waiting room),TRAIN,92101,CA,San Diego, ,1050 Kettner Boulevard,Santa Fe Depot,SAN,"San Diego, CA"
-7842362.3311,5387806.1102,821,829,Station Building (with waiting room),TRAIN,04072,ME,Saco, ,138 Main Street, ,SAO,"Saco, ME"
-13254708.503,4075383.7481,822,830,Curbside Bus Stop only (no shelter),BUS,93060,CA,Santa Paula, ,327 South Palm Avenue, ,SAP,"Santa Paula, CA"
-8216494.7923,5324586.2074,823,831,Station Building (with waiting room),TRAIN,12866,NY,Saratoga Springs, ,26 Station Lane, ,SAR,"Saratoga Springs, NY"
-10962537.5979,3429129.5771,824,832,Station Building (with waiting room),TRAIN,78205,TX,San Antonio, ,350 Hoefgen Street, ,SAS,"San Antonio, TX"
-13404699.8584,4157307.4626,825,833,Curbside Bus Stop only (no shelter),BUS,93455,CA,Santa Maria, ,205 South Nicholson Avenue, ,SAT,"Santa Maria, CA"
-9033383.781,3774265.5471,826,834,Station Building (with waiting room),TRAIN,31401,GA,Savannah, ,2611 Seaboard Coastline Drive, ,SAV,"Savannah, GA"
-13611731.4885,5684821.4347,827,835,Curbside Bus Stop only (no shelter),TRAIN,97055,OR,Sandy, ,37601 Highway 26, ,SAY,"Sandy, OR"
-13324141.2644,4084491.1035,828,836,Station Building (with waiting room),TRAIN,93101,CA,Santa Barbara, ,209 State Street,Amtrak Station,SBA,"Santa Barbara, CA"
-9065214.2439,3185658.1958,829,837,Station Building (with waiting room),TRAIN,33870,FL,Sebring, ,601 East Center Avenue, ,SBG,"Sebring, FL"
-7890760.7182,5295476.5758,830,838,Station Building (with waiting room),BUS,03874,NH,Seabrook, ,13 Batchelder Road, ,SBK,"Seabrook, NH"
-13341452.6725,4084656.6703,831,839,Curbside Bus Stop only (no shelter),BUS,93106,CA,Santa Barbara, ,552 University Road,"Univ of California, Snta Barbara",SBU,"Santa Barbara, CA"
-12451826.6695,6191578.6834,832,840,Station Building (with waiting room),TRAIN,59474,MT,Shelby, ,230 West Central Avenue, ,SBY,"Shelby, MT"
-8822739.8221,5334501.3624,833,841,Station Building (with waiting room),TRAIN,L2S 2K3,ON,St. Catharines, ,5 Great Western St., ,SCA,"St. Catharines, ON"
-13573919.007,4488456.6817,834,842,Platform with Shelter,TRAIN,95050,CA,Santa Clara, ,1001 Railroad Avenue,Transit Center,SCC,"Santa Clara, CA"
-10480629.9916,5711350.33,835,843,Station Building (with waiting room),TRAIN,56304,MN,St. Cloud, ,555 East Saint Germain Street, ,SCD,"St. Cloud, MN"
-10109507.5872,3471029.731,836,844,Platform only (no shelter),TRAIN,70395,LA,Schriever, ,145 Burlington Court, ,SCH,"Schriever, LA"
-13524782.481,4661138.1448,837,845,Curbside Bus Stop only (no shelter),BUS,95814,CA,Sacramento, ,1389 10th Street,State Capitol (discharge-only),SCS,"Sacramento, CA"
-13583772.7825,4435068.3837,838,846,Curbside Bus Stop only (no shelter),BUS,95060,CA,Santa Cruz, ,920 Pacific Avenue, ,SCZ,"Santa Cruz, CA"
-12441101.2531,4146298.7227,839,847,Curbside Bus Stop only (no shelter),BUS,86336,AZ,Sedona, ,300 North Highway 89A, ,SDC,"Sedona, AZ"
-9994550.0355,3539383.0975,840,848,Station Building (with waiting room),TRAIN,70458,LA,Slidell, ,1827 Front Street, ,SDL,"Slidell, LA"
-8231222.3637,5283945.1585,841,849,Station Building (with waiting room),TRAIN,12305,NY,Schenectady, ,332 Erie Boulevard, ,SDY,"Schenectady, NY"
-13617732.8889,6040309.4273,842,850,Station Building (with waiting room),TRAIN,98104,WA,Seattle, ,303 South Jackson Street,King Street Station,SEA,"Seattle, WA"
-10378172.8622,4680446.1068,843,851,Station Building (with waiting room),TRAIN,65301,MO,Sedalia, ,Pacific Street and North Osage Avenue, ,SED,"Sedalia, MO"
-13563595.895,4386183.4103,844,852,Curbside Bus Stop only (no shelter),BUS,93955,CA,Sand City, ,949 Playa Avenue, ,SES,"Seaside-Sand City, CA"
-9049303.5718,3351301.1582,845,853,Station Building (with waiting room),TRAIN,32771,FL,Sanford, ,600 South Persimmon Avenue,Auto Train Station,SFA,"Sanford, FL"
-13625381.019,4549612.716,846,854,Curbside Bus Stop only (no shelter),BUS,94105,CA,San Francisco, ,555 Mission Street, ,SFC,"San Francisco, CA"
-9343427.1101,5378409.6572,847,855,Station Building (with waiting room),BUS,48607,MI,Saginaw, ,511 Johnson Street, ,SGW,"Saginaw, MI"
-9764281.5973,5426824.1948,848,856,Curbside Bus Stop only (no shelter),BUS,53081,WI,Sheboygan, ,830 Pennsylvania Avenue, ,SHB,"Sheboygan, WI"
-13671542.358,5759553.1125,849,857,Curbside Bus Stop only (no shelter),BUS,97051,OR,St. Helens, ,1155 Deer Island Road, ,SHE,"St. Helens, OR"
-10436945.8452,3829087.2507,850,858,Station Building (with waiting room),BUS,71101,LA,Shreveport, ,1237 Murphy Street,SporTran Intermodal Terminal,SHR,"Shreveport, LA"
-9864615.122,5582744.1865,851,859,Curbside Bus Stop only (no shelter),BUS,54166,WI,Shawano, ,N4543 State Highway 22, ,SHW,"Shawano, WI"
-13213086.4719,4065142.4385,852,860,Platform only (no shelter),TRAIN,93063,CA,Simi Valley, ,5050 Los Angeles Avenue, ,SIM,"Simi Valley, CA"
-13570113.2155,4485196.2081,853,861,Station Building (with waiting room),TRAIN,95110,CA,San Jose, ,65 Cahill Street,Diridon Station,SJC,"San Jose, CA"
-9627409.3252,5177334.3235,854,862,Station Building (with waiting room),TRAIN,49085,MI,St. Joseph, ,410 1/2 Vine Street, ,SJM,"St. Joseph-Benton Harbor, MI"
-8551617.9799,4989986.9498,855,863,Curbside Bus Stop only (no shelter),BUS,17876,PA,Shamokin Dam, ,3155 North Susquehanna Trail, ,SKD,"Shamokin Dam, PA"
-13509928.5191,6058948.3311,856,864,Curbside Bus Stop only (no shelter),BUS,98288,WA,Skykomish, ,147 5th Street North,Sky gas station,SKE,"Skykomish - Eastbound, WA"
-13501456.2488,4571725.8435,857,865,Station Building (with waiting room),TRAIN,95203,CA,Stockton, ,735 South San Joaquin Street,San Joaquin Street Station,SKN,"Stockton, CA"
-13500717.978,4573359.2116,858,866,Platform with Shelter,TRAIN,95202,CA,Stockton, ,949 East Channel St.,Robert J. Cabral Station,SKT,"Stockton, CA"
-13509745.1758,6059059.8387,859,867,Curbside Bus Stop only (no shelter),BUS,98288,WA,Skykomish, ,90000 NE Stevens Pass Highway,Big Bear Rest Stop restaurant,SKW,"Skykomish - Westbound, WA"
-9208111.194,5077560.6334,860,868,Station Building (with waiting room),TRAIN,44870,OH,Sandusky, ,1200 North Depot Street, ,SKY,"Sandusky, OH"
-12457599.6554,4977453.5836,861,869,Station Building (with waiting room),BUS,84101,UT,Salt Lake City, ,300 South 600 West,Intermodal Transportation Hub,SLB,"Salt Lake City, UT"
-12457581.733,4977250.9101,862,870,Station Building (with waiting room),TRAIN,84101,UT,Salt Lake City, ,340 South 600 West,Amtrak Station,SLC,"Salt Lake City, UT"
-11799254.9026,4653866.0631,863,871,Curbside Bus Stop only (no shelter),BUS,81201,CO,Salida, ,54 Jones Avenue, ,SLD,"Salida, CO"
-13696124.4669,5611796.5434,864,872,Curbside Bus Stop only (no shelter),BUS,97304,OR,Salem, ,1455 Edgewater St,Bus Stop,SLE,"Salem, OR"
-13351915.8687,4715627.9033,865,873,Curbside Bus Stop only (no shelter),BUS,96150,CA,Stateline, ,4114 Lake Tahoe Blvd, ,SLH,"Stateline, CA"
-13695452.7649,5610875.5189,866,874,Station Building (with waiting room),TRAIN,97301,OR,Salem, ,500 13th Street SE, ,SLM,"Salem, OR"
-13351084.0895,4717362.674,867,875,Curbside Bus Stop only (no shelter),BUS,89449,NV,Stateline, ,169 Highway 50, ,SLN,"Stateline, NV"
-13431221.2892,4201511.8248,868,876,Station Building (with waiting room),TRAIN,93401,CA,San Luis Obispo, ,1011 Railroad Avenue,Amtrak Station,SLO,"San Luis Obispo, CA"
-13431329.2694,4204569.8096,869,877,Curbside Bus Stop only (no shelter),BUS,93405,CA,San Luis Obispo, ,1 Grand Avenue,Cal Poly,SLP,"San Luis Obispo, CA"
-8182793.9381,5700408.8493,870,878,Station Building (with waiting room),TRAIN,J4P 2G5,QC,St-Lambert, ,329 avenue St-Denis, ,SLQ,"St-Lambert, QC"
-8416410.2686,4630689.9306,871,879,Curbside Bus Stop only (no shelter),BUS,21801,MD,Salisbury, ,547E Riverside Drive,BayRunner Shuttle Office,SLS,"Salisbury, MD"
-13358870.777,4709227.2661,872,880,Curbside Bus Stop only (no shelter),BUS,96151,CA,South Lake Tahoe, ,1000 Emerald Bay Road, ,SLT,"South Lake Tahoe, CA"
-13373989.5855,4109102.6781,873,881,Curbside Bus Stop only (no shelter),BUS,93463,CA,Solvang, ,1630 Mission Drive, ,SLV,"Solvang, CA"
-8405333.5306,4632716.1861,874,882,Station Building (with waiting room),BUS,21804,MD,Salisbury, ,31901 Tri County Way,Tri-County Multi-Purpose Center,SLY,"Salisbury, MD"
-10902748.5548,3487694.7013,875,883,Platform with Shelter,TRAIN,78666,TX,San Marcos, ,338 South Guadalupe Street, ,SMC,"San Marcos, TX"
-9941518.7456,5319245.5972,876,884,Curbside Bus Stop only (no shelter),BUS,53716,WI,Madison, ,4547 East Broadway Avenue,Dutch Mill Park and Ride,SMD,"Madison, WI"
-9392215.8239,5854934.2118,877,885,Curbside Bus Stop only (no shelter),BUS,49783,MI,Sault Sainte Marie, ,4001 I-75 Business Spur, ,SMI,"Sault Sainte Marie, MI"
-13826303.22,5154615.739,878,886,Curbside Bus Stop only (no shelter),BUS,95567,CA,Smith River, ,13450 US Highway 101 North, ,SMR,"Smith River, CA"
-9774936.4112,5130308.7605,879,887,Platform with Shelter,TRAIN,60501,IL,Summit, ,Archer Avenue and South Center Avenue, ,SMT,"Summit, IL"
-13119738.8246,3995501.0753,880,888,Station Building (with waiting room),TRAIN,92701,CA,Santa Ana, ,1000 East Santa Ana Boulevard, ,SNA,"Santa Ana, CA"
-13058964.164,4042790.9666,881,889,Station Building (with waiting room),TRAIN,92410,CA,San Bernardino, ,1170 West Third Street, ,SNB,"San Bernardino, CA"
-13098277.0888,3962036.8093,882,890,Station Building (with waiting room),TRAIN,92675,CA,San Juan Capistrano, ,26701 Verdugo Street, ,SNC,"San Juan Capistrano, CA"
-11398977.2356,3521552.6003,883,891,Platform only (no shelter),TRAIN,79848,TX,Sanderson, ,201 West Downie Street, ,SND,"Sanderson, TX"
-8210135.2251,5445242.4326,884,892,Curbside Bus Stop only (no shelter),BUS,12870,NY,Schroon Lake, ,1567 Route 9, ,SNL,"Schroon Lake, NY"
-13093370.1242,3951138.851,885,893,Platform only (no shelter),TRAIN,92672,CA,San Clemente, ,615 Avenida Victoria, ,SNP,"San Clemente Pier, CA"
-13542758.1083,4394099.4965,886,894,Curbside Bus Stop only (no shelter),BUS,93901,CA,Salinas, ,110 Salinas Street,Transit Center,SNR,"Salinas, CA"
-13542768.3498,4394478.2847,887,895,Station Building (with waiting room),TRAIN,93901,CA,Salinas, ,11 Station Place,Amtrak Station,SNS,"Salinas, CA"
-10123211.8258,5613625.3089,888,896,Curbside Bus Stop only (no shelter),BUS,54768,WI,Stanley, ,604 South Broadway Street, ,SNY,"Stanley, WI"
-9605463.901,5112921.613,889,897,Station Building (with waiting room),TRAIN,46628,IN,South Bend, ,2702 West Washington Street, ,SOB,"South Bend, IN"
-13054564.3621,3894367.1412,890,898,Station Building (with waiting room),TRAIN,92075,CA,Solana Beach, ,105 North Cedros Avenue, ,SOL,"Solana Beach, CA"
-8837688.416,4187698.7888,891,899,Station Building (with waiting room),TRAIN,28387,NC,Southern Pines, ,235 Northwest Broad Street, ,SOP,"Southern Pines, NC"
-13760758.1889,5203052.5955,892,900,Curbside Bus Stop only (no shelter),BUS,97538,OR,Selma, ,110 Deer Creek Road, ,SOR,"Selma, OR"
-9121176.273,4157596.7485,893,901,Station Building (with waiting room),TRAIN,29303,SC,Spartanburg, ,290 Magnolia Street, ,SPB,"Spartanburg, SC"
-13166306.1131,3995147.7542,894,902,Curbside Bus Stop only (no shelter),BUS,90731,CA,San Pedro, ,Berth 95,Catalina Express Terminal,SPD,"San Pedro, CA"
-8081005.3397,5176870.3146,895,903,Station Building (with waiting room),TRAIN,01103,MA,Springfield, ,55 Frank B. Murray Street, ,SPG,"Springfield, MA"
-9979947.099,4837258.9099,896,904,Station Building (with waiting room),TRAIN,62701,IL,Springfield, ,100 North Third Street, ,SPI,"Springfield, IL"
-13070630.2261,6049935.1192,897,905,Station Building (with waiting room),TRAIN,99201,WA,Spokane, ,221 West 1st Avenue,Amtrak Station,SPK,"Spokane, WA"
-10552568.9104,5837358.8209,898,906,Station Building (with waiting room),TRAIN,56479,MN,Staples, ,First Avenue N.E. and Fourth Street N.E., ,SPL,"Staples, MN"
-9235482.9714,4681826.8115,899,907,Platform with Shelter,TRAIN,41174,KY,South Shore, ,Main Street & US 23, ,SPM,"South Shore-South Portsmouth, KY"
-13168262.1081,3993367.8067,900,908,Curbside Bus Stop only (no shelter),BUS,90731,CA,San Pedro, ,931 South Gaffey Street,Public Library,SPO,"San Pedro, CA"
-13678587.2105,5741715.4573,901,909,Curbside Bus Stop only (no shelter),TRAIN,97056,OR,Scappoose, ,33559 NE Prairie Street, ,SPP,"Scappoose, OR"
-12973796.5158,6152935.035,902,910,Platform with Shelter,TRAIN,83864,ID,Sandpoint, ,450 Railroad Avenue, ,SPT,"Sandpoint, ID"
-13331302.0643,4798386.9315,903,911,Curbside Bus Stop only (no shelter),BUS,89431,NV,Sparks, ,1100 Nugget Avenue, ,SPX,"Sparks, NV"
-13705256.307,6120042.6131,904,912,Curbside Bus Stop only (no shelter),BUS,98382,WA,Sequim, ,609 West Washington Street, ,SQM,"Sequim, WA"
-9179029.9954,3165660.338,905,913,Curbside Bus Stop only (no shelter),BUS,34232,FL,Sarasota, ,5600 Fruitville Road, ,SRA,"Sarasota, FL"
-13661978.3178,4643989.6698,906,914,Curbside Bus Stop only (no shelter),BUS,95401,CA,Santa Rosa, ,917 Edwards Avenue, ,SRC,"Santa Rosa, CA"
-8423660.5303,5073035.4033,907,915,Station Building (with waiting room),BUS,18503,PA,Scranton, ,30 Lackawanna Avenue, ,SRN,"Scranton, PA"
-7670988.039,5537025.7393,908,916,Curbside Bus Stop only (no shelter),BUS,04974,ME,Searsport, ,161 East Main Street, ,SRT,"Searsport, ME"
-13794244.0659,5780612.4139,909,917,Curbside Bus Stop only (no shelter),BUS,97138,OR,Seaside, ,1100 12th Avenue,Seaside Cinema,SSD,"Seaside, OR"
-8556266.4603,4982614.2942,910,918,Curbside Bus Stop only (no shelter),BUS,17870,PA,Selinsgrove, ,105 South Market Street, ,SSG,"Selinsgrove, PA"
-13794819.9217,5780365.1432,911,919,Curbside Bus Stop only (no shelter),BUS,97138,OR,Seaside, ,930 North Holladay Drive,Seaside Lodge & Int'l Hostel,SSH,"Seaside, OR"
-8714101.0368,4236523.3909,912,920,Station Building (with waiting room),TRAIN,27576,NC,Selma, ,500 East Railroad Street, ,SSM,"Selma-Smithfield, NC"
-13479499.2208,6064807.7461,913,921,Curbside Bus Stop only (no shelter),BUS,98826,WA,Stevens Pass, ,US Highway 2 at Summit Parking Lot, ,SSW,"Stevens Pass, WA"
-8802230.1607,4600304.3671,914,922,Station Building (with waiting room),TRAIN,24401,VA,Staunton, ,1 Middlebrook Avenue, ,STA,"Staunton, VA"
-8668196.7964,4981753.1992,915,923,Station Building (with waiting room),BUS,16801,PA,State College, ,152 North Atherton Street, ,STC,"State College, PA"
-12644161.7593,4452310.3027,916,924,Curbside Bus Stop only (no shelter),BUS,84770,UT,St. George, ,805 South Bluff Street, ,STG,"St. George, UT"
-9431116.2015,5757713.0064,917,925,Station Building (with waiting room),BUS,49781,MI,St. Ignace,Transportation Center,700 West US Hwy 2, ,STI,"St. Ignace, MI"
-10041461.031,4667983.8193,918,926,Station Building (with waiting room),TRAIN,63103,MO,St. Louis, ,430 South 15th Street,Gateway Station,STL,"St. Louis, MO"
-8186675.95,5019297.0461,919,927,Station Building (with waiting room),TRAIN,06902,CT,Stamford, ,Washington Blvd and South State Street, ,STM,"Stamford, CT"
-11397934.7367,6160227.4894,920,928,Station Building (with waiting room),TRAIN,58784,ND,Stanley, ,Main Street & Railroad Avenue, ,STN,"Stanley, ND"
-13530230.8899,5510753.9785,921,929,Curbside Bus Stop only (no shelter),BUS,97759,OR,Sisters, ,East Main Avenue & North Locust Street, ,STO,"Sisters, OR"
-9204689.0358,3229525.8156,922,930,Curbside Bus Stop only (no shelter),BUS,33781,FL,Pinellas Park, ,8005 US Hwy 19 N, ,STP,"St. Petersburg-Clearwater, FL"
-8117649.6076,5057472.456,923,931,Platform with Shelter,TRAIN,06519,CT,New Haven, ,259 State Street,State Street Station,STS,"New Haven, CT"
-13619934.1384,6147317.4431,924,932,Platform only (no shelter),TRAIN,98292,WA,Stanwood, ,27111 Florence Way, ,STW,"Stanwood, WA"
-13585554.4675,4613868.2127,925,933,Station Building (with waiting room),TRAIN,94585,CA,Suisun City, ,177 Main Street, ,SUI,"Suisun-Fairfield, CA"
-13519319.2316,5445942.9712,926,934,Curbside Bus Stop only (no shelter),BUS,97707,OR,Sunriver, ,56896 Venture Lane, ,SUN,"Sunriver, OR"
-8548249.4511,4991971.0366,927,935,Curbside Bus Stop only (no shelter),BUS,17801,PA,Sunbury, ,60 North 4th Street, ,SUR,"Sunbury, PA"
-13045511.5317,3990058.3229,928,936,Curbside Bus Stop only (no shelter),BUS,92586,CA,Sun City-Menifee, ,26938 Cherry Hills Blvd., ,SUT,"Sun City-Menifee, CA"
-13765827.9845,5806939.9705,929,937,Curbside Bus Stop only (no shelter),BUS,97103,OR,Svenson, ,40490 Old Highway 30, ,SVE,"Svenson, OR"
-13620275.4269,6042815.4278,930,938,Station Building (with waiting room),BUS,98121,WA,Seattle, ,2701 Alaskan Way,Clipper Vacations Ferry Terminal,SVF,"Seattle, WA"
-9971503.6807,5548325.0375,931,939,Curbside Bus Stop only (no shelter),BUS,54481,WI,Stevens Point, ,200 Division Street,Olympia Family Restaurant,SVP,"Stevens Point, WI"
-9785685.2122,5269192.0529,932,940,Station Building (with waiting room),TRAIN,53177,WI,Sturtevant, ,9900 East Exploration Court, ,SVT,"Sturtevant, WI"
-9971063.1893,5547666.5245,933,941,Curbside Bus Stop only (no shelter),BUS,54481,WI,Stevens Point, ,2050 4th Avenue,University of Wisconsin,SVU,"Stevens Point, WI"
-13584090.3781,4445937.4112,934,942,Curbside Bus Stop only (no shelter),BUS,95066,CA,Scotts Valley, ,246 Kings Village Road, ,SVY,"Scotts Valley, CA"
-8587144.5653,4122791.6008,935,943,Curbside Bus Stop only (no shelter),BUS,28584,NC,Swansboro, ,809 West Corbett Avenue, ,SWB,"Swansboro, NC"
-8472776.3887,5329232.6796,936,944,Curbside Bus Stop only (no shelter),BUS,13212,NY,Syracuse, ,1000 Colonel Eileen Collins Blvd,Syracuse Hancock Airport,SYA,"Syracuse, NY"
-8774502.1587,5019755.4894,937,945,Curbside Bus Stop only (no shelter),BUS,15865,PA,Sykesville, ,14 West Main Street, ,SYK,"Sykesville, PA"
-8479121.7128,5323631.8145,938,946,Station Building (with waiting room),TRAIN,13208,NY,Syracuse, ,1 Walsh Circle,Regional Transportation Center,SYR,"Syracuse, NY"
-8554619.1618,5131872.7423,939,947,Curbside Bus Stop only (no shelter),BUS,16947,PA,Sylvania, ,2811 Sylvania Road, ,SYV,"Sylvania, PA"
-13628503.7098,5981455.3509,940,948,Station Building (with waiting room),BUS,98402,WA,Tacoma, ,510 Puyallup Avenue,Greyhound Station,TAB,"Tacoma, Washington"
-13627789.8179,5981647.1928,941,949,Station Building (with waiting room),TRAIN,98421,WA,Tacoma, ,1001 Puyallup Avenue,Amtrak Station,TAC,"Tacoma, WA"
-13332341.7461,4333250.3463,942,950,Platform only (no shelter),BUS,93245,CA,Lemoore, ,17225 Jersey Avenue, ,TAP,"Tachi Palace, CA"
-10843383.4177,3576729.5248,943,951,Platform only (no shelter),TRAIN,76574,TX,Taylor, ,118 East First Street, ,TAY,"Taylor, TX"
-9276425.2612,4106742.4385,944,952,Station Building (with waiting room),TRAIN,30577,GA,Toccoa, ,47 North Alexander Street, ,TCA,"Toccoa, GA"
-9747160.5598,3920972.3678,945,953,Station Building (with waiting room),TRAIN,35401,AL,Tuscaloosa, ,2105 Greensboro Avenue, ,TCL,"Tuscaloosa, AL"
-8836998.4112,5412388.8986,946,954,Station Building (with waiting room),BUS,M5G 1A6,ON,Toronto, ,610 Bay Street,Coach Terminal,TCT,"Toronto, ON"
-13185922.2936,4181939.6741,947,955,Curbside Bus Stop only (no shelter),BUS,93561,CA,Tehachapi, ,335 West Tehachapi Blvd, ,TEH,"Tehachapi, CA"
-12461456.1247,3952193.3721,948,956,Curbside Bus Stop only (no shelter),BUS,85281,AZ,Tempe, ,300 South Ash Avenue, ,TEM,"Tempe, AZ"
-12741588.5642,5249243.2321,949,957,Curbside Bus Stop only (no shelter),BUS,83301,ID,Twin Falls, ,1390 Blue Lakes Boulevard North, ,TFI,"Twin Falls, ID"
-13489728.0946,5716671.4736,950,958,Curbside Bus Stop only (no shelter),BUS,97058,OR,The Dalles, ,201 East Federal Street, ,THD,"The Dalles, OR"
-9025645.9963,4573352.2081,951,959,Platform with Shelter,TRAIN,25936,WV,Thurmond, ,Hwy 25 & Hwy 2, ,THN,"Thurmond, WV"
-7966645.1289,5381594.4765,952,960,Curbside Bus Stop only (no shelter),BUS,03276,NH,Tilton, ,63 Laconia Road, ,TLT,"Tilton, NH"
-13167613.8955,4007789.6274,953,961,Curbside Bus Stop only (no shelter),BUS,90502,CA,Torrance, ,20575 Hamilton Avenue, ,TOA,"Torrance, CA"
-10075008.1208,5463278.2316,954,962,Station Building (with waiting room),TRAIN,54660,WI,Tomah, ,North Superior Avenue and Washington Street, ,TOH,"Tomah, WI"
-9299822.3429,5106959.4836,955,963,Station Building (with waiting room),TRAIN,43604,OH,Toledo, ,415 Emerald Avenue, ,TOL,"Toledo, OH"
-10649370.5952,4729039.9991,956,964,Station Building (with waiting room),TRAIN,66607,KS,Topeka, ,500 SE Holliday Place, ,TOP,"Topeka, KS"
-9178378.8896,3242986.089,957,965,Station Building (with waiting room),TRAIN,33602,FL,Tampa, ,601 North Nebraska Avenue,Union Station,TPA,"Tampa, FL"
-10836484.8388,3645208.3475,958,966,Station Building (with waiting room),TRAIN,76501,TX,Temple, ,315 West Avenue B, ,TPL,"Temple, TX"
-13784096.946,5693675.2883,959,967,Curbside Bus Stop only (no shelter),BUS,97141,OR,Tillamook, ,3600 3rd Street,Park & Ride,TPR,"Tillamook, OR"
-13518205.6023,4545776.2253,960,968,Curbside Bus Stop only (no shelter),BUS,95376,CA,Tracy, ,725 West Clover Road,Wendy's restaurant,TRA,"Tracy, CA"
-13517969.1588,4536599.7632,961,969,Platform with Shelter,TRAIN,95377,CA,Tracy, ,4800 Tracy Boulevard,ACE Station,TRC,"Tracy, CA"
-8321626.3799,4897820.7739,962,970,Station Building (with waiting room),TRAIN,08609,NJ,Trenton, ,72 South Clinton Avenue, ,TRE,"Trenton, NJ"
-13813302.9221,5462692.9923,963,971,Platform only (no shelter),BUS,97439,OR,Florence, ,5647 OR-126,Three Rivers Casino,TRF,"Florence, OR"
-11633776.3115,4463205.5295,964,972,Platform only (no shelter),TRAIN,81082,CO,Trinidad, ,110 West Pine Street, ,TRI,"Trinidad, CO"
-13447174.291,4512853.4386,965,973,Platform with Shelter,TRAIN,95316,CA,Denair, ,3800 Santa Fe Avenue, ,TRK,"Turlock-Denair, CA"
-9260783.1512,5242602.4747,966,974,Station Building (with waiting room),TRAIN,48084,MI,Troy, ,1201 Doyle Drive, ,TRM,"Troy, MI"
-8546583.2277,5129736.0847,967,975,Curbside Bus Stop only (no shelter),BUS,16947,PA,Troy, ,590 Elmira Street, ,TRP,"Troy, PA"
-8578459.0141,5068832.2555,968,976,Curbside Bus Stop only (no shelter),BUS,17771,PA,Trout Run, ,68 State Highway 14, ,TRR,"Trout Run, PA"
-13378977.5353,4768709.7485,969,977,Station Building (with waiting room),TRAIN,96161,CA,Truckee, ,10065 Donner Pass Road, ,TRU,"Truckee, CA"
-9532048.7104,5584628.9275,970,978,Curbside Bus Stop only (no shelter),BUS,49684,MI,Traverse City, ,107 Hall Street, ,TRV,"Traverse City, MI"
-12481856.4509,4297095.6331,971,979,Curbside Bus Stop only (no shelter),BUS,86023,AZ,Tusayan, ,Arizona Highway 64, ,TSY,"Tusayan, AZ"
-13786065.8541,5693746.3853,972,980,Curbside Bus Stop only (no shelter),BUS,97141,OR,Tillamook, ,204 Laurel Avenue,Transit Center,TTC,"Tillamook, OR"
-13664334.2975,5683884.8089,973,981,Curbside Bus Stop only (no shelter),BUS,97062,OR,Tualatin, ,Southwest 72nd Ave & Bridgeport Rd, ,TUA,"Tualatin, OR"
-13607724.4822,6017662.5925,974,982,Platform with Shelter,TRAIN,98188,WA,Tukwila, ,7301 Longacres Way, ,TUK,"Tukwila, WA"
-12352765.5241,3792616.2014,975,983,Station Building (with waiting room),TRAIN,85701,AZ,Tucson, ,400 North Toole Avenue, ,TUS,"Tucson, AZ"
-9123521.9683,3369674.5611,976,984,Curbside Bus Stop only (no shelter),BUS,32159,FL,Lady Lake, ,13535 North US Highway 441, ,TVF,"The Villages-Lady Lake, FL"
-9298635.4821,5505345.0388,977,985,Curbside Bus Stop only (no shelter),BUS,48763,MI,Tawas City, ,1020 West Lake Street, ,TWC,"Tawas City, MI"
-8836626.3812,5410735.4756,978,986,Station Building (with waiting room),TRAIN,M5J 1E7,ON,Toronto, ,65 Front Street West,Union Station,TWO,"Toronto, ON"
-10468828.7637,3951195.2884,979,987,Station Building (with waiting room),TRAIN,71854,AR,Texarkana, ,100 East Front Street, ,TXA,"Texarkana, AR"
-10608689.4881,3809954.2117,980,988,Curbside Bus Stop only (no shelter),BUS,75702,TX,Tyler, ,210 East Oakwood Street, ,TYL,"Tyler, TX"
-8709689.5901,4963452.2791,981,989,Platform with Shelter,TRAIN,16686,PA,Tyrone, ,Pennsylvania Avenue and West 10th Street, ,TYR,"Tyrone, PA"
-8373834.5913,5327799.9828,982,990,Station Building (with waiting room),TRAIN,13501,NY,Utica, ,321 Main Street, ,UCA,"Utica, NY"
-13714418.4984,4743459.8181,983,991,Curbside Bus Stop only (no shelter),BUS,95482,CA,Ukiah, ,115 North Orchard Avenue, ,UKH,"Ukiah, CA"
-8920485.2118,4308049.1518,984,992,Curbside Bus Stop only (no shelter),BUS,27110,NC,Winston-Salem, ,"Martin Luther King, Jr. Drive & Excelsior St.",Winston-Salem State University,UWS,"Winston-Salem, NC"
-8457844.8339,4417816.3469,985,993,Curbside Bus Stop only (no shelter),BUS,23451,VA,Virginia Beach, ,1912 Arctic Avenue, ,VAB,"Virginia Beach, VA"
-13703245.7999,6321441.4909,986,994,Station Building (with waiting room),TRAIN,V6A 4C7,BC,Vancouver, ,1150 Station Street,Pacific Central Station,VAC,"Vancouver, BC"
-13051281.5868,5462509.9237,987,995,Curbside Bus Stop only (no shelter),BUS,97918,OR,Vale,251 B Street West,Malheur County Courthouse, ,VAE,"Vale, OR"
-13609837.8143,4593599.8738,988,996,Curbside Bus Stop only (no shelter),BUS,94590,CA,Vallejo, ,311 Sacramento Street,Vallejo Transit Center,VAL,"Vallejo, CA"
-13657405.2201,5721079.3462,989,997,Station Building (with waiting room),TRAIN,98660,WA,Vancouver, ,1301 West 11th Street, ,VAN,"Vancouver, WA"
-13549625.7552,4536708.7922,990,998,Platform with Shelter,TRAIN,94550,CA,Livermore, ,575 South Vasco Road,Vasco Road ACE Station,VAS,"Livermore, CA"
-13733052.7978,6177175.5982,991,999,Station Building (with waiting room),BUS,V8W 2B4,BC,Victoria, ,721 Douglas St.,Capital City Station,VBC,"Victoria, BC"
-13280407.5016,4066048.3651,992,1000,Platform with Shelter,TRAIN,93001,CA,Ventura, ,39 East Harbor Blvd, ,VEC,"Ventura, CA"
-13733951.9256,6177422.3435,993,1001,Station Building (with waiting room),BUS,V8V 1W9,BC,Victoria, ,254 Belleville Street,Clipper Vacations Ferry Terminal,VIF,"Victoria, BC"
-13279128.0163,4346386.52,994,1002,Station Building (with waiting room),BUS,93291,CA,Visalia, ,425 E. Oak Street, ,VIS,"Visalia, CA"
-10116239.4262,3804903.0768,995,1003,Station Building (with waiting room),BUS,39180,MS,Vicksburg, ,1295 South Frontage Road, ,VKS,"Vicksburg, MS"
-13606644.8373,4598940.8071,996,1004,Curbside Bus Stop only (no shelter),BUS,94589,CA,Vallejo, ,1001 Fairgrounds Drive,Six Flags Discovery Kingdom,VMW,"Vallejo, CA"
-9896041.6567,4497166.183,997,1005,Curbside Bus Stop only (no shelter),BUS,62995,IL,Vienna, ,504 West Vine Street, ,VNA,"Vienna, IL"
-13185595.3392,4057209.7119,998,1006,Station Building (with waiting room),TRAIN,91405,CA,Van Nuys, ,7724 Van Nuys Boulevard, ,VNC,"Van Nuys, CA"
-13056993.4787,4101165.6524,999,1007,Platform only (no shelter),TRAIN,92395,CA,Victorville, ,16858 South D Street,Amtrak Station,VRV,"Victorville, CA"
-13731516.9268,5473377.0252,1000,1008,Platform only (no shelter),BUS,97487,OR,Veneta, ,25042 W Broadway, ,VTA,"Veneta, OR"
-8098694.1402,5517434.5213,1001,1009,Station Building (with waiting room),TRAIN,05676,VT,Waterbury, ,US Highway 2 and Park Row, ,WAB,"Waterbury-Stowe, VT"
-13284013.2649,4244912.5196,1002,1010,Platform with Shelter,TRAIN,93280,CA,Wasco, ,700 G Street, ,WAC,"Wasco, CA"
-10131490.0258,4659049.6063,1003,1011,Station Building (with waiting room),TRAIN,63090,MO,Washington, ,301 West Front Street, ,WAH,"Washington, MO"
-10435190.0535,4687745.2943,1004,1012,Station Building (with waiting room),TRAIN,64093,MO,Warrensburg, ,100 South Holden Street, ,WAR,"Warrensburg, MO"
-8572315.9393,4706928.5394,1005,1013,Station Building (with waiting room),TRAIN,20002,DC,Washington, ,50 Massachusetts Avenue NE,Union Station,WAS,"Washington, DC"
-9920766.7996,5520825.6629,1006,1014,Curbside Bus Stop only (no shelter),BUS,54981,WI,Waupaca, ,1222 West Fulton Street, ,WAU,"Waupaca, WI"
-8539158.5176,4477706.7319,1007,1015,Station Building (with waiting room),TRAIN,23185,VA,Williamsburg, ,468 North Boundary Street, ,WBG,"Williamsburg, VA"
-13678537.8819,5645418.5813,1008,1016,Platform with Shelter,BUS,97071,OR,Woodburn, ,2900 Tom Tennant Drive, ,WBN,"Woodburn, OR"
-13610502.3878,4550811.5178,1009,1017,Platform only (no shelter),BUS,94607,CA,Oakland, ,1451 7th St,West Oakland BART,WBT,"Oakland, CA"
-13179381.9273,4025557.0256,1010,1018,Curbside Bus Stop only (no shelter),BUS,90045,CA,Westchester, ,6860 Park Terrace, ,WCH,"Westchester, CA"
-10812724.0242,3704678.204,1011,1019,Curbside Bus Stop only (no shelter),BUS,76701,TX,Waco, ,301 South 8th Street, ,WCX,"Waco, TX"
-8599191.8107,4672932.2743,1012,1020,Platform with Shelter,TRAIN,22194,VA,Woodbridge, ,1040 Express Way, ,WDB,"Woodbridge, VA"
-9993980.8614,5407825.5783,1013,1021,Station Building (with waiting room),TRAIN,53965,WI,Wisconsin Dells, ,100 LaCrosse Street, ,WDL,"Wisconsin Dells, WI"
-9146758.5863,3476650.5154,1014,1022,Station Building (with waiting room),BUS,32694,FL,Waldo, ,14648 NE 147th Avenue, ,WDO,"Waldo, FL"
-7723581.3931,5481159.9083,1015,1023,Curbside Bus Stop only (no shelter),BUS,04572,ME,Waldoboro, ,1519 Atlantic Highway, ,WDR,"Waldoboro, ME"
-13392549.6584,6011075.9366,1016,1024,Curbside Bus Stop only (no shelter),BUS,98801,WA,Wenatchee, ,300 South Columbia Street,Link Transit Columbia Station,WEC,"Wenatchee, WA"
-10840497.9548,4477498.8537,1017,1025,Curbside Bus Stop only (no shelter),BUS,67152,KS,Wellington, ,1400 East 16th Street, ,WEL,"Wellington, KS"
-7860513.3129,5360935.918,1018,1026,Station Building (with waiting room),TRAIN,04090,ME,Wells, ,696 Sanford Road, ,WEM,"Wells, ME"
-13392465.7234,6011157.2133,1019,1027,Platform with Shelter,TRAIN,98801,WA,Wenatchee, ,1 Kittitas Street,Amtrak Station,WEN,"Wenatchee, WA"
-13185681.3879,4038040.8191,1020,1028,Curbside Bus Stop only (no shelter),BUS,90024,CA,Los Angeles, ,592 Gayley Ave., ,WES,"Westwood UCLA, CA"
-8106866.6426,5079981.2025,1021,1029,Platform with Shelter,TRAIN,06492,CT,Wallingford, ,343 North Cherry St., ,WFD,"Wallingford, CT"
-12727779.5053,6175921.0112,1022,1030,Station Building (with waiting room),TRAIN,59937,MT,Whitefish, ,500 Depot Street, ,WFH,"Whitefish, MT"
-13639923.7863,5427974.8414,1023,1031,Platform only (no shelter),BUS,97492,OR,Westfir, ,46433 Westfir Road, ,WFR,"Westfir, OR"
-12688104.0083,6189809.565,1024,1032,Platform only (no shelter),TRAIN,59936,MT,West Glacier, ,12544 US Highway 2 East, ,WGL,"West Glacier, MT"
-8171207.7858,5396788.0404,1025,1033,Platform only (no shelter),TRAIN,12887,NY,Whitehall, ,154 Main Street, ,WHL,"Whitehall, NY"
-11684531.1719,5168167.7874,1026,1034,Platform with Shelter,BUS,82201,WY,Wheatland, ,91 16th Street, ,WHT,"Wheatland, WY"
-8427109.7632,5022876.9781,1027,1035,Curbside Bus Stop only (no shelter),BUS,18661,PA,White Haven, ,525 State Route 940, ,WHV,"White Haven, PA"
-10835178.6669,4534981.5221,1028,1036,Platform with Shelter,BUS,67202,KS,Wichita, ,214 South Topeka Street, ,WIC,"Wichita, KS"
-13465890.9155,5725660.0246,1029,1037,Platform only (no shelter),TRAIN,98673,WA,Wishram, ,1 Railroad Avenue, ,WIH,"Wishram, WA"
-8410309.6336,4827836.3478,1030,1038,Station Building (with waiting room),TRAIN,19801,DE,Wilmington, ,100 South French Street, ,WIL,"Wilmington, DE"
-10201327.0599,5472317.6113,1031,1039,Station Building (with waiting room),TRAIN,55987,MN,Winona, ,65 East Mark Street, ,WIN,"Winona, MN"
-11779538.8984,4858326.5642,1032,1040,Platform with Shelter,TRAIN,80442,CO,Fraser, ,205 Fraser Avenue, ,WIP,"Fraser-Winter Park, CO"
-10002798.4911,5527084.8938,1033,1041,Curbside Bus Stop only (no shelter),BUS,54495,WI,Wisconsin Rapids, ,2611 West Grand Avenue, ,WIR,"Wisconsin Rapids, WI"
-9925741.5642,5594302.4095,1034,1042,Curbside Bus Stop only (no shelter),BUS,54499,WI,Wittenberg, ,505 Grand Avenue, ,WIT,"Wittenberg, WI"
-8447278.9702,5048551.3298,1035,1043,Station Building (with waiting room),BUS,18701,PA,Wilkes-Barre, ,47 South Washington Street, ,WKB,"Wilkes-Barre, PA"
-13533624.7076,5653875.3227,1036,1044,Curbside Bus Stop only (no shelter),BUS,97067,OR,Welches, ,68280 East Highway 26, ,WLC,"Welches, OR"
-8571690.7859,5047858.911,1037,1045,Station Building (with waiting room),BUS,17701,PA,Williamsport, ,11 West Church Street, ,WLM,"Williamsport, PA"
-8672682.3824,4262592.7179,1038,1046,Station Building (with waiting room),TRAIN,27893,NC,Wilson, ,401 East Nash Street, ,WLN,"Wilson, NC"
-12322510.1282,4166826.5918,1039,1047,Platform with Shelter,TRAIN,86047,AZ,Winslow, ,303 East Second Street (Route 66), ,WLO,"Winslow, AZ"
-7996054.6209,5068715.8197,1040,1048,Platform with Shelter,TRAIN,02891,RI,Westerly, ,14 Railroad Avenue, ,WLY,"Westerly, RI"
-12488946.7173,4198173.8033,1041,1049,Station Building (with waiting room),TRAIN,86046,AZ,Williams, ,233 North Grand Canyon Blvd,Grand Canyon Railway Depot,WMA,"Williams, AZ"
-12489840.5017,4198063.387,1042,1050,Station Building (with waiting room),BUS,86046,AZ,Williams, ,1150 West Cataract Lake Road,Holiday Inn Express,WMH,"Williams, AZ"
-8668993.9132,4062581.9639,1043,1051,Station Building (with waiting room),BUS,28405,NC,Wilmington, ,505 Cando Street, ,WMN,"Wilmington, NC"
-13499023.4775,5584427.0039,1044,1052,Curbside Bus Stop only (no shelter),BUS,97761,CO,Warm Springs, ,2172 Highway 26, ,WMS,"Warm Springs, OR"
-8086498.734,5138838.6956,1045,1053,Platform with Shelter,TRAIN,06095,CT,Windsor, ,41 Central Street, ,WND,"Windsor, CT"
-8084700.7014,5148100.4486,1046,1054,Platform with Shelter,TRAIN,06096,CT,Windsor Locks, ,South Main Street at Stanton Road, ,WNL,"Windsor Locks, CT"
-8057859.7934,5385307.7253,1047,1055,Platform only (no shelter),TRAIN,05089,VT,Windsor, ,26 Depot Avenue, ,WNM,"Windsor-Mt. Ascutney, VT"
-13105891.0998,5007777.5563,1048,1056,Platform with Shelter,TRAIN,89445,NV,Winnemucca, ,209 Railroad Street, ,WNN,"Winnemucca, NV"
-9244294.8348,5208661.1306,1049,1057,Station Building (with waiting room),BUS,N9A 7B8,ON,Windsor, ,300 Chatham Street West, ,WNO,"Windsor, ON"
-10125261.5654,4309936.1947,1050,1058,Station Building (with waiting room),TRAIN,72476,AR,Walnut Ridge, ,109 Southwest Front Street, ,WNR,"Walnut Ridge, AR"
-8932895.3353,4314360.485,1051,1059,Station Building (with waiting room),BUS,27101,NC,Winston-Salem, ,100 West 5th Street,Clark Campbell Transp Center,WNS,"Winston-Salem, NC"
-13792696.1721,5806262.1826,1052,1060,Curbside Bus Stop only (no shelter),BUS,97146,OR,Warrenton, ,695 S. Highway 101, ,WNT,"Warrenton, OR"
-7919694.2193,5238796.2989,1053,1061,Station Building (with waiting room),TRAIN,01801,MA,Woburn, ,100 Atlantic Avenue, ,WOB,"Woburn, MA"
-7992162.0054,5200229.7098,1054,1062,Station Building (with waiting room),TRAIN,01604,MA,Worcester, ,2 Washington Square,Union Station,WOR,"Worcester, MA"
-8912481.8516,3087605.4559,1055,1063,Station Building (with waiting room),TRAIN,33401,FL,West Palm Beach, ,209 South Tamarind Avenue, ,WPB,"West Palm Beach, FL"
-9056062.7812,3324465.7072,1056,1064,Station Building (with waiting room),TRAIN,32789,FL,Winter Park, ,148 West Morse Boulevard, ,WPK,"Winter Park, FL"
-9876040.164,5408875.4015,1057,1065,Curbside Bus Stop only (no shelter),BUS,53963,WI,Waupun, ,928 East Main Street, ,WPN,"Waupun, WI"
-13733837.3174,5801122.7227,1058,1066,Curbside Bus Stop only (no shelter),BUS,97016,OR,Westport, ,49332 U.S. Highway 30, ,WPO,"Westport, OR"
-11773511.725,4849620.6412,1059,1067,Platform with Shelter,TRAIN,80402,CO,Winter Park, ,85 Parsenn Road,Winter Park Resort Trn Platform,WPR,"Winter Park, CO"
-11773354.8758,4849055.7206,1060,1068,Curbside Bus Stop only (no shelter),BUS,80402,CO,Winter Park, ,Cabriolet Way,Winter Park Shuttle Bus Stop,WPS,"Winter Park, CO"
-11760096.8678,6122120.5899,1061,1069,Station Building (with waiting room),TRAIN,59201,MT,Wolf Point, ,320 Front Street, ,WPT,"Wolf Point, MT"
-8212672.8621,5387842.7685,1062,1070,Curbside Bus Stop only (no shelter),BUS,12885,NY,Warrensburg, ,3867 Main Street, ,WRB,"Warrensburg, NY"
-8050322.0154,5411098.2722,1063,1071,Station Building (with waiting room),TRAIN,05001,VT,White River Junction, ,102 Railroad Row, ,WRJ,"White River Junction, VT"
-8449167.751,5464605.2897,1064,1072,Station Building (with waiting room),BUS,13601,NY,Watertown, ,22088 Route 11 North, ,WRT,"Watertown, NY"
-9961323.9468,5448095.2179,1065,1073,Curbside Bus Stop only (no shelter),BUS,53964,WI,Westfield, ,244 North Pioneer Park Road, ,WSF,"Westfield, WI"
-9976968.6959,5615142.2153,1066,1074,Curbside Bus Stop only (no shelter),BUS,54403,WI,Wausau, ,555 Jefferson Street,Transit Center,WSJ,"Wausau, WI"
-8176614.1349,5494472.7118,1067,1075,Station Building (with waiting room),TRAIN,12993,NY,Westport, ,6705 Main Street, ,WSP,"Westport, NY"
-8939401.1935,4549302.1899,1068,1076,Platform with Shelter,TRAIN,24986,WV,White Sulphur Springs, ,315 West Main Street, ,WSS,"White Sulphur Springs, WV"
-7759996.0137,5461725.0142,1069,1077,Curbside Bus Stop only (no shelter),BUS,04578,ME,Wiscasset, ,639 Bath Road, ,WST,"Wiscasset, ME"
-9978194.8791,5598618.1528,1070,1078,Station Building (with waiting room),BUS,54474,WI,Rothschild, ,2415 Trailwood Lane,Lamers Connect bus station,WSU,"Wausau-Rothschild, WI"
-9098685.3546,3249245.0099,1071,1079,Station Building (with waiting room),TRAIN,33880,FL,Winter Haven, ,1800 7th Street SW, ,WTH,"Winter Haven, FL"
-9464862.1075,5076245.7649,1072,1080,Station Building (with waiting room),TRAIN,46793,IN,Waterloo, ,485 West Van Vleek Street, ,WTI,"Waterloo, IN"
-11535029.953,6130679.2585,1073,1081,Station Building (with waiting room),TRAIN,58801,ND,Williston, ,1 South Main Street, ,WTN,"Williston, ND"
-13731372.3519,4780946.7811,1074,1082,Curbside Bus Stop only (no shelter),BUS,95490,CA,Willits, ,298 East Commercial Street,Calif Western Railroad Depot,WTS,"Willits, CA"
-13173717.2864,5790931.2705,1075,1083,Curbside Bus Stop only (no shelter),BUS,99362,WA,Walla Walla, ,108 West Main Street, ,WWA,"Walla Walla, WA"
-9132597.7373,3358623.4009,1076,1084,Station Building (with waiting room),BUS,34785,FL,Wildwood, ,601 North Main Street, ,WWD,"Wildwood, FL"
-10064978.0145,3875209.8436,1077,1085,Platform with Shelter,TRAIN,39194,MS,Yazoo City, ,West Broadway (SR149) & North Water Street, ,YAZ,"Yazoo City, MS"
-8999836.1985,3854002.695,1078,1086,Platform with Shelter,TRAIN,29945,SC,Yemassee, ,15 Wall Street, ,YEM,"Yemassee, SC"
-8226762.4447,5002846.4747,1079,1087,Station Building (with waiting room),TRAIN,10701,NY,Yonkers, ,5 Buena Vista Avenue, ,YNY,"Yonkers, NY"
-13310540.2834,4542442.5474,1080,1088,Curbside Bus Stop only (no shelter),BUS,95389,CA,Yosemite National Park, ,9010 Curry Village Drive,Curry Village,YOC,"Yosemite National Park, CA"
-13335758.6052,4544611.1077,1081,1089,Curbside Bus Stop only (no shelter),BUS,95389,CA,Yosemite National Park, ,8028 Big Oak Flat Road,Crane Flat,YOF,"Yosemite National Park, CA"
-13320220.4028,4514316.8716,1082,1090,Curbside Bus Stop only (no shelter),BUS,95389,CA,Yosemite National Park, ,1 Forest Drive,Wawona,YOH,"Yosemite National Park, CA"
-13317190.0627,4509991.0694,1083,1091,Curbside Bus Stop only (no shelter),BUS,95389,CA,Yosemite National Park, ,Mariposa Grove Road,Mariposa Grove,YOM,"Yosemite National Park, CA"
-13313738.0477,4543134.5686,1084,1092,Curbside Bus Stop only (no shelter),BUS,95389,CA,Yosemite National Park, ,9006 Yosemite Lodge Drive,Yosemite Valley Lodge,YOS,"Yosemite National Park, CA"
-13288632.1605,4561394.0275,1085,1093,Curbside Bus Stop only (no shelter),BUS,95389,CA,Yosemite National Park, ,Tioga Pass Road,Tuolomne Meadows,YOT,"Yosemite National Park, CA"
-13312289.447,4543894.2124,1086,1094,Curbside Bus Stop only (no shelter),BUS,95389,CA,Yosemite National Park, ,9035 Village Drive,Visitor Center,YOV,"Yosemite National Park, CA"
-13319299.7946,4561026.812,1087,1095,Curbside Bus Stop only (no shelter),BUS,95389,CA,Yosemite National Park, ,Old Tioga Road at Highway 120 East,White Wolf Lodge,YOW,"Yosemite National Park, CA"
-12758948.2751,3858613.3397,1088,1096,Platform only (no shelter),TRAIN,85364,AZ,Yuma, ,281 Gila Street, ,YUM,"Yuma, AZ"
